id,address,source,city,country,zip,source_id,state,longitude,latitude,updated
1,4439 Ruskin Way,L,Fentange,LU,L-5891,72a6245a-bee3-4ed4-90fc-898bf7c7350c,,6.1544928,49.5670697,2019-12-29
2,26628 Dovetail Lane,L,Qiaonan,CN,,41ee0af6-fa81-4cc5-b09e-76c51b738a2e,,113.3681177,22.925131,2020-06-18
3,905 Straubel Pass,XS,Wugui,CN,,41a802ce-e910-4328-b5d3-45e1295745ee,,116.442259,39.907483,2020-07-19
4,61 Elgar Way,L,Kalwaria Zebrzydowska,PL,34-130,946536cd-ed46-42a2-92d5-2b15e9395084,,19.67676,49.86686,2020-07-08
5,03494 Truax Pass,M,Mancagahar,ID,,27d54729-df25-449a-9211-2b42231bdeaf,,107.7073688,-7.6569277,2019-09-18
6,3579 Melody Junction,2XL,Nagasaki-shi,JP,852-8005,425089fc-41c8-4a9d-bad9-730fb7715267,,129.8585548,32.7493573,2019-09-08
7,9429 Nevada Parkway,XS,Aimorés,BR,35200-000,0dd48de5-2cb0-4d35-8132-47685c0721cb,,-41.0713439,-19.4959312,2018-02-11
8,193 Pawling Park,XL,Gjøvik,NO,2821,c62d8331-76f2-4bba-90cc-e3e32fdb63b7,5,10.705945,60.79832,2018-09-14
9,38 Dryden Parkway,M,Yŏnmu,KR,,cfc858e6-8655-4fef-8b05-6b70125313aa,,127.1,36.12944,2019-07-26
10,044 Sherman Pass,L,Couva,TT,,11207725-b9eb-4495-a76c-9f2f3ca6100b,,-61.4493842,10.4320215,2020-12-16
11,8 John Wall Drive,XL,Plužine,ME,,2d2a9a6b-17e4-4c49-a0a5-875e7ddebf1a,,18.8410376,43.1541366,2019-12-09
12,73967 Hansons Hill,S,Serra de Santa Marinha,PT,3080-570,fc500129-a75d-4f5f-8d20-6793d1f0068c,6,-8.8629472,40.1941227,2019-02-10
13,9543 Northview Place,XS,Awgu,NG,,08e9f0ad-9ea8-443d-aec2-b6398b0b3694,,7.4760047,6.0639962,2018-07-17
14,76166 Anderson Parkway,2XL,Jiujie,CN,,62171bc6-e29c-4ae3-a689-49575fb91c4d,,119.598195,39.952319,2018-06-25
15,1 Maryland Way,3XL,Krasnyye Chetai,RU,429052,c7b07387-b7ac-45f1-aaff-6eb6cad5da55,,46.13865,55.68871,2019-10-09
16,0 Columbus Parkway,2XL,Xinmin,CN,,6a510047-ae4e-4b30-9290-368bf68acc29,,122.836723,41.985186,2019-12-27
17,3 Lakewood Gardens Crossing,M,Tai Po,HK,,b45e4656-6559-4aae-bafe-a90b5e0e11f4,,114.1655064,22.4423218,2020-04-25
18,31 Vernon Street,2XL,Greenwood,CA,E6J,20c53f60-37a1-4356-8573-080435c88be6,NS,-64.89879,44.98345,2018-11-09
19,15 Jay Trail,2XL,Czarne,PL,77-330,79cfcb31-51c6-4eea-83a6-e56bebac2e18,,16.9312789,53.6808257,2020-01-24
20,9055 Brown Avenue,2XL,Le Mans,FR,72080 CEDEX 9,31968175-d5e3-4540-b8d1-fd2d5bddcd1e,B5,0.1924459,47.9956173,2019-09-13
21,7071 Northview Way,XL,Krajan Kulon,ID,,141d8552-9f1f-4508-820d-500ba7a20676,,110.2579036,-6.9484206,2019-07-26
22,87276 Westport Terrace,S,Nuing,PH,1707,2bbd1ba8-d451-4a61-9506-483933295d39,,123.7244858,13.1424635,2018-01-09
23,051 Corscot Street,M,Tabuaço,PT,5120-384,910df47f-1218-48da-98b5-2fefcf4416e0,18,-7.5627051,41.1154773,2019-11-24
24,983 Sunfield Avenue,XS,Stegna,PL,82-103,3190cf37-0192-4b52-b59e-d1bd30f1a91b,,19.0532045,54.3093365,2018-07-27
25,5 Village Green Court,3XL,Tvarožná,CZ,664 05,2edf0d3d-e5d4-4076-a236-ac0aeb9e2bea,,16.7714628,49.19177,2018-12-03
26,2 Del Mar Point,XL,Kaélé,CM,,9b1651a5-b3df-4239-86f2-3c7b316f8a4f,,14.4432179,10.1111834,2018-12-13
27,28 Bultman Parkway,XS,Weston,GB,GU32,2c2ea84e-2cdf-4d2e-baad-1347689c1879,ENG,-0.964804,50.994689,2018-02-07
,,M,,FO,,14acfe5a-2b8b-4341-b0ff-b0ac57c87685,,-6.816861,61.8342207,2018-11-27
29,26 Bayside Lane,S,Sukahening,ID,,7fa5769f-5fab-4fc0-9939-232acfc17516,,108.1013637,-7.2026914,2020-06-08
30,551 Hollow Ridge Parkway,2XL,Wijewo,PL,64-150,16e20b03-d363-4e18-8ab5-eb2453029944,,16.2061552,51.9075123,2019-02-25
31,0202 Dayton Crossing,XL,Rajapeni,ID,,66c5cafb-df8a-483c-952f-530f1817e33f,,108.2148,-7.2841,2018-12-25
32,59 Meadow Ridge Hill,S,Zbraslav,CZ,664 84,e0a8e483-eb5d-4949-adce-1a9c8f1753dc,,16.2941515,49.2215531,2020-08-28
33,47 Kenwood Lane,M,Kotlas,RU,443543,79bafa70-3e44-4a48-8d87-51ae547d9dff,,46.6966268,61.2370214,2019-03-23
34,9770 Sugar Parkway,XL,Wenjī,ET,,83232115-f560-40dc-ac8a-b1eecba24859,,39.2803991,8.4538411,2019-10-04
35,93456 Gateway Trail,S,Kryry,CZ,439 81,8df22808-fbc9-4b41-ae55-3dfda4917037,,13.4331372,50.1752701,2020-11-14
36,399 Stoughton Point,3XL,Jishan,CN,,a58de94b-13eb-4ff0-902d-d0824dd6f955,,110.983333,35.604025,2019-08-26
37,579 Marcy Way,XS,Changfu,CN,,9181c867-5d91-4bd8-a320-e5c2c3083a51,,104.066801,30.572815,2020-06-27
38,5697 Vera Parkway,S,San Pedro,MX,37861,406f2464-7d38-4d1c-98fb-724dca3c40d4,GUA,-102.9838564,25.7572143,2019-09-07
39,8 Ilene Trail,2XL,Las Varas,AR,5941,282717f2-974d-4cc5-a3bf-b936a8b0ebfb,,-66.328463,-33.3077816,2020-05-03
40,5 Hollow Ridge Park,M,Buawan,PH,9025,ce9cfe1c-1c65-441a-87ed-bc369447857d,,120.9575622,14.6423905,2019-12-04
41,062 Mallard Court,XL,Chocos,PE,,9a5f49cd-da0f-4d33-9677-a4b91a2bc97e,,-75.783333,-13.316667,2018-06-09
42,0 Everett Avenue,L,Jinshan,CN,,1d22acf9-b957-4eca-9066-b04fef23abba,,121.341969,30.741991,2018-03-01
43,13 Hollow Ridge Parkway,S,Cherbourg-Octeville,FR,50109 CEDEX,c6457bc5-1dce-4f62-9194-e4ec83130f41,99,-1.6272462,49.6355347,2019-07-17
44,80 Dwight Plaza,XS,Grand Bois,MU,,702971ef-43c8-4bbf-8b9d-55aefb6cb632,,57.5490299,-20.4200737,2018-10-13
45,56 Menomonie Way,L,Suidong,CN,,c76f6ff7-f500-425f-9e7a-7d881b96cb49,,113.518911,23.082498,2018-01-06
46,06822 Nancy Plaza,XS,Wucun,CN,,4852a38c-cb6b-4d38-9288-b44c907172f3,,114.305539,30.592849,2019-12-07
47,9 Kings Plaza,XS,Ruy Barbosa,BR,59420-000,99eb0e49-d374-4c6b-87fe-8e3efea0a68e,,-35.9369952,-5.8406158,2019-11-08
48,36143 American Ash Trail,S,Jaguariúna,BR,13820-000,77300418-d39d-4810-b924-a928a6659a3b,,-46.9855088,-22.7042272,2020-12-10
49,433 Dapin Center,S,Varginha,BR,37000-000,504f672f-1eb3-4467-a37b-fe78038b9ceb,,-45.4368421,-21.5560521,2019-03-17
50,17 Parkside Street,M,Clichy,FR,92119 CEDEX,d28a366e-4959-42df-86dc-4038cbe5dbe3,A8,2.3011787,48.9089753,2020-05-16
51,01746 Muir Hill,2XL,Yunzhong,CN,,f5f9e62d-ccfb-454a-8360-fa9bf3015b8a,,113.2828702,40.0820173,2019-01-18
52,4042 Fieldstone Street,2XL,Roissy Charles-de-Gaulle,FR,95761 CEDEX 1,55ddcd89-5ce3-458f-b8f6-e7e4a3a64562,A8,2.5479245,49.0096906,2018-05-18
53,85411 Burrows Center,2XL,Austin,US,78764,db775c7f-029e-4c2a-89e7-93fc8655ef38,TX,-97.74,30.27,2018-01-21
54,7 Burning Wood Court,3XL,Changyanbao,CN,,e2fbcf70-2373-4d8f-9ec6-528b07163c59,,109.166598,30.688741,2020-02-13
55,7 Ruskin Junction,M,Glatik,ID,,2ca4b37e-c698-43c0-82b2-09f42bbed9c6,,112.5408991,-6.9569954,2018-02-09
56,9 Welch Court,2XL,Sunzhuang,CN,,90e4c097-711e-4360-b7c6-c8cbe760fd01,,114.152004,38.153853,2019-05-21
57,8957 Sugar Way,XS,Louny,CZ,440 01,eef7340b-ef53-4975-8d4c-edb2727c3584,,13.8033551,50.3539812,2020-10-27
58,9569 Hooker Place,XL,Hobart,AU,7808,743784cc-b952-4868-ab25-8b8a1b483e14,TAS,147.3271949,-42.8821377,2018-12-15
59,6954 Cottonwood Way,XS,Taphan Hin,TH,66110,505cc8d1-a823-4c93-b378-54daf72ef174,,100.3722477,16.2093368,2020-12-17
60,35789 Claremont Point,3XL,No Kunda,GM,,065dc39f-5ead-4862-b11e-1502cb59f9e1,,-15.8304975,13.5616918,2018-02-05
61,45 Towne Lane,XL,Gapluk,ID,,603c29cb-2539-42d1-b00e-5a849aa35339,,111.6630914,-7.2033646,2018-12-02
62,7 Old Shore Hill,S,Smolyaninovo,RU,692831,5c41bd64-e932-4c34-b7ef-3965da19abba,,132.4125243,43.3222143,2018-10-19
63,87 Lunder Crossing,XL,Kuçovë,AL,,6571d69b-b300-429c-ac54-fc179fb52eb1,,19.9199137,40.8103206,2018-01-27
64,62 Comanche Drive,XL,Tourcoing,FR,59208 CEDEX,336777cb-f660-4477-8b16-3235521f3515,B4,3.16806,50.716719,2020-12-07
65,99034 Mccormick Circle,M,Kuanghe,CN,,7ad436d0-ecc3-486c-bfab-2754f48fad2f,,115.7834972,36.3081761,2018-03-10
,,S,,CN,,3d9df023-1215-480f-a082-faa8dfa92036,,119.761775,35.585575,2019-12-24
67,6 Pennsylvania Lane,XS,Chenyangzhai,CN,,e9439fc6-e103-4d40-935f-4abee9e136a8,,108.715716,34.313074,2020-03-24
68,3464 American Ash Court,L,Campos,BR,38250-000,1b40c186-fdb8-4c3f-b91b-87173373fd08,,-49.0817124,-19.6818529,2019-08-25
69,6629 Brickson Park Street,XS,Maruoka,JP,997-0334,fe5b38a8-fb0b-4680-aca5-12dad4fe21a9,,139.8352678,38.6784499,2019-03-16
70,92 Southridge Street,2XL,Huaikan,CN,,c814c7cd-a528-482d-9648-317393bb8c52,,119.113185,33.551052,2019-09-12
71,148 Charing Cross Place,S,Mahe,CN,,fbb23b61-f7c9-4d73-9e37-6fa87367c1d4,,113.696298,30.777355,2020-06-25
72,732 Jenna Trail,L,Gaiyang,CN,,80d72aff-f2c7-4683-b772-d9d492b5f3d9,,106.630153,26.647661,2020-05-11
73,031 Comanche Trail,M,Mukařov,CZ,411 45,0a1e920c-ff5c-46f4-b621-d46f3dc20f00,,14.2963455,50.6471859,2018-04-11
74,736 Sugar Plaza,XS,Sobreiro,PT,4940-374,cd646cb8-22e3-4dbf-b91e-04149dd28ca6,16,-8.5332804,41.9227482,2018-04-17
75,2423 Del Mar Parkway,XL,Roboré,BO,,100383fb-2174-4012-8de2-5c656d0ff07c,,-59.7602664,-18.3349525,2020-10-13
76,2651 Nova Court,L,Itapecerica da Serra,BR,06850-000,92d0e016-2775-4612-ba9e-2c1444662645,,-46.8498038,-23.7169139,2019-03-13
77,06 Atwood Center,S,Rudziczka,PL,43-267,7a8d9902-3891-4162-886a-67b9ecc84cbb,,18.7766679,50.0317672,2020-10-07
78,7765 Steensland Street,L,Santiago De Compostela,ES,15705,2538949b-33be-4269-b352-b4665a82c471,GA,-8.5418899,42.8970535,2019-03-19
79,97464 Trailsway Drive,3XL,Belén,PY,,d23931cb-acc5-4400-961c-ee741308ddd2,,-57.2635114,-23.4697466,2018-02-13
80,898 Twin Pines Alley,2XL,Rāmsar,IR,,1efc526e-4b7a-4275-954e-146092f58bc7,,50.6430658,36.9268274,2020-08-07
81,45 Ruskin Place,XL,Sagrada Familia,PH,4507,99def161-41e3-4a4f-aab6-a252f51412ea,,121.0052221,14.5706006,2018-05-05
82,06 Hooker Alley,3XL,Mamer,LU,L-8273,a2e909e3-e1e0-401e-bf5b-02839cc4b3f8,,6.0346235,49.6306384,2019-12-08
83,99124 Stone Corner Lane,S,Gubo,CN,,1772861a-2661-4e08-b308-4bc973f821f9,,108.525769,24.564073,2018-01-24
84,41 Homewood Circle,3XL,Marne-la-Vallée,FR,77427 CEDEX 2,6ecf4d40-d40b-4f36-9a2e-fdcc136a5eb4,A8,2.586253,48.840109,2018-01-08
85,7008 Buell Park,M,Babao,CN,,ae2a6f6f-2a52-418d-9c66-a113be54c40e,,-77.3485436,39.3240601,2020-06-08
86,81 Hanover Lane,XS,Abilay,PH,5020,552adb3d-1551-4681-af7a-658d3eae00f4,,122.49448,10.752961,2018-06-20
87,80 3rd Parkway,L,Libertad,MX,83450,92c9a966-a4dd-40fe-8f9b-8c0b7482aadb,SON,-99.1771001,19.4779768,2020-02-02
88,419 Bultman Avenue,XS,Wawer,PL,37-750,39e97cf5-b806-4717-b4b9-7167c5ea538a,,21.14523,52.199771,2019-08-06
89,04459 Lake View Road,M,Zhouhu,CN,,6ec3cc1d-9205-42f6-b4a2-188be7ef3786,,113.576677,22.270978,2018-04-07
90,12257 Summerview Alley,S,Ainaži,LV,,f9e606fa-f128-4624-9fba-597b7b5d567b,,24.3530817,57.8552975,2019-08-04
91,86 Darwin Alley,3XL,Harrison Brook,CA,E7E,fb90a9e1-796b-45bc-92af-dbb006567d14,NB,-67.916667,47.216667,2019-10-05
,,XS,,MY,,ee6d88a3-3a17-4a97-8524-77ec1b52b873,SBH,116.0761121,5.9840985,2020-07-29
93,99 Becker Junction,XL,Fenghua,CN,,794a4d04-55f5-4dd9-884c-97aed2950c91,,121.406995,29.655143,2020-11-28
94,9 Judy Alley,XL,Mosina,PL,62-050,e8be4441-58bd-4da3-9aac-99e7d82209a1,,16.8470545,52.2454069,2020-08-05
95,8303 Kinsman Alley,2XL,Capitão Poço,BR,68650-000,528a3659-c59c-4fc6-9b76-3a7644380c5c,,-47.058302,-1.7437356,2018-02-27
96,2 Rockefeller Alley,3XL,Lefengzhen,CN,,5149af68-e7c8-4184-a019-6d610b60c529,,116.783842,28.861256,2020-12-17
97,2743 Iowa Junction,XS,Ziliang,CN,,10a6182a-83eb-4ebc-8979-f4ba5a3a2673,,107.494838,22.646141,2020-03-06
98,53242 Sullivan Alley,XL,San Miguel,MX,36352,27a7d1f7-7189-4420-833d-6c4833d64253,GUA,-99.0806088,19.3579802,2019-12-29
99,0 Thompson Crossing,XS,Agía Paraskeví,GR,,34e9c13e-7821-4e26-8b67-f248eb6501f6,,23.8218079,38.0135829,2018-03-12
100,9745 Lawn Terrace,2XL,Omaha,US,68164,07c4b36a-d56a-415f-9894-453c9cb086e6,NE,-96.0996978,41.2899133,2020-05-05
101,10413 Stone Corner Street,XL,Strelitsa,RU,397815,3b71c7f6-6838-44cc-8885-4e3d33d9d0ab,,38.9102,51.6083,2019-02-21
102,670 Anniversary Court,L,Berón de Astrada,AR,3481,64debd26-d42d-44ec-bcb1-0f4a69670b03,,-58.4373491,-34.6669709,2020-11-29
103,11 American Way,XL,Lacdayan,PH,6329,936130ac-9e8e-4521-9e99-b6f8f678fe05,,121.0665877,14.3537237,2020-03-07
104,8 Golf Park,2XL,La Talaudière,FR,42355 CEDEX,9c51c0e4-c5bf-4895-ac3b-e35641969649,B9,4.4135431,45.4556955,2019-03-02
105,0 Spaight Terrace,S,Sanzao,CN,,f1bc0a7a-cb94-4dc1-97e0-6629f7f80ba6,,113.3785933,22.0080725,2018-01-10
106,9 Cordelia Terrace,2XL,Kuzhuping,CN,,b0a251dd-6e4c-4166-af72-a843625df671,,110.089415,29.645451,2020-06-12
107,76275 Luster Alley,XL,Jinping,CN,,5a0b2279-0bbe-473c-bfb1-b750cf87802e,,116.70345,23.365556,2019-05-01
108,08537 Linden Place,2XL,General Elizardo Aquino,PY,,ba5f51f7-ed15-4063-88d7-86c812358406,,-56.9014072,-24.4436327,2018-08-13
109,5703 Texas Hill,2XL,Shanjie,CN,,f6fab45d-9974-438f-84e4-374759d6550b,,119.3008339,26.0890415,2020-06-05
110,88 Dexter Road,3XL,Beya,RU,655770,b0a13d3b-af42-4bcb-b22a-892b8bdff30e,,90.944621,53.0475258,2018-07-25
111,139 Quincy Road,XS,Itaperuçu,BR,83560-000,716f0ed7-2a38-4a99-b99a-ca8226ecaf2f,,-49.5076392,-25.1169056,2019-06-19
112,7 Troy Crossing,M,Pakxong,LA,,0e0e267f-e1fb-41bf-a3a3-21e8fa9feacc,,106.2345633,15.1766973,2020-11-27
113,56701 Summit Trail,XS,Jardin,MX,87330,77dc9cc7-c082-4bac-be59-0bb70345cc54,TAM,-97.4990069,25.8903957,2019-05-14
,,3XL,,MK,,18a8f3b8-6afb-4538-9291-f345c85ad6eb,,21.4362855,41.9870319,2020-03-31
115,015 New Castle Point,XS,Khirdalan,AZ,,5a88206b-9297-4b22-9deb-f20b487f19fb,,49.7333235,40.4529251,2020-12-22
116,746 Old Shore Street,XS,Yeniköy,TR,9400,aa9704d4-8376-4a9c-afbd-66dafe8446ed,9,27.345742,37.865759,2018-01-28
117,707 Judy Trail,S,Bingawan,PH,5041,59f2301b-3ebe-477b-ba7d-527902655216,,122.5666402,11.2328036,2019-01-13
118,5022 6th Point,L,Uripa,PE,,3cc40bd6-d9bc-4b87-8090-6537ce3fb0f6,,-73.6760258,-13.5321991,2018-09-22
119,0 Independence Trail,XL,Yunxi,CN,,1c483f97-5c92-42d8-b197-3c5ed682369e,,110.425983,32.993182,2020-06-22
120,7216 Little Fleur Center,M,Chicama,PE,,796de562-2e37-4b37-ae4e-0600b2762b7f,,-79.4338188,-7.7001724,2018-11-21
121,46490 Fieldstone Place,M,El Parco District,PE,,c4c92c4a-267c-444e-937e-191f9b9bc951,,-78.4695111,-5.6202503,2020-10-22
122,7 Swallow Point,3XL,Sanhe,CN,,ba242a07-aefe-47b7-9106-15bb88e5e536,,117.078294,39.982718,2019-06-19
123,860 Shoshone Alley,S,Bendosari,ID,,cdd13a08-e1e0-49a5-8852-75caa3f2d9c9,,110.8910556,-7.6977621,2019-05-29
124,456 Orin Park,XL,Choropampa,PE,,ec7a0f23-0f65-4e36-a4e5-cfe6ea0531b6,,-78.5753117,-7.2863903,2019-11-17
125,456 Pleasure Circle,XS,Tazarine,MA,,57f80379-8ef8-48d5-a545-361c997f8f26,,-5.5459787,30.7717757,2019-11-04
126,5 Garrison Place,3XL,Haolibao,CN,,a7d4d83d-bc10-4a79-b78d-1a4da1f51674,,122.749282,42.654146,2019-06-25
127,76 Porter Avenue,2XL,Madrid,ES,28020,c2524b7c-b45e-425c-a2b5-1c95b08de075,MD,-3.6952896,40.4563733,2019-04-07
128,5 Bellgrove Alley,2XL,Rosario de Mora,SV,,7c93d424-ad39-4cc9-bf35-3f90b28c8a36,,-89.2062985,13.5742541,2018-10-31
129,3 Blaine Junction,2XL,Beiwucha,CN,,ba7fa599-7689-4d4f-a28c-15aa7f9e7fce,,86.325054,44.533814,2018-11-29
130,69555 Kinsman Center,XS,Kítsi,GR,,1392a9e9-643b-491d-8100-7b9abdee7097,,23.8408158,37.8519345,2019-11-28
131,9 Brickson Park Court,S,Melenki,RU,602103,b735b4a2-bd56-4afb-a732-6d2b19b66a47,,41.6303343,55.3365242,2018-10-09
132,5 Kim Way,2XL,Bailu,CN,,417155fa-142b-4303-ae46-62fb86446c1e,,120.1672735,30.2733296,2018-06-27
133,8175 1st Drive,L,Nassarawa,NG,,77f3ada6-440b-41c4-a25e-0e46842cbd52,,8.3088441,8.5705151,2019-07-31
134,74728 Reinke Pass,M,Sijunjung,ID,,d2961e8a-1409-493f-9292-8032c8a9c204,,101.0711758,-0.6647007,2019-04-06
135,144 Garrison Circle,S,Yasugichō,JP,699-0103,e60eb7e6-526a-45c1-8be1-01e9304eaaae,,133.2439826,35.4159603,2020-09-01
136,48858 Killdeer Circle,XL,Xuezhen,CN,,2acba0e1-6fa3-4eee-80d6-30e28fba6973,,109.299475,34.954857,2019-03-04
137,59916 Aberg Street,XL,Ollantaytambo,PE,,4f6b41ab-acd1-446e-9b1e-77e2af8f28d6,,-72.2642679,-13.2583689,2018-01-22
138,3 Corscot Road,XS,Nefta,TN,,83a31386-6558-4339-8645-70a71fd91c3b,,7.8803236,33.8761249,2018-05-19
139,1 Harbort Terrace,3XL,Olenegorsk,RU,303622,998c0a43-ce9a-434a-b667-bdfe24ad33bc,,33.9686556,68.0986274,2018-01-12
140,4864 Schmedeman Street,S,Paombong,PH,3001,33319393-732f-4559-88d1-38a0b04d2b79,,120.78195,14.834691,2020-05-10
141,527 Spohn Alley,2XL,Zhouzai,CN,,f8ecd126-f26b-47dc-ae81-a9e5d16aacfc,,110.2485736,21.3772424,2020-03-10
142,8582 Algoma Crossing,L,Levashi,RU,368328,5ece43b0-cba1-450c-93a7-35635c24a8e2,,47.3298509,42.4229813,2020-02-12
143,84 Melby Terrace,XL,Pirapo,PY,,1f439c40-a655-474a-9929-8af79c437088,,-55.541359,-26.8552666,2018-09-25
144,27097 Aberg Parkway,M,Tamamura,JP,379-2147,4882de75-1371-4187-ae72-d0a48e7f2b91,,139.1386824,36.3046238,2019-03-26
145,6 Ridge Oak Pass,2XL,Kpalimé,TG,,aea5daf2-c960-43de-a921-555c618676f7,,0.6298922,6.9097671,2019-09-29
146,49358 Jay Place,S,Kasama,JP,633-0245,99bba2dd-71ea-4a7d-965f-3d6e4fe630de,,140.2519636,36.3845687,2018-07-24
147,17 Hintze Pass,2XL,Berlin,DE,14199,239498fa-901b-4c4e-87d4-bef64870ba31,BE,13.2962036,52.4767935,2018-01-05
148,3189 Corscot Hill,2XL,Kvitok,RU,665081,4bce0e5e-62bb-4d76-a310-03982cedd476,,98.4613454,56.0674256,2020-05-22
149,3 Summerview Lane,M,Astypálaia,GR,,2c573987-0a24-426e-abc0-d5a67869f7e7,,26.3131356,36.5389811,2018-05-28
150,60 Amoth Plaza,M,Caramuca,VE,,72e7fd11-0024-4d51-a793-68bbddf9a62b,,-70.3197015,8.5974451,2019-12-01
151,412 Orin Parkway,S,El Espino,PA,,40d619bb-30fa-4832-8fcb-d7b04b3bd0b0,,-80.019341,8.484387,2018-09-14
152,24 Prairieview Circle,M,Pathum Thani,TH,90110,49e19380-6218-4395-a683-aca9dc07777e,,100.6184588,13.9906389,2018-05-08
153,45 Cherokee Alley,3XL,Thul,PK,79100,78b99563-7fb8-4249-b12d-8e7daea3cd82,,68.4722695,28.2645193,2018-05-21
154,4288 Superior Plaza,XS,Irricana,CA,B3T,b761f166-360b-4aee-bc42-c5d1dc803427,AB,-113.60475,51.32372,2019-05-26
155,964 Prentice Circle,L,Fazenda de Santa Cruz,PT,9970-244,54a50797-b8de-4131-95cc-ad1dbf8ef392,48,-31.1474124,39.4665574,2018-02-03
,,XL,,CN,,c47806b4-eb54-4dcc-b283-004e50138ee9,,114.504677,37.070834,2018-07-10
157,60463 Mayfield Circle,M,Pandansari,ID,,bfc25f75-f110-4f1b-94f3-21ce65ac0acd,,110.4180162,-6.9736661,2020-02-24
158,808 Prairie Rose Circle,S,Dalarik,AM,,386a9f22-1865-49db-bcdc-0deb6954aef7,,43.8717749,40.2272711,2019-08-15
159,9343 Drewry Place,L,Bishan,CN,,5480a475-b5dc-4bb4-baa1-c71cedcdda95,,106.227305,29.592024,2020-10-26
160,67 Crownhardt Park,XL,Gonghe,CN,,ef199c13-1967-41d2-a843-4c652eb7fb13,,100.620031,36.284107,2018-08-26
161,22 Rusk Street,XL,Rathnew,IE,R35,67856b3d-31c1-4086-8f5b-d4384688da1c,,-6.374155,53.3223974,2018-10-11
162,59 Ridgeway Lane,2XL,Kuching,MY,93150,07f408ae-56f9-473d-add2-993ea4b321bf,SRW,110.321945,1.5376351,2019-04-18
163,3 Colorado Point,S,Caibarién,CU,,7ca39321-9857-4ad9-8b73-a32b1b67385c,,-79.4760133,22.5064672,2020-10-10
164,77573 Loomis Alley,M,Jiangfeng,CN,,acc3fc6f-2b15-4ac5-88d6-159fbd0c0002,,108.933603,28.630289,2020-09-16
165,023 Dawn Court,2XL,Hongqi,CN,,a81d0906-1f16-4bef-baac-0bfa6671c70f,,113.875245,35.30385,2018-09-07
166,9 Village Green Street,3XL,Abha,SA,,28a3a82a-d41d-49f7-bca9-331923318aec,,42.5117238,18.2464685,2018-05-09
167,11 Fordem Junction,XL,Chojna,PL,74-500,2493de35-a47f-400a-8dc2-6222b6ddf793,,14.42781,52.96401,2019-08-30
168,1 Becker Road,S,Magdaleno Aguilar,MX,89355,6cec4893-cee5-4de8-9086-c7f4c15691ff,TAM,-97.8850861,22.3140531,2019-09-04
169,6 Marquette Road,3XL,Lexington,US,40524,38e0ceb0-cf40-47da-b540-f1c3ec062a11,KY,-84.52,37.99,2018-01-19
170,0 Hooker Circle,XS,Xiaozhoushan,CN,,686165b3-aa89-41b5-89d3-71a09de6ccfb,,120.39409,28.201091,2020-10-13
171,1 Hermina Lane,XL,Zhayang,CN,,8a27e968-0b82-4a52-81d4-d3eb8f1c3d34,,104.627636,30.128901,2018-09-12
172,5968 Warrior Drive,3XL,Sukadana,ID,,0b0df5d6-bee3-4820-86a0-4326b391c1f5,,110.0926112,-1.2468663,2020-07-17
173,5072 Clarendon Plaza,XL,Katsina,NG,,0d96ff68-16f4-4d35-a928-86ed87785492,,7.6222665,12.9815608,2019-01-07
174,32208 Loomis Parkway,XS,Kura,NG,,ef468a6f-0739-46c2-925c-937a3b714f46,,8.4239055,11.7701438,2020-02-23
175,8 Portage Avenue,XL,Zhenqiao,CN,,ca5bb5e4-9974-436e-b251-54f789918933,,118.677372,32.513883,2020-08-19
176,692 Old Gate Junction,3XL,Tangcun,CN,,c2e36356-beda-47cb-94d4-f85ba73bf4e0,,116.948961,35.32608,2019-08-31
177,1 Melby Plaza,XS,Nagoselo do Douro,PT,5130-225,7a1b52c1-edde-4118-a20e-57693b3c1da9,18,-7.4179536,41.1814553,2019-09-18
178,93 Fulton Crossing,2XL,Emiliano Zapata,MX,30840,3935273d-63c9-4be1-8167-c397089b646b,COA,-99.1843676,18.8478608,2020-09-27
179,27 Anhalt Road,XL,Palestina,PH,6037,a9f5dd9a-4626-446c-97b4-aad4646d219b,,121.0086436,15.7832452,2020-03-02
180,2848 Armistice Court,XS,Villeneuve-d'Ascq,FR,59652 CEDEX,f30d0463-5078-42b1-b9fb-a04a651be6c0,B4,3.1244315,50.6140977,2020-02-15
181,4 Anzinger Circle,3XL,Austin,US,78703,8ec8390c-6c87-4dd5-996d-cc14977a43a7,TX,-97.7688358,30.2915328,2019-11-03
182,59 Rowland Place,3XL,Keda,CN,,20edae5f-4084-420e-b8ea-58715e219500,,117.393358,31.211077,2020-02-21
183,124 Red Cloud Lane,M,Fonseca,CO,444018,e3b778a3-ea75-4216-b764-252f3d2fbf2d,,-72.8207035,10.8312641,2019-08-03
184,5235 Sunbrook Avenue,S,Celestynów,PL,05-430,743cc87e-f135-40eb-b9f6-f1ed2f37ad5d,,21.3991045,52.0424689,2019-02-09
185,455 Mallard Hill,L,Buenavista,MX,47216,e0c6269b-eba3-4458-9cd0-8db566bc3aee,JAL,-99.1497664,19.4458447,2018-08-23
186,8 Drewry Hill,XS,Nurmo,FI,60550,a64470bb-f920-41de-b968-43ede10f2d45,,22.910026,62.8291624,2020-10-22
187,0046 Reindahl Crossing,3XL,Teminabuan,ID,,4f48c36c-e3b6-4e78-ae50-e14f28291e75,,132.0583886,-1.4328008,2020-01-27
188,3475 Ryan Drive,3XL,Lemenhe,PT,4775-404,66fe88a5-29f6-4bbb-a4a9-834dd2754433,3,-8.5322628,41.4530119,2019-12-12
189,2361 Lakeland Trail,M,Panyuran,ID,,dae33a8d-8eb2-4638-a530-3b6220933fb9,,112.0863874,-6.9002853,2020-10-17
190,8389 Calypso Alley,XS,Maribong,PH,5042,551bf956-8163-4d03-aafe-e7c680becdca,,122.476035,11.055153,2020-03-22
,,L,,AR,,51140ca3-6734-49db-8d22-4c59212258c1,,-55.9237269,-27.3777068,2018-02-20
192,239 Lake View Parkway,S,Sembabule,UG,,42ddcf8b-2cb5-469d-addc-966c78275f9e,,31.3541631,0.0637715,2020-03-22
193,6632 Bayside Center,S,Hrádek,CZ,739 97,78e91bf0-d15d-45c2-ae4c-f081da63a5b6,,18.735973,49.6106567,2020-12-21
194,3831 Sachs Junction,3XL,Malvinas Argentinas,AR,5125,6387e765-d892-446c-9381-7f64967d41bc,,-58.586937,-34.4753246,2020-02-10
195,672 Northport Trail,L,Taklale,ID,,54b05fce-8ae3-4d7b-bb2f-8b174c9ec277,,123.8020033,-10.1097495,2020-10-15
196,853 Blue Bill Park Circle,L,Huntsville,US,35815,d037343c-314a-4acc-9434-2a8eca5f4f0f,AL,-86.566246,34.6540922,2020-10-02
197,8917 Quincy Center,3XL,Ribeiro,PT,4950-719,a6c5a555-e592-4dc2-a054-fc32f7fec9c0,16,-8.3299947,42.0291575,2020-06-07
198,6988 Sachs Park,S,Sabugo,PT,2715-364,d3d0ed15-8be0-4f0a-ad4d-0850472a590d,11,-9.2968812,38.8248475,2019-09-13
199,2 Ridge Oak Circle,M,Grande Cache,CA,N2Z,d8cf3385-5e60-4c2e-ac2b-a97bba1c76e1,AB,-119.13585,53.88335,2020-04-27
200,32 Loeprich Parkway,3XL,Angkup,ID,,4aacd209-c452-4bcb-bcff-3353c7aded37,,96.6740303,4.6259611,2019-05-12
201,3483 School Alley,S,Rouen,FR,76926 CEDEX 9,062323fe-02ef-423a-8d9f-8843f20af3f1,A7,0.3908219,47.8225694,2019-10-03
202,04 Del Sol Point,3XL,Lingcheng,CN,,b0918a3d-0f23-4e6b-9f7f-b8c4bb55f3a0,,116.576092,37.335794,2020-07-11
203,1 Caliangt Place,3XL,Hegeng,CN,,9837e93f-06c7-44d9-8f83-2d9fbb33b99f,,105.877112,29.129743,2020-04-21
204,268 Brickson Park Hill,L,Beskolen,ID,,33f863f6-0e25-4e9a-b5c2-fff4b6a2b434,,124.2784,-9.6883,2019-01-14
205,8015 Hudson Lane,M,Ziliang,CN,,0e522e70-99f5-4638-ac28-fb54e38e4f82,,107.494838,22.646141,2020-02-20
206,8296 Riverside Point,XL,Tshaneni,SZ,,4846ffc3-e09a-4467-92d7-f2b482336884,,31.7594384,-26.0012842,2020-09-06
207,8926 Dunning Plaza,2XL,Xinshiba,CN,,07707172-1e60-46bb-a3af-f31f87affc70,,107.014924,31.800198,2019-10-22
208,14092 Veith Road,XL,Hema,CN,,98f579b9-f147-4a23-8552-5a0664b51ec9,,77.069038,28.644598,2020-04-29
209,4 Manitowish Drive,2XL,Xinlin,CN,,66d48692-9b5d-4610-8d95-d9d5890b17aa,,-74.0186386,40.7773081,2020-10-23
210,949 Lukken Circle,L,Jiefu,CN,,c72bb16b-916e-4f7f-8a71-2db8a82d0922,,121.512981,31.235029,2020-07-02
211,86185 Helena Street,S,Calsib,PH,4335,08d2fa9d-c349-4e6d-bf4e-9705b6afed4f,,120.272,15.8463,2020-01-11
212,228 Bluejay Hill,L,A Yun Pa,VN,,b2ddfa4d-b995-4a30-9594-246916ce23e4,,108.3989809,13.3743393,2018-08-24
213,76 Ohio Court,3XL,Pamplona/Iruña,ES,31015,fe9ea133-ed40-4331-b1d4-2fabf61f5929,NC,-1.6299338,42.8302933,2018-03-16
214,34 Lukken Lane,XL,Bangshipu,CN,,1681a00b-4434-4674-bc3b-65330b35bb17,,122.660538,40.417902,2018-10-18
215,0 Fulton Hill,M,Cihaur,ID,,32b19398-1c01-4c74-a04b-b3258b750635,,106.5701927,-7.1221059,2020-05-25
216,471 Debra Place,XL,Angoulême,FR,16999 CEDEX 9,e6423300-b573-47a2-bf00-8b820ac363ae,B7,0.0629891,45.6258385,2018-09-23
217,3 Duke Drive,S,Tallahassee,US,32309,5752fb5d-6011-4bfd-9ff6-97e9945538f2,FL,-84.0801613,30.5547139,2020-08-17
218,56927 Oak Court,2XL,Shengli,CN,,618f62df-ee7b-4d9d-af78-2cce2d45f5d9,,120.1561748,30.2979687,2020-01-31
219,0 Kropf Trail,M,Manzini,SZ,,d4f18295-e8c3-47b1-af8c-3867194bb566,,31.3713164,-26.5081999,2018-09-19
220,3707 Sugar Park,M,Xiaojinkou,CN,,de8cd692-e8d6-4885-a06c-529241e34b9f,,114.419667,23.170455,2018-12-03
221,6 Troy Circle,2XL,Getulio,PH,1175,b112ddcf-6713-4de9-bfd4-372dd279c07d,,121.2408815,14.1586723,2019-04-04
222,0821 Surrey Alley,S,Cova da Iria,PT,2495-405,1c14d313-d95a-444d-a35a-d244db93bfed,14,-8.6888467,39.6352297,2019-07-04
223,808 Lake View Terrace,3XL,Tamot,TH,93160,a6eb073a-7a00-48dd-8962-ef11e00af39b,,100.0135929,7.2621533,2020-08-28
224,38 Onsgard Drive,2XL,Bahuang,CN,,6ed35621-1b52-4856-8ace-ce3e6721fe33,,108.831887,27.738569,2018-07-29
225,56615 Pepper Wood Avenue,S,Medicine Hat,CA,T1C,5b9cc00a-1077-4c20-b0da-3264ff7fd0cf,AB,-110.6821866,50.0625015,2020-02-25
226,3 Delaware Court,L,Frei,NO,6524,49c0bacf-eda7-4e69-8f5f-0443fca7bba1,15,7.807557,63.0244473,2020-07-16
227,7 Lunder Lane,XL,Kosamphi Nakhon,TH,90190,7e6f2121-6668-4047-945c-a64375f52e0b,,99.2823264,16.6714164,2020-09-11
228,69868 Hermina Hill,L,Shanhe,CN,,41ee3760-d8b5-458c-a185-69761f611826,,121.4737021,31.2303904,2020-04-07
229,62941 Golden Leaf Hill,M,Tadjoura,DJ,,5e4ec411-a025-42e3-a604-5a9b5013b159,,42.8796227,11.7913106,2020-02-08
230,6912 Farragut Parkway,XL,Cruzeiro,PT,3700-364,6e209da1-650c-4e0a-8ef1-775960887dbd,1,-8.4280201,40.9175193,2020-09-27
231,8 Mariners Cove Plaza,M,Talā,EG,,a2dd5452-47dd-499c-a748-71c2f67a7554,,30.9427433,30.6795086,2020-02-08
232,1 Anthes Place,XL,Mahaddayweyne,SO,,34365eb2-c964-4447-8bdd-e560b74cabdd,,45.5334515,2.9716241,2019-10-15
233,220 Debs Junction,M,Alcaldedíaz,PA,,58d37b1e-01d8-4cca-b7dd-9c7f905878f1,,-79.5715822,9.1169815,2019-08-07
234,1 Kedzie Point,S,Song’ao,CN,,fa658ae8-52ae-419b-8ee2-f0b740adce47,,121.685484,29.60095,2019-06-14
235,042 Esch Hill,XS,Saint-Louis,FR,68309 CEDEX,65b52213-78d9-43f7-819a-89adb6e6827b,C1,7.4839022,47.6329545,2018-10-05
236,3777 Lotheville Street,3XL,Kanluran,PH,4107,af776999-0d80-4500-82e1-dc5b2fe46a85,,121.0995111,14.6024553,2018-07-24
237,1428 Hallows Street,S,Kuala Lumpur,MY,50592,68971e1c-4966-4b99-9a84-26b321166035,KUL,101.7178316,3.1523104,2019-05-21
238,0 Elmside Terrace,XL,Sarandi,BR,99560-000,f995e084-8024-4067-a7cc-2b70736ec99f,,-52.9164069,-27.946449,2019-01-15
239,6549 Beilfuss Street,M,Bjuv,SE,267 35,a4ca8dc6-af13-4b17-a94f-9942e55a8a64,M,12.9029659,56.0913813,2018-04-16
240,8 Mallory Crossing,M,Loma Bonita,MX,62576,7c684e70-336e-4e9f-b17d-7227fcd6c950,MOR,-95.8803869,18.1096868,2020-04-08
241,7 Mitchell Junction,S,Sengeti,ID,,8c85e5d7-76ce-494a-b8f1-01790b37b16e,,103.5147735,-1.4740609,2018-07-16
242,99468 Bultman Center,2XL,Trzebnica,PL,55-100,5187263e-d77e-45ed-a4c1-df9dc460ca2c,,17.0632716,51.3104211,2018-11-20
243,08 Sutteridge Park,XS,Rennebu,NO,7398,6f81b66e-97d1-47b0-9582-6521ce3f415a,16,10.0742726,62.6768899,2018-06-01
244,674 Loomis Road,3XL,Lawrenceville,US,30245,4e9f6d72-dadb-474d-830a-313779504d89,GA,-79.9571907,40.4770427,2019-07-12
245,57 Lukken Pass,L,Boawae,ID,,66ce58e6-8e8e-4ce7-8de1-269ea79ecea3,,121.2168466,-8.7609571,2020-08-31
246,483 Menomonie Street,XS,Temara,MA,,556f8e02-6abd-4d47-9c39-1714611f4cdc,,-6.9051819,33.9278354,2019-10-01
247,45948 Moulton Circle,XL,Jorok Dalam,ID,,d9c834be-cb8b-4ce3-811f-8e16509beb41,,117.1470637,-8.3980126,2020-02-22
,,XL,,ID,,48cd6621-0d10-4827-84ad-717db4a21a2e,,124.3272134,-9.5587797,2020-05-18
249,85 Hanover Pass,XL,San Jose Village,MP,96950,4dd28472-9f86-44c6-b0d0-4e3f261a0dd8,,145.6412079,14.9699796,2020-01-19
250,036 Leroy Park,XS,Lens,FR,62335 CEDEX,988b9358-7903-4da3-9934-feac667fad8c,B4,-0.4601725,46.280212,2020-11-29
251,5508 Swallow Avenue,2XL,Langnga,ID,,5e93ccd8-a1ab-4f36-812d-495dc73bd747,,119.5281714,-3.8506762,2020-07-24
,,L,,US,,a1642b51-51c4-4bb3-aa14-1c479ab060ba,FL,-80.109357,26.5114554,2018-10-10
253,650 Roxbury Alley,S,Atbasar,KZ,,99ee0e72-9f7c-467b-9453-9823ee7f059a,,68.3636926,51.8204945,2020-05-12
254,01 Tomscot Park,3XL,Kadupinang,ID,,dfefd3a2-8fe8-4665-9f66-603fb6cb6aff,,106.2042252,-6.8937212,2020-10-03
255,1 Marquette Crossing,S,Dalongdong,CN,,f0eabc5b-2402-419d-a604-1ada61bd39ec,,121.5140449,25.073688,2019-10-18
256,4053 Sundown Trail,S,San Rafael Oriente,SV,,3a28a60f-116f-400f-919f-01e1eb1ab21e,,-88.3506468,13.3793771,2018-12-14
257,171 Fairview Court,S,Volochys’k,UA,,58e197c6-846a-4d96-b570-9c6c11f2ce86,,26.2093072,49.5345161,2019-12-27
258,6557 Thackeray Alley,M,Khartsyz’k,UA,,c19bda4d-57fc-4bd7-848b-068743da5243,,38.1393965,48.043204,2020-11-15
259,171 Holy Cross Circle,3XL,Xiaoying,CN,,5825e803-00e9-4162-8662-aec881861948,,-3.6721577,40.425649,2020-07-24
260,4448 Hayes Alley,L,Nice,FR,06102 CEDEX 2,78a76137-7088-4260-8597-c80b3855a0aa,B8,7.2559678,43.6953508,2019-01-31
261,66 Hazelcrest Alley,2XL,Barajevo,RS,,86a2e684-789b-4458-9711-3a511445ecb3,,20.45241,44.6034915,2019-10-19
262,6 Porter Way,XL,Sarzedo,PT,3300-405,e44b3363-c769-4f8d-84ec-1994fb726a12,6,-8.0733581,40.2406662,2018-02-26
263,73 Tony Lane,M,Usa River,TZ,,cdb82401-a2a2-45fe-a305-03e29364daae,,36.8398354,-3.380978,2020-01-26
264,79 Blaine Avenue,XS,Tegalgede Kulon,ID,,c9847e49-3764-41ec-a865-dbc71a6d2108,,110.9655659,-7.6095457,2019-07-10
265,6163 Old Shore Park,L,Sangmélima,CM,,bb1377ea-9d47-4b9b-965d-6fa547c479e8,,11.9861694,2.9372148,2019-04-30
266,6 Holy Cross Way,L,Volgograd,RU,307740,4057d801-25ed-41b5-8f71-18be4fe87782,,44.5139052,48.7078478,2018-05-15
267,3 Everett Junction,3XL,Santa Clara,CU,,4f03d4c0-65f4-4c53-9024-958b89e0c685,,-79.9416549,22.424398,2018-03-25
268,61 Brentwood Plaza,XL,Nicolet,CA,J3T,9c195e23-e286-4820-8502-b964420360b6,QC,-72.597424,46.239782,2019-06-08
269,0132 Cherokee Center,L,Ryazanskiy,RU,671834,863e3128-ee22-4df2-a4d5-4ae11af390de,,37.784921,55.7165288,2019-05-14
270,05 Westport Alley,XL,Ustupo,PA,,dc2d14d9-d64b-4e56-9ba2-168c989a77a2,,-77.9267437,9.1324305,2019-10-12
271,4994 Charing Cross Way,XL,Mardā,PS,,17f86d2e-db77-43d3-896f-bebd31e38209,,35.195851,32.114217,2019-06-26
272,34 Lillian Road,XS,Rostock,DE,18147,5ac12302-4f7e-40d6-8baa-1732727660e2,MV,12.1186173,54.1463269,2018-04-07
273,27 Kenwood Pass,XS,A-da-Gorda,PT,2510-015,d9b16eaa-deba-487d-9a09-5f9f1bf6bc51,10,-9.1695689,39.3458414,2020-08-29
274,506 Eagle Crest Avenue,S,Bulusari,ID,,2fc1e69e-2321-470d-82e5-5688cd0973e6,,110.5424021,-6.9775856,2018-06-29
275,37 Tennyson Pass,L,Hovås,SE,436 54,c21ac71e-25e5-4bb2-bcef-10ea6cc9d310,O,11.9770405,57.6073069,2020-10-13
276,9818 Gateway Plaza,2XL,Straszyn,PL,83-010,322be91f-7384-457d-8d33-ffa3dbd96334,,18.5760979,54.2787562,2018-11-14
277,741 Hudson Alley,2XL,Scholkine,UA,,aa682d27-1576-4f70-bb58-7354db47980e,,35.8206159,45.4225908,2019-06-01
278,5016 Schlimgen Place,XL,Xiaoxi,CN,,05b145f4-ba17-4620-b340-3e24d2e23436,,117.309946,24.363492,2019-06-19
279,4 Melrose Lane,S,Ḩukūmat-e Shīnkaī,AF,,2e88cf8a-4d42-4239-b8a0-89052e607e02,,67.33558,31.98303,2020-03-29
,,XS,,CN,,d55b1641-5781-4ccb-ae2c-f8cd40bcca2d,,115.429626,30.203152,2020-05-26
281,945 4th Terrace,L,Aubervilliers,FR,93321 CEDEX,c271d233-996f-4a7a-8b81-80c1b2abb76b,A8,2.3977418,48.9124688,2020-11-25
282,5691 Warrior Plaza,S,Chixi,CN,,31242155-c24e-40b1-84bc-8b126fd1a3a3,,121.266579,30.169665,2018-01-05
283,1360 Warrior Avenue,L,Froly,RU,614532,9901f959-85c8-4a31-ab62-696e3e7f7899,,56.2706202,57.8374522,2018-06-27
284,63 Manitowish Park,XL,Habingkloang,ID,,68b6fffb-a416-4502-b453-91bb00df122a,,122.247,-8.6981,2019-03-27
285,91322 Johnson Parkway,S,Embu,KE,,59db3e56-7ee0-41d7-87b4-5796eb82530a,,37.4596409,-0.5388381,2019-11-14
286,274 Shelley Terrace,M,São Manços,PT,7005-724,e8527ed3-6519-45f8-a154-c1b9da44006f,7,-7.7521244,38.4581162,2019-02-21
287,904 Mosinee Center,3XL,Huangmao,CN,,1fee8e18-ecb0-464d-b3c2-c40206297974,,117.194396,28.701403,2020-08-03
288,30373 Memorial Parkway,XS,Dukou,CN,,6e59e3e6-dc07-48fe-b087-81e77f771f90,,111.889793,28.960671,2018-03-19
289,1278 Portage Alley,XS,Talawi,ID,,60d394bd-0ed0-43b6-9a01-4d3c8f98d070,,99.5339744,3.1638781,2018-08-02
290,7 Westend Terrace,M,Damnoen Saduak,TH,70130,f0fe4e5f-de52-42fd-8cfe-8f64d3ba38e0,,99.9541293,13.5167584,2018-04-02
291,80567 Shopko Center,XL,Companhia de Baixo,PT,9930-425,616e6419-c8a3-44ab-846d-b31551162395,46,-28.339109,38.414101,2020-11-05
292,3495 Badeau Parkway,S,El Banco,CO,473049,34afb716-ed67-4899-a3be-e0e2583f4027,,-73.8889499,9.0483173,2019-12-02
293,016 Monica Place,2XL,Forquilhinha,BR,88850-000,fd9a8c55-8918-453d-9330-b8a7c6886909,,-49.4745059,-28.7477963,2020-06-11
294,5990 Kennedy Drive,S,Stanišić,RS,,273e4b63-d916-491c-bad2-8a1e685bd9d9,,19.203958,45.9397564,2019-11-03
295,8915 Vernon Avenue,XS,Vermil,PT,4805-550,a66b2a99-0c21-4221-a599-5740e2debc2a,3,-8.3894249,41.4495777,2020-03-28
,,XS,,BR,,cdbd3a48-4172-4bd2-97f2-aee2f8f9ac00,,-54.2673083,-28.3006117,2020-11-24
297,17 Badeau Pass,S,Xukou,CN,,d80f844c-e562-4e10-b47b-b9280d99be87,,116.251947,29.731101,2018-07-28
298,7 Burrows Street,3XL,Tignoan,PH,8305,563aff00-60f2-47b0-a934-f03783b96526,,121.6224914,14.5682829,2018-07-07
299,7 Continental Hill,L,Delft,NL,2629,a3cb9368-438d-4144-8e35-dabfcbd8b3bf,11,4.3871967,51.9850245,2018-03-01
300,0 Meadow Ridge Park,M,Naas,IE,W91,26843563-7ef4-492b-a747-08103cb6a6d1,,-6.67045,53.213319,2018-03-30
301,502 Petterle Parkway,S,Zavolzh’ye,RU,606525,16e24475-12b6-4b5c-8bc9-bc58fd1fd860,,43.4086631,56.6203091,2019-09-03
302,76 Columbus Alley,2XL,Rote,ID,,8ef4dd78-864b-4a0a-8032-66f103ccbd84,,123.1239049,-10.7386421,2020-11-08
303,415 Prentice Road,XS,Ngrowo,ID,,8541ac8b-869f-4879-9c05-44070ea10863,,111.8971017,-7.1525924,2018-07-24
304,83906 Manufacturers Trail,XS,General Belgrano,AR,7223,937628bf-e7c2-416f-bee0-03352e9911b3,,-58.187517,-34.8234058,2019-09-12
305,32059 Upham Place,XL,Bogovinje,MK,1220,64850a19-39cf-44e5-890f-de441f737dbf,,20.9163887,41.9236371,2018-11-04
306,99627 6th Alley,3XL,Situbondo,ID,,a7bf35af-3ce5-471a-b020-48e90b7ebcc8,,114.1914951,-7.7888522,2019-11-01
307,58 Hooker Center,L,Gongjiahe,CN,,cce5e1bc-4c0b-419d-ba07-a73b0105388c,,105.272756,32.585342,2020-07-05
308,44 Spaight Avenue,L,Wanglian,CN,,b8181adb-ed24-4f3b-8ead-98bd9577a6bc,,109.0311079,37.2715427,2018-08-31
309,265 Independence Trail,L,Tuohua,CN,,c62279ee-aaff-443e-bb00-11b346125f2e,,118.9478423,31.3400146,2020-07-12
310,1 Lakewood Gardens Junction,3XL,Flen,SE,642 82,c801e409-bc71-475a-88de-3d6ca34e84ad,D,16.4145518,58.962927,2018-08-13
311,15 Tennyson Lane,L,Bajiao,CN,,5654e3ea-b817-4716-90a1-7015b6f50f3d,,109.412626,19.233277,2019-07-04
312,10261 Roxbury Junction,XS,Kamuli,UG,,b5dcd6d4-3a2b-4c4f-86da-b7eff5adb30f,,33.126717,0.944785,2018-10-18
313,55607 1st Plaza,S,Tococ East,PH,1655,4166e171-6bfd-4e60-8504-4c4e04c83741,,120.4157561,15.8279992,2019-03-05
314,51 Carioca Circle,3XL,Växjö,SE,351 97,eac861f7-33e1-4fab-ad29-68280292c105,G,14.224297,56.6444907,2020-06-23
315,44 Carberry Parkway,XS,Langkou,CN,,906405e4-1cd9-450b-b957-aae068bb0b7e,,120.477813,37.646108,2019-04-15
316,36305 Sloan Court,L,Sarany,RU,659434,076508ca-a7a7-4c4d-8ffc-5e6ac0aca63b,,37.5521227,44.8307966,2020-12-20
317,19 Spaight Way,3XL,Yangzhou,CN,,7e446ffe-d1ea-4945-8bf0-57a9d9f7a9d0,,119.412939,32.394209,2020-12-13
318,153 Fulton Alley,2XL,Shaydon,TJ,,ca54d7ef-52e7-44d6-b277-1d356cad5f80,,70.3658273,40.6563419,2019-02-26
319,4 Hansons Alley,2XL,Hammam-Lif,TN,,769d2cae-993b-40b0-9a3c-7db0cc07050c,,10.3441758,36.7230724,2019-10-21
320,1906 Caliangt Hill,XS,Tungelsta,SE,137 57,9f9ccdae-b34f-4ee3-b60f-1d977fa99acc,AB,18.033468,59.0876483,2020-04-04
321,6996 Emmet Drive,2XL,Nyköping,SE,611 93,3e4886d6-4c3b-410e-9afe-a3d77e6f5058,D,17.1339232,58.8049634,2019-07-15
322,94612 Texas Crossing,M,Rivne,UA,,c4788801-4369-4b94-b049-09d04a336651,,26.251617,50.6199,2018-10-13
323,6548 Luster Lane,XL,Sumberejo,ID,,096dbbcd-c422-4d80-a922-6ff25dbf75f6,,112.0237903,-7.2030729,2018-08-24
324,8 International Way,S,Urozhaynoye,RU,361215,afa9076e-abfb-477d-9c5e-4471df5d6cdb,,44.2085511,43.6971283,2018-08-04
325,6 Eggendart Parkway,2XL,Zhangshui,CN,,a9659f5c-6b2e-4d45-b070-f06c189a5eef,,121.300551,29.815139,2020-09-29
326,63 Mitchell Lane,M,Dangshun,CN,,346ef918-b49a-4206-a994-c46218b996de,,102.031722,35.84609,2020-11-20
327,63 Atwood Park,2XL,Qelëz,AL,,317f73b5-35df-49fd-8d54-9066d70188e1,,19.909723,42.095742,2019-12-18
328,907 Bluejay Circle,XS,Bujumbura,BI,,6d8ad1b1-93f3-4473-9773-eb69d9d1af35,,29.3598782,-3.361378,2019-09-29
329,23 Service Crossing,M,Lamas,PT,4640-540,0d41b782-2461-4c4d-bdb0-d84206689a96,13,-8.0408995,41.118436,2020-09-01
330,8842 Bultman Road,M,Gastoúni,GR,,5d688d27-526e-4919-b899-a7b5772acfed,,21.2543651,37.8509191,2020-04-25
331,304 Fair Oaks Road,XS,Kozloduy,BG,3320,b2d9fe7c-db30-4b93-b12b-ce75f6008d00,,23.7246154,43.7755615,2019-01-02
332,7 Dottie Circle,2XL,Železniki,SI,4228,2383b979-e908-4645-9341-f4c57b101fb2,,14.1692478,46.22544,2018-05-12
333,9 Logan Pass,L,Velyka Oleksandrivka,UA,,c3745702-dcfc-46c3-ae57-8e4125c7d3cf,,33.3032699,47.3211543,2020-01-10
334,35992 Sycamore Parkway,M,Dikou,CN,,f9ef979b-f2dc-48d1-9dcf-588270244789,,118.469281,26.745704,2018-11-23
335,4 Maywood Avenue,XS,Bulongji,CN,,c8abf43d-3816-40e3-81db-20ea1bc6c8c5,,96.543937,40.531867,2020-07-21
336,334 Lake View Circle,M,Nierumai,CN,,51de148c-746d-478e-8378-0ee52cb47b86,,89.944038,28.708282,2018-08-25
337,15 Spohn Alley,M,Jingzhou,CN,,786800e6-5816-4e56-8781-094550381440,,112.239631,30.335237,2018-01-10
338,534 Spenser Alley,XS,Örebro,SE,703 54,195570aa-5158-456d-9891-bfddb545e1a7,T,15.2072783,59.2766517,2019-05-26
339,7 Trailsway Lane,2XL,Srabah,ID,,5f146de8-38b1-46de-b91a-ec8110ff5673,,111.7048262,-7.9955024,2020-08-11
340,4 Waywood Plaza,3XL,Gerong,ID,,0d3742f5-c308-4348-81a5-0d44489800ee,,106.8221628,-6.2002533,2020-07-20
341,5097 Forest Run Trail,3XL,Beckerich,LU,L-8523,cc223b32-f08b-410a-9012-2d1ba54c7e9f,,5.8827648,49.7314687,2019-04-09
342,313 Buell Way,3XL,San Rafael,MX,58910,1bcaf280-f651-48ed-a2d5-7b8f420ab929,MIC,-99.1636051,19.4392516,2018-11-11
343,48328 John Wall Terrace,XL,Charat,PE,,3a51105b-f9ec-4630-8e17-14a7acc201d0,,-78.4478594,-7.8236568,2018-11-09
344,14706 Veith Pass,3XL,Semīrom,IR,,33e1fa4d-d457-48a0-915d-4181e6335027,,51.5683274,31.4151366,2018-05-14
345,798 Kedzie Junction,S,Fastiv,UA,,c129fdfd-6f7c-4b27-8158-1fd73f2fc73e,,29.9049684,50.0637682,2018-02-16
346,027 Mallory Alley,M,Paris 09,FR,75312 CEDEX 09,e598df8d-e15a-42b8-9107-87913efd0019,A8,5.8978018,43.4945737,2018-06-18
347,1 Towne Parkway,3XL,Bagikkedok Lauk,ID,,71cc9de1-0a56-4d3c-b3fc-1cec974038bb,,116.6058,-8.572,2019-02-24
348,60 Carberry Street,XL,Tanjungpecinan Utara,ID,,8e4bdbe6-0ad9-4366-89eb-c2765448ffea,,114.0309608,-7.6225762,2019-03-25
349,88 Dakota Road,M,Pancheng,CN,,824c293c-ab07-486a-baed-51b71b72f071,,120.16366,33.347316,2019-08-30
350,0848 Stang Plaza,XL,Qinghua,CN,,cb35d63a-7859-4968-a4dc-c0a8c174139c,,116.3264439,39.9996674,2018-08-16
351,15 Pond Way,M,Wissous,FR,91324 CEDEX,5f55e376-c5c0-46c4-b51c-a3e44b2a0df6,A8,2.281825,48.7276331,2018-08-27
352,77667 Elka Court,XL,Sundsvall,SE,851 06,239e93c9-35e4-4da3-92b9-af4c030fcebb,Y,17.313773,62.389549,2020-05-07
353,4 Londonderry Terrace,L,Abomsa,ET,,55a3e9bb-5e21-4e7f-8821-7c2277fe80e9,,39.85,8.583333,2019-12-28
354,4 Burning Wood Place,3XL,Xindong,CN,,e902fee5-b353-4a47-88ab-7c6fe2c9c366,,111.053561,21.918725,2018-11-01
355,79 Vernon Trail,S,Bandarbeyla,SO,,4ad460a8-95a1-45bc-a48a-77d36af6d275,,50.8105261,9.49858,2019-07-02
356,37 Derek Terrace,M,Áno Kopanákion,GR,,76ad721c-b179-4af5-b53a-4b506bb76f3f,,21.81667,37.28333,2019-10-23
357,481 Moulton Crossing,M,Sīdī Sālim,EG,,21041815-7d60-4172-8a66-75b2097f2866,,30.7807444,31.2724505,2020-04-19
358,36 Pearson Lane,M,Jinghong,CN,,d43c01af-a3bf-4fbe-ac91-fb18c11251b0,,100.771678,22.000143,2019-10-07
359,14523 Caliangt Street,M,Yutsa,RU,357380,bf433ad9-3f4e-434f-ac11-9d81ab611cc0,,42.974641,43.9771937,2018-09-23
360,33519 Homewood Road,XS,Coaldale,CA,T1M,55866fae-80cd-4ea0-834a-a330062aa0fe,AB,-112.6338496,49.7154966,2018-06-07
361,84 Marquette Terrace,L,Dembeni,YT,97660,4862cea1-da1f-46b1-8b18-73960828beae,,45.176077,-12.836985,2020-06-13
362,7934 7th Drive,M,Honggang,CN,,d096a955-0012-4021-93e4-2227b9b9a5bb,,124.891039,46.398418,2019-10-21
363,6195 Eggendart Court,2XL,Tangwu,CN,,24938dac-7892-4bab-a481-ab43cda11a96,,118.484422,29.342612,2018-01-25
364,380 Basil Circle,XS,"Palmas De Gran Canaria, Las",ES,35010,a6714919-9cbe-47ac-8b1c-322efe596710,CN,-15.4393074,28.1328796,2018-01-24
365,6 Shasta Place,XL,Washington,US,20022,9bc4cb24-6c2e-49de-956e-5065abaad0fd,DC,-76.9611991,38.9187037,2018-04-02
366,119 Ramsey Street,2XL,Sittwe,MM,,c754c8e2-0b8e-491d-9b89-8ead17ed2a0c,,92.8676861,20.1527657,2020-06-29
367,63257 Scoville Place,M,Leiden,NL,2334,2cce67e2-afe8-4dc3-b1fe-b550b37ac60f,11,4.4833003,52.1701159,2019-10-10
368,04145 Eagle Crest Center,XS,Kalodzishchy,BY,,094454a4-9ea7-4ec3-b2b5-5ae3b2780577,,27.7823,53.944,2018-04-02
369,9 Lighthouse Bay Point,XS,Studzienice,PL,77-143,c8c7b6fc-1bcd-4632-81e0-302018e25e81,,17.5871593,54.0541924,2020-12-07
370,3962 Shoshone Parkway,M,Lete,ID,,67f33478-2a4e-485e-b9d4-fca4416892a7,,119.3192266,-9.408551,2020-05-02
371,9 Emmet Street,M,Chivor,CO,153007,2755f962-4b2b-45d9-94b2-6b7bc4637f56,,-73.366926,4.888109,2020-04-15
372,0016 Quincy Parkway,XS,La Soledad,MX,68430,47296746-ac12-466e-8cc8-b51ebc25474b,OAX,-104.927894,24.762172,2018-01-31
373,29840 Declaration Crossing,2XL,Fenoarivo Atsinanana,MG,,e8284b7c-bbd8-4aa5-8158-d1738978e17c,,49.1221414,-17.1023219,2020-08-03
374,55292 Sachs Lane,S,Kuching,MY,93916,02dc0e02-e786-4d44-9b63-7bc394126cc4,SRW,110.382845,1.558031,2018-02-03
375,15 Dwight Way,2XL,Macarse,PH,6707,8d3868a7-086f-40bc-a5d9-5d8f495fe8b9,,120.77476,15.42495,2018-12-29
376,09278 Sachtjen Pass,M,Maţarah,YE,,819a5dff-8d4d-40a1-a72d-31eb66f22ab9,,47.63339,15.52591,2019-08-18
377,0113 Golf View Center,S,Calceta,EC,,62b76496-8dc0-4e96-8f96-e4fa15534832,,-80.1596041,-0.8406658,2018-12-04
378,3 Forest Junction,M,Songjiang,CN,,d310cca2-c2aa-4c0a-95db-0bc4b20c165c,,121.227747,31.032243,2020-11-13
379,3422 Debs Center,XS,Malinaw,PH,5316,f0df400f-65d5-4bb3-96af-c65e2014a9d2,,126.1259807,9.7719294,2020-12-07
380,666 New Castle Circle,L,Sindangsari,ID,,89698e51-26a1-40cf-b2ca-65702559d53b,,108.438797,-7.811056,2018-02-05
381,40 Vernon Court,2XL,Shixiang,CN,,aa296fa0-5c39-40fb-b4fc-7b0936eb07f8,,120.1534039,30.3312397,2020-12-23
382,78913 Transport Crossing,XS,Al Wardānīn,TN,,ec86277b-e826-41cc-b4d1-4d09f9cf255c,,10.67397,35.70915,2020-09-16
383,58 Morning Road,XL,Bornu Yassu,NG,,ed45daf3-c3f1-422e-a2a3-d2a3851bacca,,12.5807242,12.2711071,2019-07-17
384,41201 Melody Park,L,Kamenka,RU,162017,ae546b3b-4d01-47fa-ba62-b5c4a3b9689f,,37.1619979,55.9840531,2020-12-02
385,795 Walton Road,M,Gualmatán,CO,524528,9889dbf6-676f-4c6b-ba95-b75b86cab320,,-77.567138,0.919645,2018-08-02
386,232 Sunnyside Avenue,M,Klyuchi,RU,346781,ccaf0d75-555f-4a70-b61f-4c6c3c0ee735,,63.6111657,56.1343878,2019-06-05
387,43046 Derek Way,XL,Moriguchi,JP,579-8066,304f7bf1-65ce-4dea-8d5e-7c5e1e55c4bf,,135.6373307,34.6520219,2019-11-08
388,04 Harbort Hill,2XL,Stettler,CA,G8J,6906bfa7-b04a-4a6e-8871-c000befd0a02,AB,-112.71861,52.31683,2020-05-27
389,673 Carey Pass,L,Clifden,IE,H71,19c5cc8e-27e9-4dc2-80d4-5dc7799696f1,,-10.022186,53.488087,2018-04-20
390,220 Haas Junction,XL,Onzaga,CO,682529,5fe83ae4-a0bb-47bd-857c-cb8c79e62cde,,-72.814792,6.343847,2019-02-01
391,315 Main Lane,M,Vinhais,PT,5320-305,7c3588a2-2536-4108-8e57-713900c1de54,4,-6.9994563,41.837381,2020-01-21
392,145 Manufacturers Lane,3XL,Padangguci,ID,,fbefba69-d379-4971-9459-d166fa7fb95b,,103.2894368,-4.3805365,2018-09-14
393,617 Menomonie Alley,2XL,Doruchów,PL,63-505,47deb1d6-f0b7-4c58-b1e2-32a3bb59c0f2,,18.0755564,51.4174879,2020-07-22
394,2 Lighthouse Bay Parkway,XS,Kobrinskoye,RU,188355,2eabc8d6-5a19-4f78-a013-e859843ef277,,30.12389,59.4225,2019-11-28
395,1871 Marcy Park,L,Maiwal,ID,,33ca1d26-9de8-4489-ab0e-77b711ce771a,,107.130861,-6.28433,2019-10-26
396,169 Ohio Hill,L,Bethal,ZA,2320,20743265-0e38-4bcb-bea7-83823bc06a4a,,29.2335299,-26.4912117,2018-02-05
,,M,,ID,,977ba8bc-5cec-4ab5-ac2c-3e49834f52c7,,106.79719,-6.6000226,2020-06-05
398,27967 Tennessee Parkway,2XL,Tauranga,NZ,3144,9063385a-c5af-4407-8f0f-5d64a01fc485,,176.1595188,-37.6981612,2020-11-16
399,74389 Upham Trail,S,Ma‘bar,YE,,fbcbcf6c-dad1-4ffc-816d-e357e665bad4,,44.2905281,14.7953378,2018-08-08
400,031 Twin Pines Hill,3XL,Boafeo,ID,,a45498aa-5794-4404-9e0f-c815684beab4,,121.6226051,-8.6900261,2018-04-09
401,1 Redwing Trail,S,Ban Mai,TH,50260,d477dc11-dda8-42fc-9170-8f364f7ec791,,98.8113193,17.9469612,2019-06-12
402,72752 Utah Street,M,Meiqi,CN,,8259f1a9-37ce-4327-a53d-5a798f3fc123,,119.39402,32.388662,2018-01-03
403,76 Hallows Hill,S,Pueblo,US,81010,1b3ed1c2-7700-420b-b84b-bccf48cb559c,CO,-104.6086995,38.2743989,2020-03-23
404,4 Schlimgen Terrace,M,Nyköping,SE,611 24,7bde9332-ec8e-40ae-af3d-ae05b1eb2dd7,D,16.8539366,58.7500889,2020-06-28
405,386 Lerdahl Parkway,XL,Swan Hills,CA,L2T,2cc55717-cfcd-4968-a8e5-10e994db6736,AB,-115.40226,54.71681,2018-07-03
406,0 Blaine Avenue,2XL,Āsasa,ET,,8d1221d0-efe3-430a-afb3-6f95e866a35b,,39.2011716,7.1069627,2018-04-09
407,88 Claremont Place,M,Salvacion,PH,1114,21922dbd-ca16-4ca6-bd10-b34106cdafdd,,123.3765,13.4633,2019-12-17
408,109 Russell Circle,M,Meishan,CN,,d284bbc8-2541-4729-a295-6d4a28ec1e86,,103.848396,30.07728,2019-02-12
409,799 Kenwood Crossing,L,Repentigny,CA,J6V,e9a9dd0a-589f-4769-a8d2-182d8f7cab55,QC,-73.5471039,45.716147,2020-07-21
410,87 Green Plaza,XL,Jendouba,TN,,4e618d6e-1009-402b-b088-23afee876ff1,,8.7756556,36.5072263,2020-05-26
411,421 Montana Point,2XL,Sanli,CN,,0ba1a4c3-0015-4842-ba37-97df399e7b0a,,116.746096,24.84662,2018-04-04
412,07 Ridge Oak Lane,XS,Jiangpu,CN,,019ff157-5d72-4e09-9402-c8bf0459ea83,,119.7889248,33.1401715,2020-04-28
413,47 Redwing Parkway,M,Kadusirung Hilir,ID,,971bed55-5162-4e82-a495-fd086367738f,,105.935,-6.4296,2018-12-12
414,417 Dawn Park,M,Masalovka,RU,347837,63f255cd-e85a-4745-953d-e1696b79eef9,,40.2586934,48.4083877,2019-01-27
415,5 Hooker Point,2XL,Poja,ID,,1c6d7b6f-d65c-489e-9fc3-963c334183ae,,119.0110762,-8.4929791,2020-12-09
416,14 Pond Pass,XL,Zhangxiong,CN,,cba8e82d-522c-4c4b-b614-b41b261740f3,,114.1574404,29.0554502,2020-12-18
417,124 Oneill Parkway,L,Modřice,CZ,664 42,be374227-521d-444a-b666-3c0f229be57c,,16.613233,49.1278721,2018-11-13
418,3 Springview Street,L,Yangqiao,CN,,d82ccac3-fa05-4760-aeac-f971e68d4650,,115.431153,31.695648,2020-03-28
419,1 Debra Plaza,3XL,New York City,US,10125,c685e188-d62b-40db-921b-8938ab76b324,NY,-73.97,40.8,2018-04-21
420,990 Iowa Crossing,3XL,Mito-shi,JP,319-0324,e6cc2dee-8452-406d-a45a-650895003fe0,,140.3559256,36.3450691,2018-10-30
421,2787 Maple Wood Plaza,XL,Polo,PH,1444,51dc6808-6d6e-465d-9b01-6f9ed4409ef0,,120.94639,14.707895,2018-09-04
422,0 Rigney Parkway,XS,Yungaisi,CN,,3b0a1b6d-55a9-4c6b-82a8-44089b9721f4,,117.1166128,23.4024253,2018-10-11
423,8 Fulton Place,L,Roma,IT,185,0dc1c9c0-28dc-40a2-9d20-365b920e6647,LZ,12.5097274,41.8977003,2019-09-13
424,47659 Aberg Hill,XS,Şafwá,SA,,6ee46045-e375-4e0a-8b2f-5e7914de569a,,49.9161886,26.6274775,2018-03-03
425,6 Erie Place,M,Longquan,CN,,974b1d33-e2ac-4575-bebc-b62e814bec0e,,119.141473,28.074649,2018-04-18
426,09310 Schiller Junction,S,Cirompang,ID,,4075a4af-d7c1-4aa6-a1bb-7133079d291a,,106.3257768,-6.6727682,2020-03-08
427,7 Huxley Trail,XS,Pridonskoy,RU,394091,3ff01371-bf58-41ff-9747-7a7f32f837ce,,39.0891762,51.6521236,2019-08-31
428,9184 Granby Pass,XL,Presidente Dutra,BR,65760-000,dc314de6-a98c-4d53-bdd1-7c42369c7a14,,-44.0491741,-22.5845295,2020-10-24
429,285 Pleasure Circle,3XL,Donghe,CN,,16d91ad0-3dae-4da8-8b8e-7143a3c582ef,,110.044106,40.576319,2019-12-18
430,5770 Schlimgen Junction,3XL,Jiguan,CN,,37423575-26bb-4a51-baf7-f9291f658ece,,130.980894,45.304073,2020-06-09
431,73914 Merry Road,3XL,Hualgayoc,PE,,baed5be9-7359-413a-ad53-21abd36701b6,,-78.522826,-6.6816357,2020-10-13
432,5 Kim Court,XL,Presidencia Roque Sáenz Peña,AR,2124,5a82e278-0630-425e-828a-65dd9a67f03b,,-58.3736215,-34.7569609,2020-02-22
433,064 Rusk Pass,S,Tibiri,NE,,06090f06-5de6-46e5-a398-a7932c7cff9b,,7.0552218,13.5655838,2019-01-31
434,658 Erie Alley,L,Krajan Tanjungrejo,ID,,3661d3fa-d8ca-4ab3-bbf6-5b844593091e,,109.9081382,-7.7308816,2020-11-06
435,7 3rd Road,L,Yala,TH,95000,ed749cc1-3984-40b7-8b1e-97673e5a011a,,101.2804075,6.5411018,2020-07-01
436,5148 Gina Circle,XS,Lobitos,PE,,7cbe5dfe-8de2-4248-a109-8bc75c1a07c4,,-81.2821647,-4.4564351,2020-08-31
437,357 Everett Point,M,Davila,PH,2012,82486a5e-b2b4-4bb8-ade8-9bf496725d6f,,121.0144105,14.5675752,2018-04-23
438,912 Towne Terrace,XL,Hermoso Campo,AR,3733,28577016-8849-4b41-bb54-6553e0857dfb,,-64.4833187,-31.0767358,2019-06-04
439,431 Columbus Circle,M,Toluviejo,CO,707037,eb58eb95-ddd3-4d01-9fbb-51bb3129cf6e,,-75.4391349,9.452849,2020-11-22
440,27 John Wall Hill,S,Silao,CN,,f03e4bfc-3fdb-44fd-aed9-d21951f05cea,,108.40254,23.892873,2020-04-11
441,746 Haas Street,2XL,Kostrzyn nad Odrą,PL,66-470,b9ab924f-576d-4c98-a742-20919148a575,,14.6349097,52.6235765,2020-04-23
442,8 Kings Avenue,M,Narong,CN,,20c8b501-1175-46f9-b55d-7272cd5aadfc,,94.427663,31.385848,2020-07-02
443,30 Reinke Hill,2XL,Ts’khinvali,GE,,88f5c2b7-7b1e-40e4-b14d-9ced4cc216f7,,43.9644051,42.2214597,2019-07-26
444,601 Caliangt Lane,L,Maia,PT,9625-325,efe4c00d-b6bb-4d8a-b0c5-af643b22ba55,42,-25.3919027,37.8307393,2019-05-28
445,36554 Charing Cross Court,M,Kabardinka,RU,353480,e29d188d-b789-4ce3-ac89-b5b92a57644b,,37.9401099,44.6488775,2018-11-11
446,6 Thierer Parkway,XL,San Luis,CU,,9589675e-587f-419f-9ea0-afc1520a2ac2,,-75.8475853,20.1871897,2020-12-23
447,10103 Oriole Avenue,S,Jonava,LT,55014,b253b8b1-9159-4f5f-8233-9ee4cc6068f5,,24.2604924,55.0775116,2018-10-10
448,2 Ridge Oak Parkway,3XL,Bayasgalant,MN,,2ddae8a9-d13d-46d7-9b31-97a17925533b,,106.8254167,47.9644609,2018-08-05
449,7267 Meadow Ridge Road,M,Minggang,CN,,94c309c4-9482-4e41-8aa7-88e9566b2ca4,,114.038736,32.448742,2018-12-05
450,14 Little Fleur Court,2XL,Jesenice,CZ,350 02,66cb0162-bf72-4e35-9623-12c6864091aa,,12.4747444,50.0843138,2018-05-26
451,16900 Crownhardt Drive,L,Al Fayyūm,EG,,3b177aa3-9518-49fe-bfb9-acaac0b58bb7,,30.8428497,29.3084021,2018-03-12
452,78 Warner Terrace,XL,Trang,TH,30110,1b49e96c-6f51-46f0-88a1-cda0d7f06458,,99.61141,7.55633,2018-05-05
453,781 Menomonie Point,XS,Mniszków,PL,26-341,27b1736d-07a7-49ec-a302-35ba9142f512,,20.0136604,51.3830331,2020-05-23
454,890 Fordem Lane,2XL,Sandefjord,NO,3205,db81b4a8-492d-4705-a186-f01887bdbd33,7,10.1916192,59.1477457,2019-02-20
455,79439 Ridge Oak Pass,S,Mooirivier,ZA,3300,57731ebf-570a-4b7b-b66c-19cecb37e0ab,,30.0029572,-29.2106317,2018-11-10
456,903 Laurel Trail,L,Sanxi,CN,,95de3d6a-c20f-4324-86cb-318a18c43166,,111.8568586,37.2425649,2018-02-21
457,39678 Eliot Drive,2XL,São Pedro Gafanhoeira,PT,7040-524,5cb0f1f7-2164-433b-88cb-031a9149122b,7,-8.0759339,38.7433547,2020-10-30
458,4 Waxwing Road,XL,Wangge’ertang,CN,,bb0b16bd-cb4a-40c4-90ad-1b32cf635f5b,,102.827734,35.237207,2019-05-11
459,6435 Golf Point,3XL,Grangwav,HT,,d9166c75-f32c-4355-a794-12ee3baf8525,,-72.7703001,18.4247636,2020-07-03
460,326 Spaight Parkway,3XL,Molde,NO,6405,ff8f6384-a6d4-437d-92fe-9523453fcbc1,15,7.1608614,62.7371552,2020-08-25
461,7142 Sunbrook Lane,L,Oslo,NO,460,4456b98e-f0fb-43d7-87ae-a077d797e29e,3,10.7510824,59.9327294,2018-02-01
,,3XL,,GR,,3991a579-62a8-44cf-8378-4461cc42ffb9,,26.2201411,39.3112503,2019-01-04
463,02794 Briar Crest Alley,2XL,Champigny-sur-Marne,FR,94504 CEDEX,d708e8b0-6926-4349-b9bc-dc18e86aa63e,A8,2.5111543,48.8270848,2018-06-04
464,2 Tomscot Circle,XS,Kiltamagh,IE,P75,6edb61dc-e79b-4e35-80bd-9075666dc6bd,,-8.9949917,53.8533151,2018-03-18
465,31040 Garrison Pass,XL,Pyhäjoki,FI,86101,7b66aeec-4cc3-4a43-ac37-202a1a1da859,,27.3157403,67.0610032,2020-05-25
466,55 Coleman Point,XL,Qingdao,CN,,8d6711e2-2edb-41b5-b804-a3ce3d924586,,120.382609,36.067108,2019-02-26
467,1 Walton Street,2XL,Ourovéni,KM,,dd0f3f71-3aee-4749-844f-bf0f99ed702f,,43.4969735,-11.9148486,2019-07-21
468,655 Dottie Terrace,XL,كاف الجاع,SY,,b3da4ce7-c0a3-4590-9ed2-0948333f74d2,,36.216972,35.0876436,2018-09-06
469,8612 Eagan Avenue,XL,Roshal’,RU,140732,ba880a5b-cf3d-482e-bffe-3a5cc634ce28,,39.8653499,55.6583701,2018-04-26
470,4137 Bultman Park,M,Tangwu,CN,,fdcde2b7-6320-4976-92c7-d8f434c4617d,,118.484422,29.342612,2020-07-15
471,2 Mendota Park,2XL,Chengzi,CN,,9ace529c-2120-4a76-b9c3-544e9c52e090,,118.6143878,35.9705797,2019-01-03
472,93191 Burrows Hill,2XL,Dulolong,ID,,779c5397-59a1-4fa1-9cd7-54d84eb7eb01,,124.4475522,-8.2333409,2018-02-09
473,4703 Alpine Park,XS,Rantau,ID,,b1b0b423-9924-4680-981b-19ca978841da,,115.143997,-2.937572,2020-12-22
474,75 Arkansas Plaza,3XL,Bor Tungge,CN,,1ae6388c-4960-488e-bbc0-8c47aaca9132,,85.38086,44.055922,2020-07-16
475,2 Dayton Lane,L,Ílion,GR,,c653620b-dd55-48d0-9f05-c19aaf3204af,,23.7038541,38.0307786,2019-05-28
476,439 Barnett Court,3XL,Messina,IT,98124,75332cf5-5253-4b03-8595-af5d481c2fc9,SC,15.5445064,38.1724824,2018-01-29
477,8170 3rd Point,2XL,Karangcombong,ID,,f4edfb00-9ac0-4fd4-85b5-6dfb0d19dd58,,106.27124,-6.55307,2019-08-12
478,7775 Susan Terrace,XS,La Libertad,EC,,7cf3a0ac-5086-468b-b975-bd4cddee1a11,,-80.9001863,-2.2306406,2020-07-01
479,9 Shasta Drive,XL,Ferraria,PT,2445-079,7127c2fd-59d2-4f39-ad97-016e407a13bc,10,-8.9783717,39.6756105,2019-10-03
480,620 Sachs Lane,XS,Banjar Asahduren,ID,,6de7480e-3da4-4c69-b47c-6f82c39a70b9,,114.9671388,-8.2104974,2020-04-29
481,59 Hanson Circle,S,Sukmoilang,ID,,c726b3ab-1b61-4947-81d6-ff9c9578a1fa,,113.8575,-8.2631,2019-08-02
482,14 Delladonna Parkway,XL,Chendian,CN,,0aacb0b6-d58b-49e4-af43-158bc811dbbe,,115.970718,32.704922,2018-08-09
483,74 Northland Pass,L,Uchiza,PE,,dd5d7e0c-b44f-4e58-aa80-7f304b5caf6f,,-76.4619911,-8.4592507,2019-12-26
484,5 Dexter Way,S,Grande Rivière du Nord,HT,,a87b53b3-de59-4d5d-b8cb-8116ff283195,,-72.1697501,19.5797297,2018-03-18
485,244 Maple Junction,L,Kebonagung,ID,,ae4996d6-a03e-47bd-ad26-966beeb6b2da,,113.6770012,-8.1611036,2019-06-16
486,62 Rutledge Trail,S,Las Cruces,US,88006,ab8e4c2b-f8d9-49cc-b074-066cf313aa13,NM,-106.78,32.31,2018-01-18
487,00 Ohio Center,XL,Petkovci,BA,,eb0715e8-7779-46f3-89b6-bb6fb6b53ac4,,19.0902035,44.4528239,2018-11-24
488,4197 Truax Place,2XL,Masaran,ID,,3d5c690e-7ea8-404a-8f43-ba25e9480db3,,110.9387418,-7.4703872,2019-08-04
489,4107 Butternut Place,L,Dongbei,CN,,74f60c39-1068-40bf-a7e2-f42a089354a7,,121.549925,38.876483,2018-08-09
490,3 Harbort Place,M,Mežica,SI,2392,aa86fd13-4421-4e81-a228-452bdecfca6d,,14.8523952,46.5214145,2020-07-30
491,20497 Vahlen Place,M,Khvastovichi,RU,249360,7b934361-7fc1-4a36-ab02-c93e926391a2,,35.0963837,53.4698755,2020-08-19
492,54 Iowa Park,L,Loimaan Kunta,FI,32560,1c18ff41-9df5-425b-9edb-b6f33fbf80b0,,22.6282967,60.955867,2020-03-16
493,6 Bashford Junction,L,Jamundí,CO,764008,4d881bcc-373d-42dd-b930-e250bf6a0800,,-76.5929658,3.1377116,2020-10-21
494,064 Heath Point,S,Novyy Svit,UA,,1eb05684-d540-4de3-875b-7f700637bd27,,34.915084,44.829819,2020-02-01
495,740 Service Hill,3XL,Bouca,CF,,0ce34d9d-4215-4223-a7aa-34300e80dabc,,18.2763069,6.5060695,2018-04-26
496,2578 Oxford Parkway,L,Sakhnīn,IL,,09252e8e-de19-465b-b3dd-c50edb2a0d68,,35.294547,32.864167,2020-11-23
497,60958 Hintze Place,3XL,Huangjindong,CN,,8e0d4d99-7e52-4341-b81d-ae59a2e200ca,,109.088095,29.948677,2018-12-31
498,220 Eliot Point,2XL,Semënov,RU,606657,39352975-7efc-4d96-99b9-72d2f9377610,,44.5018318,56.7889481,2020-03-08
499,4 Old Shore Road,S,Mlonggo,ID,,3a89cd2b-3f91-4aa9-b2c6-8a59ebce0ddf,,110.7095788,-6.5277643,2020-07-14
500,27589 Scoville Place,L,Ballinroad,IE,D07,5ac461d0-49f5-4045-a4cc-4b15bea8741c,,-7.5717688,52.1045472,2020-12-31
501,7789 Tomscot Pass,L,Richmond,CA,V6Y,1486d75e-2098-4c91-b7d1-5024525678bf,BC,-123.1152602,49.1571976,2018-12-17
502,72128 Anzinger Way,XL,Szeged,HU,6718,0934954d-2134-4910-9f38-841a166d424d,CS,21.66245,47.4936583,2020-04-03
503,36 Brentwood Street,3XL,Chengmen,CN,,cdb49806-e630-4404-8581-bd4ae313eea5,,119.368971,25.991991,2019-01-11
504,72 Mesta Junction,S,Waipare,ID,,6e3bffbf-7981-41fa-8adf-f8042b8de4e6,,122.281829,-8.639266,2019-07-13
505,7 Tennyson Road,XS,Maracha,UG,,1e746270-7d54-448b-b653-d75990b388a4,,30.9403023,3.2873127,2020-02-29
506,7210 Forest Hill,S,Lesnoy,RU,431107,c285008e-293b-4950-b3d9-775a9c97d1a2,,44.4160763,46.0675028,2020-12-06
507,140 Westerfield Court,M,Strogino,RU,352174,3f542c9b-945d-4e4f-a8a7-f0769edc9c44,,37.4219388,55.8024235,2018-09-17
508,972 Thompson Hill,XS,Chicago,US,60619,11a55791-acaf-4533-837a-7c1e5525ff30,IL,-87.6087638,41.7458012,2019-10-11
509,0373 Washington Alley,XL,Reims,FR,51679 CEDEX 2,15a573b9-d2fc-44d4-9552-b0e7fbfbccdd,A4,-1.8090692,48.2414942,2019-05-26
510,0240 Shasta Circle,M,Feliciano,PH,5610,06e9fcce-a1e5-4eee-9656-427f2c4f3e6d,,121.0162168,14.6927715,2018-02-23
511,9698 Delaware Street,XL,San Antonio de Los Altos,VE,,8f961e44-cfda-4df2-b2b2-fe2094719f3e,,-66.9571026,10.3696393,2019-11-12
512,76 Chinook Place,S,Al Jaghbūb,LY,,e74cba95-821a-40d8-978c-53c2635459fc,,24.5168391,29.7417348,2019-11-07
513,15 Reindahl Court,L,Santa Bárbara de Padrões,PT,7780-460,9382f35d-72cd-43df-afcd-b5c8c38543f6,2,-7.984789,37.6364006,2019-11-16
514,21957 Sunbrook Crossing,XS,Thames,NZ,3540,368c7dc1-2fd3-485f-bc90-b5faf60b2dbd,,175.5477294,-37.1468126,2019-04-01
515,2253 Fieldstone Drive,3XL,Antas,PT,4760-018,535b355c-107b-4159-815b-e21ca1cf57a4,3,-8.5116191,41.400351,2018-03-11
516,5835 Fieldstone Park,XL,Dornava,SI,2252,d775cc1b-4357-4722-a63e-d30d5ad2953f,,15.952954,46.4356499,2018-09-24
517,5118 Judy Place,M,Shenavan,AM,,7df4fbf6-3be8-4b24-8c13-0d439e555d7b,,44.3852966,40.4832736,2019-04-16
518,4 Marcy Place,L,Ubá,BR,36500-000,0915cc1f-e4a3-4999-94ec-35149f2b251f,,-42.9426188,-21.120123,2018-04-30
519,36265 Cardinal Point,2XL,T’ianet’i,GE,,6d4ae6b1-0f86-4298-acd0-b5f44482c2bd,,44.9672863,42.1119268,2019-07-03
520,07 Talisman Street,L,Ariz,PT,4625-007,d0b01dd6-5f43-427e-9758-6faed7e35e1a,13,-8.2213311,41.1059592,2018-08-17
521,24129 Hoard Alley,L,Manalongon,PH,7029,92cbf06b-f882-4812-ac71-df2b6b5e9f70,,122.8845373,9.2214675,2018-03-08
522,2 Onsgard Place,M,Guali,CN,,1466e3e4-2153-4106-8bf2-1e3b28b24705,,110.179953,25.234479,2018-12-06
523,9205 Amoth Park,L,Naranjal,PY,,e6fa0887-2f29-4795-9558-6fa08e7d1a75,,-55.1900227,-25.9718022,2018-06-26
524,3 Clarendon Center,XL,Cipanas,ID,,ccf4c7bf-e9d3-47c5-9d87-50c4174f82a3,,107.0185123,-6.7131574,2019-06-23
525,82 Talisman Avenue,2XL,Haguimit,PH,6117,01cddba5-1c3d-408f-9477-2da28485a7e9,,125.7230302,7.0649018,2019-10-03
526,1 Fordem Pass,3XL,Valdemārpils,LV,,2fefa548-153d-441a-aab5-24169897d218,,22.591118,57.3690549,2018-03-08
527,50173 Shoshone Center,S,San Juan de la Maguana,DO,10805,02533093-e7c5-4b15-b3f6-87cd8c749631,,-71.2227043,18.8107813,2018-09-02
528,71678 Rusk Junction,2XL,Pedrogão,PT,6090-425,cf6cf6a6-177b-4141-8a7d-a029d16fb6c1,5,-7.2389142,40.0876422,2018-07-26
529,6 Bartillon Crossing,2XL,Sourotí,GR,,91ad1672-5111-4b20-8381-16f12afff4d8,,23.0927079,40.472433,2018-06-07
530,557 Dixon Crossing,M,El Adelanto,GT,22009,5d600d1b-431d-4e8e-ad7f-02008cfe24cb,,-89.861368,14.175851,2019-02-28
531,7 Portage Avenue,3XL,Porto Ferreira,BR,13660-000,cffef78b-9f64-40ef-b3f0-922abad0a551,,-47.4710798,-21.8421051,2018-02-17
532,74 Trailsway Drive,XS,Circasia,CO,631008,3fc797e9-2533-4404-9ce3-eb7e37490dab,,-75.635595,4.616094,2019-11-30
533,074 Mallard Place,3XL,Kemiri,ID,,8bab2d4d-1561-4801-b59b-c4019086c6d9,,109.883333,-7.683333,2018-02-01
534,21 Haas Way,L,Bol’shoye Selo,RU,391147,0ea1b308-ae62-4dca-a56d-3801e00db7cb,,39.7408655,54.1439356,2019-10-13
535,172 Evergreen Junction,M,Zhongxiao,CN,,68c8e1e1-3769-4f00-a464-7c8874633904,,121.397142,31.068932,2019-04-10
536,91133 Melby Point,XS,Takanini,NZ,2245,02dc30bb-914d-4309-a318-39b21d220afd,,174.9217575,-37.0343377,2019-11-20
537,08 Gerald Center,XL,Glamoč,BA,,d4d71367-28eb-4ac4-9f79-1ac8eb82cb03,,16.8557453,44.0461726,2018-05-31
538,61403 Buhler Road,M,Masohi,ID,,b716196d-382e-4fe8-917d-bc74af96ae5f,,128.9615888,-3.3060598,2020-02-15
539,19674 Armistice Plaza,XS,Tulsa,US,74103,64b4c3d3-3475-4eb9-afbe-1f4748a1f3e8,OK,-95.9964783,36.1592882,2018-11-23
540,5 Declaration Pass,3XL,Belisario Dominguez,MX,30509,3e12f44e-1a54-4b9e-952b-8b76328cf7b9,COA,-99.110685,19.4621825,2019-10-18
541,4448 Summit Lane,2XL,Mashan,CN,,29398664-e1f7-40e0-8175-240819ed032b,,130.478187,45.212088,2019-09-30
542,742 Londonderry Point,3XL,Contraalmirante Cordero,AR,8305,5b8f3e49-830e-4ac7-8f36-4ec1b872bf48,,-58.5704426,-34.7430691,2020-01-30
543,0 Shopko Road,XL,Raglan,NZ,3297,7f332cba-f1fa-467d-a2ce-4eae0b28ce01,,174.7994271,-37.8268291,2020-09-23
544,4 Sugar Center,L,Arroio Grande,BR,96330-000,e7f19811-0e1f-422d-90f6-2614caf90832,,-53.0866941,-32.2331548,2018-02-09
545,678 Moulton Drive,XL,Ngulakan,ID,,b0b6cee8-53f6-44c0-ac90-129d178fdae6,,110.1236245,-7.869171,2020-04-14
546,94819 Johnson Center,XL,Pasirbitung,ID,,19256fb7-2687-44d7-82cb-9ea2d7a6f745,,106.962467,-7.2209016,2019-12-29
547,2 Buena Vista Crossing,XS,Novyy Karachay,RU,369228,f2dd5808-79af-414c-b1d3-22272568ecc9,,41.9106435,43.8231125,2019-01-23
548,5578 Upham Circle,S,Mosquera,CO,250047,dd512155-081f-4f3a-bd87-2bcf64ef104a,,-74.2296713,4.6802367,2018-10-01
549,856 Acker Hill,XS,Vidče,CZ,756 53,6b286f2a-644c-4d62-9af3-76fb209af317,,18.0947362,49.441512,2020-02-11
550,4812 Eliot Court,M,Dao,PH,5810,2a755bfc-5ad4-4a85-904d-d353e03d8264,,121.0134927,14.5636407,2019-06-28
551,37333 Corscot Street,L,Krajan Satu,ID,,0e011637-b2b5-484d-82fd-db84d5115a14,,110.2648159,-7.3743397,2018-01-16
552,36 Mcbride Way,L,Huangzhan,CN,,3512f77d-c4a3-4005-b144-4e281594598a,,110.179953,25.234479,2020-03-20
553,39 Evergreen Terrace,L,Nankai,CN,,c83f2650-6745-4493-af9d-512f975ae3e0,,117.150738,39.138202,2018-05-15
554,9362 Orin Center,XL,Debrecen,HU,4004,04866782-8a0b-4670-860a-8c672c5ad019,HB,17.5142121,47.5202786,2019-06-10
555,39599 Springs Lane,3XL,Skole,UA,,eb4d4bcc-544e-4d50-a207-2749ce1a32ac,,23.5129163,49.0401779,2020-11-01
556,4378 Monterey Road,3XL,Yingtan,CN,,a28cd7fc-664c-4aa9-a1d3-4db9914021c7,,117.069202,28.260189,2019-06-07
557,41 Lillian Center,M,Yizhang Chengguanzhen,CN,,d1637756-fc5b-408b-8938-e05afa5ef288,,112.951826,25.400256,2019-08-11
558,7 Donald Circle,XS,Laurel,US,20709,beb7d918-3897-4812-9795-f0aad782a1ee,MD,-76.8391683,39.062982,2019-02-13
559,4 Tennyson Point,S,Igede-Ekiti,NG,,837d2ada-e8c3-44e0-a0ac-95061c968052,,5.1249662,7.6705223,2018-11-03
560,8 1st Circle,XL,Maqian,CN,,68f82547-fd47-4d5f-8254-67fbcb7d850c,,90.21512,31.644875,2020-08-20
561,12163 Ronald Regan Parkway,3XL,Baoshan,CN,,941ad4bc-f2d6-4671-881a-156e046bbb2b,,99.161761,25.112046,2019-07-31
562,7489 Mallory Way,3XL,Omaha,US,68144,644479da-4e36-4493-87b1-b7800ed98f17,NE,-96.1155932,41.2340369,2019-03-06
563,174 Melody Plaza,2XL,Grzybowa Góra,PL,27-215,8753492f-2c2f-4659-a4e0-449fcd116d0d,,15.5383803,51.9695974,2020-10-11
564,0504 Veith Trail,XL,Donggong,CN,,33f3a204-618a-4f08-b091-a20527e06ee0,,113.751799,23.020673,2020-12-11
565,1 Vernon Crossing,XL,Bultfontein,ZA,9670,74a73804-e802-4374-b6ed-4298e93f2ae4,,26.1477598,-28.2750463,2019-12-27
566,1446 Columbus Avenue,L,Xai-Xai,MZ,,6bdec9b9-a1c2-49a1-8305-06bd66cacf83,,33.6958809,-25.060476,2018-04-23
567,1578 Mariners Cove Lane,XS,Rizal,PH,7104,a3421ebb-bb75-447d-b449-8b366fb7dc67,,121.1092186,14.5665378,2018-10-19
568,7 Farwell Alley,XL,Wolofeo,ID,,561fca53-6926-4eca-bacd-f64fa2d64337,,121.7508912,-8.7334983,2020-10-31
569,3383 Clyde Gallagher Lane,L,Basiong,ID,,fc26104f-e092-487e-9300-56af9c535842,,115.229209,-8.801499,2018-10-11
570,5779 Shelley Street,M,Aragarças,BR,76240-000,265fcfa1-b4dd-4deb-ac82-b89437a631e8,,-52.2516426,-15.8958471,2019-07-23
,,3XL,,JP,,53c39317-1a80-4edd-803f-a4500dba22e0,,139.5356365,36.2761885,2020-11-26
572,6 Maryland Avenue,XS,Jinzhuang,CN,,19c0d025-ff9d-415d-aa6a-4c5ad2d43fe4,,116.293767,37.690551,2019-04-14
573,0 Debra Terrace,2XL,Xumu,CN,,1fe066fb-a38d-414c-b8f9-afb93c8ad959,,119.669425,30.439547,2018-07-03
,,S,,AR,,0f0ea4a6-fbaf-48e1-9222-231e9c42f1bc,,-60.657848,-32.966145,2018-11-03
575,95 Ramsey Circle,L,Eirado,PT,4730-510,78929d11-f2c9-4a63-8446-7484c844f3b7,3,-8.4907289,41.6548062,2018-08-31
576,8864 Warner Lane,XS,Sulkava,FI,58701,56d9d225-ffb1-4e63-92cb-c439a4d051ec,,25.8776098,60.6204071,2018-12-26
577,8827 Oriole Court,S,Schaumburg,US,60193,82a2e1d2-9714-490d-a4cf-859a33c4489c,IL,-88.099845,42.0130165,2020-09-21
578,28812 Ronald Regan Center,XL,Fornos de Algodres,PT,6370-105,cbfa7f92-bba6-4715-bb99-991c933caebe,9,-7.5388857,40.6207889,2019-04-05
579,82509 Michigan Parkway,XS,Kadubadak,ID,,63d7ec71-8429-47d2-804b-b496ba3597c2,,105.8466437,-6.6551319,2018-05-15
580,77 Monterey Plaza,3XL,Xubao,CN,,ebdbd05b-f9b9-4114-b3ff-288d737808a0,,106.837052,35.5407,2018-05-05
581,740 Buena Vista Court,XL,Eshowe,ZA,3850,82ed8bca-abb0-4a69-b939-d5c1e22313d8,,31.751934,-28.959987,2018-04-09
582,3280 Emmet Point,S,Chafé,PT,4935-584,bcebecaa-1265-4850-9829-b1a2be1ea7fc,16,-8.7836437,41.6490501,2020-05-24
583,90 Barby Alley,XS,Concepcion,PH,7213,6a548cbc-cccf-4e61-b1f1-4c02e33ceafd,,121.1138058,14.6688068,2020-10-11
584,7 Clarendon Hill,XL,Kohlu,PK,83000,ea060948-ec5f-47d0-9e19-876d103a8a0a,,69.1823141,29.8601155,2020-05-11
585,5763 Dayton Trail,XL,Tutnae,ID,,c9094334-03c2-4cbd-ad63-50be66a0646a,,106.701673,-6.2855885,2018-02-06
586,832 Brentwood Pass,M,Proletarsk,RU,347554,ac4029d1-093a-4fb5-b4d4-a0cbd7db1330,,41.7340519,46.6299289,2019-02-28
587,22452 Green Ridge Court,3XL,Glória do Goitá,BR,55620-000,c72fbdab-9856-4ed8-bce4-48995f620f94,,-35.2947008,-7.9995755,2018-09-11
588,76 Linden Plaza,S,Yuping,CN,,030860c9-ba40-4e52-a915-0fd3be15e725,,108.912375,27.236635,2019-12-06
589,94037 Havey Plaza,XS,Ussuriysk,RU,356532,5af5891b-0106-4cd6-afe0-85084631f667,,131.5243532,44.3553292,2020-10-28
590,86 Manitowish Way,3XL,Spas,UA,,4eb7d6e7-95ff-4e8c-b00e-01e51c7a9bce,,25.0435007,48.4474111,2018-10-06
,,XS,,CN,,62f4a4af-f06e-44b9-bd10-939e2fac33fc,,115.308246,26.097158,2018-03-29
592,01 Fairfield Hill,XL,Xinjia,CN,,a7f2653c-15f4-402b-9ae5-ce7e4a4266b6,,87.5395855,42.5246357,2019-09-14
593,23380 North Terrace,XL,Puerto Bello,PH,4300,4b1539a7-da2c-4ce8-a23b-dff0ea2aeb8f,,124.5316391,10.9856014,2019-02-20
594,09201 Acker Circle,2XL,Fulu,CN,,1cbe4d48-cd43-4138-b643-7e9f4546853d,,4.8925949,52.3716937,2019-03-22
,,2XL,,CN,,7d3e711f-e095-421b-ad23-6a3cfad77053,,108.487368,22.75839,2020-09-20
596,2 Glendale Hill,XS,Kota Trieng,ID,,95a21211-9cb5-41f7-af14-b42e0c6688e8,,96.2283035,5.2362218,2018-04-22
597,7 Lien Trail,L,Sindangsari,ID,,ad3ce479-360d-4bb2-b81a-293bcc40c47f,,108.438797,-7.811056,2019-09-15
598,3 Rusk Place,3XL,Aragarças,BR,76240-000,6a421a43-b2fe-41fe-96c9-4b7d053cd662,,-52.2516426,-15.8958471,2019-12-15
599,9201 Dapin Place,XS,Xishiqiao,CN,,b02ab560-8b3c-445f-86fd-0696e2ea965e,,113.366904,22.948016,2019-08-02
600,9715 Charing Cross Junction,M,Otavi,NA,,3ab7fe4f-b3e3-4ef1-aa0a-affe4c1b555f,,17.3316667,-19.6339763,2019-04-19
601,8570 Valley Edge Place,L,Nijmegen,NL,6529,5159040e-cb0f-46d8-bfb9-e2eb040bd4b0,3,5.8715134,51.8417492,2019-12-08
602,9 Springview Hill,L,Micheng,CN,,095227d9-ba5b-40ee-83f7-a1ec2c2d5ec7,,115.008163,31.172739,2020-08-22
603,748 Pawling Alley,L,Verkhniy Dashkesan,AZ,,b116b3ad-6c22-4f2a-b63d-e52fc5dd6b09,,46.07175,40.49357,2018-03-26
604,0091 Harbort Parkway,S,Spitak,AM,,2cd4053b-a558-4931-9d26-578ad3b04399,,44.2797884,40.8318278,2020-07-08
605,2538 Mitchell Crossing,3XL,Karangtengah Lor,ID,,2d74d69e-066f-4cac-ab41-e21e68571423,,106.7057733,-6.2057964,2020-11-19
606,4957 Vahlen Crossing,L,Casais de Vera Cruz,PT,3025-353,ce44fba7-cd61-4f47-9e63-fa2e395ec230,6,-8.57269,40.2603592,2019-09-07
607,7 Florence Point,2XL,Badajoz,ES,6010,f2c93770-78c9-4fb8-9bbc-6a2cd8837d0b,EX,-6.9706535,38.8794495,2020-09-20
608,01 Warner Hill,S,Gaotian,CN,,5a8b6081-28a2-4f56-8687-718060881a1c,,110.64085,24.310713,2020-07-14
609,33446 Veith Crossing,2XL,Ciudad Nueva,DO,10208,7b2ecc9e-e7b6-4bfd-a4de-b4f236229b93,,-69.8932436,18.4670158,2020-06-26
610,6587 Redwing Drive,2XL,Quebradas,HN,,a7ed0ad3-3807-44df-9851-433052b41e12,,-87.1242072,14.3770919,2018-04-10
611,69 Cody Junction,M,Bayt Qād,PS,,73a47bc3-aa13-4f0b-8f24-fe2347fb60ff,,35.356811,32.470376,2019-02-13
612,2 Forster Crossing,XS,Zelenograd,RU,143912,895157ee-c6b4-4764-849e-1b75363445c6,,37.5186129,55.706586,2019-10-28
613,17 Maywood Lane,S,Stráž,CZ,430 01,ddd16422-abde-495b-b927-ad49f6d99a1c,,13.2886723,50.4919489,2018-04-11
614,98 Mosinee Center,L,Paracuru,BR,62680-000,767e7c2f-b577-491e-99a8-0f3529bd510c,,-39.0303806,-3.4142906,2018-08-08
615,8 Vera Circle,M,Dongchuan,CN,,4d114197-ff3a-41b5-bf10-3cfd6e7914ca,,103.187824,26.082873,2018-08-06
616,12 Drewry Terrace,S,Gornje Moštre,BA,,d297b524-9ab3-4ac8-b9c8-ad4dd50b9856,,18.1535702,44.019172,2020-05-24
617,513 Jay Point,XL,Drochia,MD,MD-5233,cdc196b2-b58f-43b8-a467-f11a0aa64eb8,,28.4339797,47.837001,2018-07-17
618,97 Glendale Court,XL,Kuala Terengganu,MY,20710,4d7fa493-c8e7-4e69-a672-945bf0010b71,TRG,103.0010752,5.7577596,2020-01-01
619,07 Butterfield Hill,XL,Rathdrum,IE,V14,532df9ce-3b34-4492-92f0-0570537c87b7,,-6.163027,53.2339841,2018-07-14
620,279 Duke Court,M,Paris 13,FR,75243 CEDEX 13,4700593b-65a5-457d-a0bd-e6d452136a2e,A8,5.8978018,43.4945737,2019-02-27
621,77786 Shopko Junction,3XL,Yongning,CN,,209d3099-0b9e-4144-8189-4c6a24860cdd,,108.487368,22.75839,2018-08-22
622,23 Starling Center,3XL,Chengnan,CN,,be03cfe1-7777-44d5-989e-ae62baec21ff,,88.880492,29.270311,2020-03-03
623,77 Hallows Place,S,Sviblovo,RU,627603,426f5805-7480-499f-bffc-c2d2a759eca6,,37.669967,55.85611,2018-07-25
624,21927 Macpherson Parkway,XS,Samburat,ID,,6e992934-bffa-42d7-a461-997efa3ccb0c,,107.8738258,-6.8377775,2020-04-14
625,07 Debs Terrace,M,Ngrowo,ID,,66931d49-91f3-42b1-bf89-a78847416519,,111.8971017,-7.1525924,2019-10-10
626,04999 Buell Drive,2XL,Nierumai,CN,,4c9c18ad-ec7e-4360-9560-926fb6743463,,89.944038,28.708282,2020-10-22
627,2060 Atwood Street,S,Jedlińsk,PL,26-660,6fbd6de8-4c04-49cc-84ab-ee74996b15be,,21.1235461,51.5144022,2020-06-13
628,3 3rd Park,2XL,Tembau,ID,,1413a58b-7243-401b-9cce-3aee77154592,,106.8513919,-6.264999,2020-03-27
629,620 Express Street,L,Honglong,CN,,dae734f2-cbdb-45cd-ae52-e56b1baaaa91,,114.109497,22.396428,2018-09-29
630,26 Twin Pines Street,M,Belyy Gorodok,RU,172711,3540ad90-7049-4895-91a9-2ce414e1be78,,37.9617087,55.5700317,2020-07-08
631,08471 Steensland Plaza,S,Guangfu,CN,,819c0af1-41a7-4551-b068-3a79b41f18b2,,120.392977,31.282641,2018-12-23
632,26187 Elmside Park,L,Jacksonville,US,32230,f70339bd-2f70-4a10-aca0-3343c6494c7d,FL,-81.6631259,30.3276652,2019-12-25
633,708 Loeprich Trail,L,Jeziorany,PL,11-400,5f3b4e40-349d-459c-a7d8-54c869434a3c,,20.0395965,50.1045321,2019-02-20
634,11866 Main Hill,L,Sindangan,PH,6305,233a0bb1-a9d3-487f-8cb3-f91b09531df6,,122.9938347,8.3104933,2018-09-30
635,1 Vermont Park,XL,Kiên Lương,VN,,d2392a6c-d1ae-47da-9609-2c18c01416d5,,104.6354631,10.3043903,2019-02-26
636,5 Bay Hill,2XL,Kota Kinabalu,MY,88807,cc23641a-9de1-4e4f-90f5-ae623cd919fe,SBH,116.0761121,5.9840985,2019-01-31
637,38 Service Avenue,M,Bandar-e Torkaman,IR,,df1cb88c-0371-4fc4-8a48-711c6eb2e149,,54.0738979,36.8979986,2019-02-20
638,3221 Cascade Crossing,L,Ochla,PL,65-980,b09ad1fd-f0d7-40bb-9aa4-6cae139804b1,,15.6903444,51.8433045,2020-05-05
639,2 Forest Dale Crossing,XL,Stenungsund,SE,444 24,8cb8c7f1-865f-4ddc-9361-14ac9977021b,O,12.0399013,57.7162077,2019-11-03
640,5 Debs Road,M,Pagelaran,ID,,b322d6ae-e460-46ef-ae11-ec7ebb0cd31b,,112.6079459,-8.197451,2018-05-26
641,10637 Leroy Center,S,Burträsk,SE,937 91,2174b83a-4648-492c-91f4-b6da4d679681,AC,20.4852704,64.6025198,2019-07-25
642,2583 Myrtle Terrace,3XL,Wailiang,ID,,3ab0736b-39c2-4815-b7ab-bfed8b287606,,119.4048722,-9.6352458,2020-03-14
643,1696 Knutson Circle,3XL,Saint-Dié-des-Vosges,FR,88109 CEDEX,a07634d9-7c32-40bd-8265-349da0d5fcc3,B2,6.942319,48.28232,2020-09-13
644,3298 Buena Vista Terrace,M,Toyama-shi,JP,939-8282,69a7a425-80e9-4366-a032-9ef9c6b3b98c,,137.2123102,36.6728694,2019-01-16
645,13725 Charing Cross Court,2XL,Himaya,PH,6103,3dd98ba8-c51a-4389-8a16-20affc4ed078,,120.9082571,14.2976248,2019-09-18
646,93464 Moulton Plaza,M,Andradas,BR,37795-000,c68727ff-8c09-4296-842a-aac7b7f12c41,,-46.5728156,-22.0699763,2018-06-30
647,6081 Carioca Center,2XL,Ljungbyholm,SE,388 31,7a8ee9bd-4d8d-45e1-a90e-c22c0da59770,H,16.1858857,56.6306408,2019-08-10
648,89 Derek Circle,S,Marsada,PH,9215,fa152810-ee53-4b5b-ba15-12302ac15c91,,121.2234268,5.976337,2018-02-12
649,102 Autumn Leaf Way,XS,Tongkiling,ID,,93ce3e8b-76b1-45b0-86fe-8d2d91c34c70,,113.6799766,-1.9735657,2020-03-25
650,56666 Mariners Cove Street,3XL,Yuanda,CN,,13d24126-448f-4a4f-b2d0-7e7f016fa384,,123.5288621,41.8136349,2019-08-20
651,8829 Hagan Center,XS,Sanli,CN,,ef160cc4-6a1d-47b2-9355-b6b7acb39637,,116.746096,24.84662,2018-10-13
652,8 Prairie Rose Center,2XL,Aygavan,AM,,b806eb16-aa22-43b9-94b2-5d85c571f6fe,,44.6683679,39.8752693,2020-02-04
653,28931 Eastlawn Trail,XL,Ustyuzhna,RU,162810,fe59d6be-08a5-413e-a5a7-065a807be9fd,,156.9842018,51.3100484,2018-05-21
654,986 Dryden Way,XS,Fovissste,MX,85936,9f52e4a5-3263-4d41-be57-86bf8fe7d6f9,SON,-110.9610195,29.0755457,2018-02-23
655,9 Lotheville Trail,2XL,Lagawe,PH,3600,73b91b4b-3d26-4ff2-8536-9eff763d0118,,121.097488,16.820152,2020-03-26
656,0245 Union Court,S,Devesa,PT,4970-521,199c0253-6445-4330-9937-c11602f83c98,16,-8.4064036,41.866056,2018-11-21
657,3 Emmet Park,3XL,Loyola,PH,2514,00e64f22-3e69-4ce3-9316-006300986d67,,120.998941,14.6131569,2019-05-24
658,6839 Bonner Plaza,L,Tapakrejo,ID,,a587c20d-a19e-409b-86df-4d86b20e07cb,,112.3963638,-8.1101209,2018-12-25
659,6303 Paget Street,3XL,Montélimar,FR,26209 CEDEX,958ad00c-2e0b-4c4e-a3cb-78a8019ea9a9,B9,4.7447501,44.5590244,2018-07-19
660,2933 Rutledge Road,M,Kutorejo,ID,,59a3000c-923e-487c-8d9c-8292d77863a2,,112.5125893,-7.572027,2019-09-13
661,679 Dahle Place,2XL,Batticaloa,LK,30000,75b1e7bd-51bf-4602-a7e2-a5153be55111,,81.7131828,7.7247058,2020-11-13
662,3 Forest Run Point,S,Arruda dos Vinhos,PT,2630-115,f25f681b-1bc3-4c28-a3c0-5c29160027d4,11,-9.0774591,38.9835516,2019-06-25
663,3267 Norway Maple Road,3XL,Uummannaq,GL,3961,66449794-6eb4-4106-9f1d-fc149f7321b5,,-52.12639,70.67472,2020-01-19
664,4 Magdeline Lane,S,Hongqi,CN,,fddbfd80-c406-4e97-ae29-2b92929954f6,,113.875245,35.30385,2019-07-07
665,06608 Main Drive,2XL,Pledo,ID,,d44d4a00-2546-4b05-b8dc-ce2a93c1c8d9,,123.309328,-8.2764084,2019-01-04
666,183 Mallard Lane,L,Kunčina,CZ,569 24,ed5775db-2086-4eb1-8f6a-e6bcc334b79a,,16.6128396,49.7969047,2018-10-08
667,76 Sunfield Street,XL,Lebak Timur,ID,,d8bdceab-c07f-46d5-9bc6-9a324272022e,,112.7795375,-7.2457322,2018-09-18
668,92 Fallview Trail,2XL,Sijiqing,CN,,cde746ca-0eef-49f5-bd76-486e789b6a71,,115.610077,30.900941,2018-07-21
669,197 Nova Parkway,XS,Peterhof,RU,198804,23836599-e74f-470e-9850-22b9e04a8cb1,,29.9085976,59.8863041,2018-10-17
670,76065 Manufacturers Terrace,XL,Kapyl’,BY,,822bad5b-c7fd-42ce-b6f3-1bfc82e7b92f,,27.0908004,53.1511461,2020-05-28
671,981 Northwestern Road,M,Köln,DE,51107,8434ef22-804d-418b-9331-1af88d41674f,NW,7.0902515,50.9173381,2019-01-14
672,0788 Ludington Alley,M,Saparua,ID,,2b7c40ea-76c4-4b69-9b58-11eb6150f186,,128.6320086,-3.5508343,2020-01-27
673,7 Saint Paul Road,XL,Göteborg,SE,404 22,5b9245f7-a2c3-425f-ba53-414b5e6be1af,O,12.0599176,57.731461,2018-08-19
674,727 Hovde Alley,XL,Paraipaba,BR,62685-000,e342a06b-97f0-4f4c-abf4-2bc2c3ba4d38,,-39.1482174,-3.4383637,2019-04-24
675,24021 Bayside Court,2XL,Bugene,TZ,,b4adbd64-7c0a-461c-b5aa-9af0f35fcd3a,,31.1419058,-1.5923262,2019-07-29
676,39595 Susan Place,3XL,Breda,NL,4819,0e0db13c-c59d-41dc-b8ef-04b1db6e28f5,6,4.7680893,51.5749006,2019-09-08
677,7 Butterfield Road,XL,Alburitel,PT,2490-005,e5781208-4888-43da-8e25-7cdd5a33cdc1,14,-8.5226286,39.6445351,2020-12-29
678,39729 Buell Lane,L,Lingyuan,CN,,b5743433-d6ac-4a42-bfd5-fc71c4e2dadc,,119.4015739,41.245445,2018-10-18
679,713 Iowa Circle,L,Urengoy,RU,629860,096807a0-ac4d-4eb0-b493-6a87a340abe0,,78.344864,65.957138,2020-10-18
680,2 Grayhawk Junction,L,Mujiangping,CN,,59269e12-1068-4428-88a9-97ba44eaa276,,109.723392,28.048158,2020-01-31
681,7 Toban Street,S,Los Pinos,MX,36780,62129262-f00b-4633-acaf-cd5108b84501,GUA,-99.1497466,19.3387759,2018-07-16
682,50987 Reinke Hill,3XL,Rislane,MA,,57c4450e-57da-49ac-b5a0-7fbcd8bf71ae,,-2.432221,34.7577423,2019-06-18
683,3879 Eliot Way,M,Sukamanah,ID,,3117ac4c-eb16-48ff-b1bd-00bd8ab3dbcf,,106.5024344,-6.1177509,2018-04-02
,,2XL,,CN,,d207f44a-8631-4ff8-87d6-9be737692b5a,,108.960747,34.26645,2019-02-20
685,46 7th Pass,3XL,Kizlyar,RU,363720,1014c547-9a9d-4069-ac3b-0ad56e8f1468,,30.337848,59.902198,2020-09-28
686,09 Merry Way,2XL,Jiaokui,CN,,20311a0a-3131-46ed-89ed-d7195996bba2,,104.649387,23.405908,2019-04-06
687,2 Blue Bill Park Plaza,L,Qingshandi,CN,,41633f6c-5c68-404b-964e-6845a387586a,,114.385538,30.63963,2018-05-08
688,09 Manitowish Hill,2XL,Ambovombe,MG,,42cff4d5-a8d2-4d33-8fd5-e4fa5c6b5fd0,,46.0897124,-25.1720132,2020-02-17
689,335 Talmadge Circle,XL,Amfíkleia,GR,,18252f06-8939-4796-b506-4ebcd2673066,,22.5927946,38.6390583,2018-10-31
690,3 Rieder Pass,XS,Thị Trấn Ngan Dừa,VN,,000a82d0-44ff-46d1-9f10-23192adde928,,105.4495395,9.5713437,2018-01-04
691,0 Lien Way,L,Vårgårda,SE,447 82,f2d46cd8-a2aa-4fc8-aee3-150cf766f7a1,O,17.9879854,59.2689705,2018-09-14
692,887 Sheridan Circle,2XL,Kapunduk,ID,,1a3aae57-2e42-4341-bc03-d392e4d07be6,,120.0496593,-9.4511841,2018-03-28
693,2 Jay Hill,M,San Casimiro,PH,4332,6034abd7-1367-4174-a2f9-feda14168ec3,,120.7822013,15.5518829,2019-06-07
694,51145 Onsgard Street,3XL,Mae Sot,TH,63110,292a5e7d-0f0a-488a-8264-8fda312d5695,,98.5746649,16.7124054,2018-06-30
695,66485 Commercial Center,XS,Zuénoula,CI,,3919da3d-d8a0-475f-a9a9-50a45922099d,,-6.0520363,7.4240414,2020-10-31
696,02 Vahlen Parkway,XS,Pemba,MZ,,97a6d35f-c82a-450c-b187-40895dc17965,,40.5178014,-12.9732026,2020-07-11
697,6429 Raven Plaza,2XL,Gvozd,HR,44410,4c3d3cc7-eb56-4767-a2b6-401d020c793e,,15.8650719,45.3532302,2020-03-01
698,6244 Corry Point,2XL,Mabay,PH,3311,e7d04ab2-a515-4798-9f19-071a0e925d54,,124.4870869,6.0593972,2018-09-19
699,12 Cordelia Way,2XL,Zhulan,CN,,c4204ee4-6ae8-4b46-9c74-1d82485e2313,,115.717179,25.627549,2018-11-17
700,27 Bluejay Street,L,Sukhobuzimskoye,RU,663040,02e4459a-7542-4b55-a7e7-48c09d886a89,,93.2782749,56.495472,2018-05-21
701,35202 Kim Point,M,Careva Ćuprija,BA,,8c406543-c7ca-4092-8d63-e37bda9d9d16,,18.4306437,43.8580221,2019-04-04
702,1 Talmadge Trail,L,General Lavalle,AR,7103,b5720ab3-62ff-4474-943d-ca41849e640e,,-58.6022596,-34.5595896,2018-03-24
703,542 Fuller Crossing,XS,Yangliu,CN,,cf346f1e-7388-4970-beb7-619ef0ff4bb9,,13.3844297,52.5307386,2019-04-18
704,6944 Almo Way,2XL,São Martinho do Campo,PT,4795-446,8d842b22-1f41-44af-91a2-ee4956940319,13,-8.3718954,41.3593636,2018-06-02
705,3556 Tony Road,M,Tintina,AR,3743,4d1b705e-4b0a-4677-bb37-2b39c5a460f9,,-62.7087197,-27.0307058,2020-06-25
706,15 Maple Wood Avenue,XL,Quillo,PE,,74265aed-d834-45ce-9ef7-8cc16b432ec8,,-78.051987,-9.32897,2020-11-11
707,2 Dexter Place,L,Mojocoya,BO,,951c5247-a8b0-4b90-b5da-0401eaa6bffb,,-64.621948,-18.76207,2020-09-21
708,37 Twin Pines Avenue,M,Arada,HN,,2a078249-537a-4309-8089-3934093cb797,,-88.3032755,14.8465342,2019-07-30
709,1 Porter Plaza,M,Maksatikha,RU,171939,4efaf766-74a9-4e1d-8399-760db4d0a5f3,,35.9190561,57.6044065,2019-11-06
710,16308 Del Mar Alley,3XL,Gentilly,FR,94254 CEDEX,19db82dd-e363-404f-8ca8-cf9a7f06e3a1,A8,2.845761,44.478341,2019-04-04
711,1541 Ridge Oak Drive,L,Nianpan,CN,,352f00ca-3734-4f3a-93aa-7f8f47a6aab9,,124.048453,41.821778,2020-07-07
712,67 Sachtjen Junction,M,Iroquois Falls,CA,L6K,51918467-d49f-4007-a781-21602f1130b1,ON,-80.68307,48.76688,2020-03-12
713,86965 Crest Line Drive,M,Pulilan,PH,3005,e8cb6248-59ae-43f7-8f2d-e5a2b1f78064,,120.8537936,14.9024411,2019-03-06
714,87579 Eliot Alley,S,Sezimovo Ústí,CZ,391 02,e8cf5e96-e4a4-4473-87d9-87c4c8aaf22c,,14.7029806,49.3788944,2020-03-31
715,09287 Kedzie Hill,M,Klášterec nad Ohří,CZ,431 51,4b7bec72-ae73-42a5-b19b-d2ac0550384c,,13.1712929,50.3844613,2020-10-15
716,4582 Alpine Court,XS,Água de Pau,PT,9560-205,0285b014-a926-4f5b-94d1-0f55f0ef9a81,42,-25.510372,37.7213799,2020-05-22
717,65 Saint Paul Road,M,Sharïngol,MN,,89fde026-8795-4abd-9b45-3c7ec7bb8d9f,,106.4385875,49.2575136,2018-01-02
718,70 Utah Parkway,XS,Qingfeng,CN,,3e7f2dad-9e3e-4ebe-8f9d-232f04db5940,,115.104389,35.88518,2018-06-01
719,2 Little Fleur Circle,2XL,Zengji,CN,,3caeff27-2c88-4df8-86a7-1acd1709f41e,,112.382644,30.728746,2018-11-11
720,87439 Twin Pines Parkway,L,Praia Grande,BR,11700-000,d1681bff-6c25-4448-9150-14c496a83f3e,,-46.4124616,-24.0088421,2018-11-13
721,337 Mesta Street,S,Sandakan,MY,90705,d6b0435c-8418-4079-92d1-d5f3a09126c6,SBH,118.06182,5.896774,2018-05-15
722,9 Westridge Center,L,Puqian,CN,,faaa0a58-a921-4c2e-b0e9-2326995e9dc8,,110.580002,20.023731,2020-02-07
723,626 Westridge Lane,XL,Rasony,BY,,e397a194-9af2-4728-b6b3-524797796824,,28.8580531,55.9008577,2019-10-18
724,066 Westend Street,M,Nizhniy Tsasuchey,RU,674480,cd236ef6-c2a7-4960-a174-2926225db42a,,115.126221,50.515804,2019-01-25
725,4981 Heffernan Center,3XL,Anaráchi,GR,,6ef4dcbc-8521-4359-9ed5-7cab1c6f4228,,21.5714154,40.4925406,2019-03-07
726,82812 Express Junction,XS,Sugiharjo,ID,,038a789b-2348-4cdc-b7f3-45e13f4c710d,,98.8114707,3.6618244,2018-07-01
727,5 Hayes Lane,3XL,Boliden,SE,936 81,7d58b748-3915-47b9-8f08-3ef3856b23cc,AC,20.3845205,64.8734795,2020-12-02
728,66 Tennessee Parkway,S,Karantaba,GM,,d0e83bff-6786-4e2c-9f82-a8c358166aea,,-14.5611573,13.5699981,2020-04-14
729,6 Sloan Drive,M,Anabar,NR,,8483dd66-6a5f-48c3-996f-8c20f4e64672,,166.9484624,-0.5133517,2018-02-08
730,7994 Sauthoff Circle,L,Pacobamba,PE,,cda5521c-a5b4-4ca3-97c7-11e0c79ed657,,-74.569682,-12.8435129,2019-05-30
731,3 Northland Circle,3XL,Cibungur,ID,,d9e21b22-c44d-4b47-8557-091b5f2f9121,,107.4780383,-6.4698758,2018-12-23
732,6 Comanche Center,M,Fort Pierce,US,34981,fbe8eec2-c03d-4b48-a17b-346eefd2947e,FL,-80.3714326,27.3980151,2020-07-03
733,8 Beilfuss Point,M,Pingpu,CN,,0ce7e772-9708-45e9-af73-5ef587cd66d6,,121.015142,30.677233,2018-07-14
734,8456 Toban Road,L,Dongsheng,CN,,30146ce8-33d9-4861-b55e-ea19dce6b599,,109.963338,39.822507,2020-02-01
735,754 Sullivan Court,XL,Néa Plágia,GR,,8ff307e1-9145-410b-a482-9ed34a7830ac,,23.2039759,40.2655961,2018-03-01
736,7 Commercial Parkway,XL,Perdões,BR,37260-000,178ef61f-4ecb-4c3b-912e-2fccf6a894ae,,-45.0933497,-21.0794915,2019-11-17
737,6859 Arizona Place,M,Vršac,RS,,d37af761-bdb2-4c29-b491-2097fc626354,,21.2944883,45.1181926,2020-10-11
738,4491 Annamark Point,M,Dianya,CN,,4574680f-77a5-4e26-b30a-d3bfd3befac4,,114.274759,30.565162,2018-06-07
739,95 Corscot Hill,M,Linstead,JM,,02b748e6-2e79-43b8-bab7-bfc1467aed88,,-77.0449327,18.1402987,2019-05-09
740,53 Kennedy Park,M,Bueng Kan,TH,34140,5795b42b-45d3-4b00-a447-a159e8175afa,,103.651666,18.3637867,2019-05-25
741,096 Manufacturers Plaza,XL,Rio Claro,TT,,7f4a4bf1-6ac5-45c4-89e5-513d02be12c8,,-61.175278,10.2995028,2019-09-01
742,958 Crowley Drive,2XL,Rūdiškės,LT,21016,70b31cef-d7bc-4223-b505-412080b22acd,,24.83333,54.51667,2020-12-20
743,286 Jenifer Parkway,S,Petaling Jaya,MY,46791,fb459155-a0e0-4842-bf91-beef857b5719,SGR,101.640078,3.1035814,2018-11-17
744,35 Hoepker Terrace,3XL,Zhouwang,CN,,8ed7c235-9fd8-459d-bf00-326009e425a7,,102.6293927,37.9331181,2019-04-19
745,83100 Hooker Terrace,XL,Azor,IL,,dcf866fc-d589-4d68-8c94-9b665658e54e,,34.799648,32.029558,2018-08-15
746,50603 Elka Center,S,Yaring,TH,94150,671f2838-c912-4f7c-84f5-0884b24d638b,,101.4112049,6.848589,2020-07-24
747,8805 Pankratz Point,L,Hanjiashu,CN,,632e4c54-e615-4cd1-bca8-e1018dbbe5bb,,117.0775313,39.1934799,2020-05-15
748,32370 Clyde Gallagher Road,3XL,Masalovka,RU,347837,b6a31164-7f0b-41ec-a39d-958ecb8b528a,,40.2586934,48.4083877,2019-11-17
749,6261 Clyde Gallagher Avenue,2XL,San Juan,PH,6227,7aaa73c4-ec51-419f-8d43-33c49822c956,,121.0317737,14.565668,2018-05-06
750,0 Algoma Junction,L,Massenya,TD,,74e286e3-bf22-43f7-9dd8-016b7e2f986c,,16.1713267,11.4025367,2020-04-19
751,221 Cordelia Circle,M,Yaodian,CN,,84977415-1c26-47ed-a012-3da39e37a2c6,,112.196621,32.683659,2020-07-10
752,33 Eggendart Junction,L,Niort,FR,79042 CEDEX 9,d5983dff-4ae2-42c3-b1b1-0733f3c1de66,B7,-0.4546217,46.3194856,2019-03-09
753,36836 Sommers Crossing,L,San Onofre,CO,707018,4fb103a5-b8cd-4a89-8f7d-5a95934582c3,,-75.519872,9.74084,2019-04-29
754,30183 Eagle Crest Hill,XS,Unden,ID,,d1c8eba8-ab8f-4b10-8cb2-a00bc82a8e27,,133.7941356,-0.7399711,2018-10-17
755,5689 Kropf Alley,3XL,Dayong,CN,,e29fc62f-1459-4abb-a209-d979bc1dd088,,110.451191,29.103856,2019-12-25
756,6 Lunder Place,2XL,Ngozi,BI,,b316549c-5556-4b45-b0b6-314a1b7a0742,,29.8265492,-2.9083521,2019-07-30
757,55931 Ridgeview Parkway,L,Xinxing,CN,,7d6282ee-aa37-4a9b-b6fc-f53d8c0836cb,,112.225334,22.69569,2018-05-18
758,107 Scoville Avenue,XS,Bolanon,PH,2208,3593b4bf-21d0-4c5d-a59e-62c0112d958c,,123.3788792,10.8081816,2020-06-30
759,0 Mendota Drive,XS,Kathu,TH,83120,40815eaf-cbcd-4cc1-bf21-29b38480966a,,98.3337983,7.9107391,2019-06-19
760,18 Utah Pass,2XL,Dýšina,CZ,330 02,babbbebb-2829-4b8d-84a1-a00f4a74aa37,,13.5090071,49.7694382,2018-09-20
761,2105 Clarendon Crossing,L,La Roxas,PH,6217,6585324d-6525-4441-a159-f52d9d6fdc8f,,121.0080574,14.6103278,2019-04-10
762,1 David Junction,2XL,Biały Bór,PL,78-425,e88bcc06-2d25-4653-b984-2f5cad66ff4d,,16.8352157,53.8964099,2019-04-26
763,345 Forest Run Way,S,Hengli,CN,,1304b833-52db-4044-a9de-677925d64171,,121.022581,31.627447,2018-07-20
764,43886 Caliangt Drive,XS,Ponta Grossa,BR,84000-000,5e1cd8b9-59ea-4f03-b0f8-44ea6e05286c,,-50.1584514,-25.0993621,2020-01-04
765,2 Emmet Street,2XL,Terek,RU,361203,2228dc0e-b349-4b56-ad18-1f132cca128f,,44.1393572,43.4795902,2018-07-27
766,1016 Sundown Drive,XL,Kukulu,ID,,8ce182e7-039f-4601-a6a8-3b7d38a9b991,,107.90367,-6.8909727,2018-04-16
767,530 Sage Center,XS,Longquan,CN,,4c14b171-37be-4153-934b-1baf8b8af068,,119.141473,28.074649,2018-03-30
768,41388 Crowley Court,L,Amiens,FR,80891 CEDEX 3,5c862d9e-2f43-46b9-a8de-c404c6217b7b,B6,2.3000664,49.8921732,2020-11-25
769,74322 Artisan Parkway,2XL,Dmitriyevka,RU,452242,c9a7984a-cb5f-4c95-9165-55a0c9c8abf8,,87.8550409,56.0184306,2020-12-12
770,5 Barnett Place,2XL,Sollefteå,SE,881 52,d34297af-57c2-4f6f-834d-34c0bb93c28b,Y,17.2654819,63.1747832,2019-02-18
771,4 Merrick Point,S,Amargosa,BR,45300-000,7c950579-c00e-4b0b-8202-e3d051691cca,,-39.5099186,-13.0719408,2020-09-23
772,41 Duke Street,L,Sapele,NG,,563dc2bb-d48e-4beb-a9f2-d30590ab310b,,5.6931356,5.8750769,2018-12-20
773,9535 Waxwing Alley,M,Tumcon Ilawod,PH,1045,90486708-3e72-4e2b-b1ab-0b8d6297eac0,,122.66667,10.91667,2019-02-16
774,0 Dahle Pass,3XL,La Courneuve,FR,93126 CEDEX,e1615679-0d19-46cb-8173-d805d6c0f1b2,A8,2.3882228,48.9236625,2020-07-31
775,71980 Norway Maple Center,XS,Bagacay,PH,6216,e7cfb908-0109-4ff9-b615-e36022adf62f,,123.9196804,12.9796798,2020-04-22
776,1451 Hudson Center,XL,Tselinnoye,RU,659430,fee6dbb4-58cc-49a2-a9e5-7c6ee3cd758b,,85.6747154,53.0803781,2020-04-20
777,626 Moland Park,3XL,Marvdasht,IR,,2dae2eba-e7e2-4ebe-a96a-0292e4eda9cd,,52.8205515,29.878738,2018-01-25
778,1880 Pearson Way,S,Kinéta,GR,,dc69b640-c124-4e0f-aead-87883d429578,,23.2138496,37.9695509,2019-08-01
779,9398 Memorial Court,XL,Atlanta,US,31119,d539bd25-4062-447d-bc1f-855a3e9e7327,GA,-84.3679295,33.8524536,2020-11-22
780,514 Mariners Cove Plaza,3XL,Bovec,SI,5230,4525f00c-fcb4-4bc5-94b6-9dd8fee8bf14,,13.5516829,46.3376387,2018-07-24
781,540 Cordelia Way,XL,Berdorf,LU,L-6562,47fda583-7375-4ffa-ab56-ad05a72b434d,,6.4041782,49.8053451,2019-01-02
782,179 Thackeray Trail,S,Guinticgan,PH,5019,00d56abc-52a1-4e48-9c0d-ee1388ddb1c5,,123.1156361,11.5521428,2019-06-22
783,76909 East Avenue,L,Selebi-Phikwe,BW,,595d552f-25cd-4fe7-b965-80a73023b263,,27.8428651,-22.0028763,2020-07-28
784,6715 Clarendon Trail,XS,Nieborów,PL,99-416,576874b8-f1d3-470e-b667-8ebd6dfd53a5,,20.0873091,52.0564395,2020-10-01
785,806 Hoffman Trail,XL,Nozdrzec,PL,36-245,95c771b1-b2d2-4e74-8e88-8508c3a4a86e,,22.2174725,49.757244,2018-04-14
786,08 Ramsey Crossing,L,Valejas,PT,2730-077,0b212858-871d-4c18-b3e1-961b2fc82fe5,11,-9.268126,38.7336567,2018-01-28
787,90545 Upham Hill,XS,Cortinhas,PT,4635-115,34f83161-8d83-4254-a55c-7369983460af,13,-8.1650422,41.2080707,2018-03-01
788,54648 Shelley Point,S,Snizhne,UA,,94a7f5ca-8573-4ffe-b65e-b65f794bda18,,38.7656121,48.0282789,2019-07-10
789,449 Dawn Point,XS,Ocote Paulino,HN,,7c29b009-d528-4f96-89a8-e816173b0e17,,-87.6,15.41667,2018-12-04
790,68756 Dakota Alley,L,San José,CR,40602,26ab0e0c-1aee-4589-9ffb-620ff3a0ae8a,,-84.1014639,9.9165452,2020-02-18
791,6 Oneill Street,3XL,Starobin,BY,,08747dbd-de19-4db9-862b-2fc408be3262,,27.4572059,52.7312889,2020-07-11
792,2728 Clarendon Circle,S,Morteros,AR,2421,17f0de0f-8d91-44aa-9001-3503bdbec67d,,-62.0729285,-31.4311903,2020-06-03
793,21513 Ramsey Road,XS,San Jose,US,95128,acbbd0e7-eb6f-44f0-addc-3c1751765630,CA,-121.9416226,37.3189149,2018-07-21
794,49627 Heath Junction,L,Bajingzi,CN,,366acd78-4c22-4af8-9024-cd26e1b61449,,124.734722,46.023082,2018-08-01
795,3 2nd Lane,XS,Oslo,NO,376,4bff576b-906d-4ba2-955a-4fcd95907710,3,10.6771005,59.9428184,2020-08-14
796,955 Rigney Way,XL,Sindang,ID,,a16b2513-df1c-4e1d-b733-f85fe2057c44,,108.2970692,-6.3398714,2020-10-21
797,3745 Shopko Trail,L,Ciemas,ID,,06e9584b-54ae-4738-82f0-37e655e629b9,,106.5112712,-7.196982,2018-01-20
798,729 Nova Street,L,Kalianda,ID,,9b2929cc-1506-422d-a5c1-9ae058182fc6,,105.5826123,-5.6935288,2020-05-29
799,8 Spohn Park,3XL,Węgierska Górka,PL,34-350,893534ce-57e4-4ca9-802d-f3c5ea7300f9,,19.1332531,49.5962241,2019-06-07
,,3XL,,ID,,3b668dc8-b18c-4fe1-ac53-cf9b302a94d7,,122.1916328,-8.618134,2019-04-26
801,80192 Rowland Circle,L,Guaíra,BR,14790-000,3c15c3d2-ae77-4cd1-8386-1cc760350f50,,-48.310855,-20.3253713,2018-03-31
802,343 Swallow Parkway,3XL,Kuala Lumpur,MY,50700,645718b6-3e56-40c0-b1a8-7676495c7f65,KUL,101.7178316,3.1523104,2018-06-16
803,23 Basil Park,S,Wenchi,GH,,7608c5e5-c05f-4963-9a83-1d1859b24220,,-2.1008486,7.7419585,2019-03-22
804,7 Holmberg Hill,3XL,Mloko,ID,,436e42fe-1c18-4938-9cc1-3a8cb3fe5f6b,,110.1726465,-7.3608928,2020-02-07
805,767 Thackeray Center,L,Bamenda,CM,,136ea3bc-8836-4e35-82ad-5428d14f45ea,,10.1591213,5.9630513,2019-06-20
806,7 Nova Court,M,Xuebu,CN,,be2768b6-51d2-4ee3-85e5-9cd2524d4765,,119.382381,31.717564,2020-09-19
807,8 Sunbrook Plaza,XS,Jefferson City,US,65105,a1bd77cd-89ac-428b-b1b0-669b7c2050be,MO,-92.15,38.5,2019-02-11
808,82 Vahlen Court,S,Taganak,PH,4100,85886abe-4d70-4aec-b8ad-7644324e9f6c,,118.0689847,6.2317308,2018-05-21
809,9 Golf Course Place,S,Potulando,ID,,6d357f4d-d7d6-4dc8-aa3c-e003396e064f,,121.648987,-8.844744,2019-12-22
810,9 Surrey Terrace,S,El Paraiso,MX,40050,8fd0c417-e029-4f1c-b435-3c925da147f9,GRO,-87.4337425,20.2019487,2019-07-19
811,89202 Reindahl Avenue,XL,Krasnyy Kholm,RU,171679,9dd83b62-8d12-4726-93db-713349557e87,,37.1162575,58.0580802,2018-05-04
812,9642 Hanover Hill,2XL,Zhongling,CN,,ab694422-2840-4934-a479-dfa182742fb8,,116.483259,28.435584,2020-11-23
813,7899 Sachtjen Center,XL,Mexico,PH,2021,fc6eaf69-51d4-4d1c-9dfc-941303d55291,,121.0331004,14.4783119,2020-11-26
,,L,,AM,,a73c67cb-b565-41cc-809c-f63909317824,,43.8464971,40.7929026,2018-08-17
815,0955 Ronald Regan Center,2XL,Huangtu,CN,,b25b9393-c870-4bd4-937d-0a6d21835d6b,,113.459749,23.106401,2019-08-26
816,133 Pearson Trail,S,Cikulahan,ID,,b0fba5cb-b144-4368-a32f-e8be2f0a05b7,,108.0375,-7.1569,2018-10-14
817,58768 Cambridge Circle,2XL,Alburitel,PT,2490-005,f04f5e2e-daf8-4a2f-a9ef-64e3bb98a91d,14,-8.5226286,39.6445351,2019-03-01
818,6 Nevada Terrace,XL,Juwana,ID,,2cef6587-b672-43fb-bb1d-de5fff48fa31,,111.1533456,-6.7099134,2019-07-24
819,47725 Division Alley,3XL,Tukhlya,UA,,ae33750b-9643-4fea-ac43-8d551fbee2ca,,23.4793196,48.9234517,2020-06-13
820,907 Hanson Terrace,M,Xikou,CN,,d23b7e5c-3477-4e93-8934-e4c792de3dbb,,121.28259,29.689847,2020-09-04
821,640 Pleasure Crossing,2XL,Staryy Krym,UA,,16c1f558-d17d-41a5-9a53-3137409db9d0,,35.0863723,45.0274234,2018-05-26
822,140 Oak Park,2XL,Sandia,PE,,d2a9abf9-42ad-47c0-b1e8-9e5376fcce03,,-69.4678265,-14.3175114,2020-11-24
823,9651 Loftsgordon Point,XL,Kazan,RU,421991,96fc20ea-380c-4880-940f-4d758001f560,,30.3251493,59.9335031,2018-03-07
824,6133 Rigney Road,3XL,La Maná,EC,,16630802-efc4-4f3a-9cad-94f640760624,,-79.2316042,-0.9411949,2018-06-25
825,12 Sundown Pass,2XL,Cosmópolis,BR,13150-000,78ee9e46-c514-4c1b-8979-bb16e8eabd98,,-47.1947232,-22.6475546,2019-06-17
826,7 Crowley Center,S,Yeysk,RU,404172,02f8feb6-38e5-4956-9d10-624f8ff5fa7c,,38.2755861,46.711547,2018-09-15
827,93982 Mayer Circle,S,Suya,NG,,f4e590ae-9454-44b0-b602-34eeca54c01d,,3.179389,9.462591,2019-06-18
828,1474 3rd Pass,2XL,Miandrarivo,MG,,904cf7a4-792e-4064-a6de-a3a45d98ee02,,46.751492,-19.44276,2020-10-09
829,5450 Summerview Parkway,XL,Bouça,PT,4640-210,84091211-a914-4b6a-9527-8b5aa09933c9,13,-8.0638522,41.1588991,2020-09-21
830,16 Barnett Pass,2XL,Babug,PH,9213,162b08cb-ef45-47f9-9bc9-df6b833636f8,,120.8130073,14.8744012,2019-01-15
831,6140 Carberry Place,M,Pucacaca,PE,,e22e678a-931d-4a82-afa1-a180babfb5b9,,-76.3440537,-6.8506475,2018-02-05
832,1047 Stone Corner Junction,XS,Pule,ID,,0a4027e7-fdf4-4d20-a5be-5d27120318a0,,111.5349059,-8.135667,2020-05-23
833,27 Washington Terrace,3XL,Biscoitos,PT,9850-068,cb03b046-146d-4bdc-97d6-39800009671f,45,-28.0339781,38.6152027,2020-07-08
834,82079 Scott Terrace,XS,Katav-Ivanovsk,RU,456113,920b0f03-da63-48ae-9fb6-ac5cc317153f,,58.2897934,54.7674474,2020-07-24
835,3406 Di Loreto Park,XS,Lubumbashi,CD,,1fe28585-7e3a-449f-8319-d81bbc0fb55e,,27.5026174,-11.6876026,2018-03-16
836,6001 Grasskamp Court,M,Tuanfeng,CN,,54b3ca5b-d428-4d52-9847-1749c95ed036,,114.872191,30.643569,2018-06-19
837,2 Nelson Drive,S,Talisay,PH,4602,8947c7c1-49ba-45d9-82c2-d576dafabd61,,121.0130439,14.5618599,2020-03-20
838,77 Jenifer Park,M,Biharamulo,TZ,,ffc2faaf-a5e4-4d30-b75a-16e2c0ad3909,,31.3141291,-2.6343036,2019-11-12
839,90739 Homewood Place,2XL,Sayaxché,GT,12008,ca2e7077-27ea-4212-92ee-b9eba4e50e4c,,-90.1894032,16.5303424,2019-12-03
840,3 Glendale Court,L,Ganchazi,CN,,ac7804d9-f56a-4b07-8384-b95e2125fc01,,127.181168,43.24417,2020-08-01
841,9522 Banding Place,3XL,Linjiang,CN,,5d584667-d106-421e-a805-907aa1c0b391,,126.918087,41.811979,2020-09-14
842,4472 Ryan Court,3XL,Guangshun,CN,,07b3ddbf-18ed-4caa-8ddc-38a37aad89e5,,113.290997,23.081924,2019-07-08
843,912 Riverside Alley,2XL,Watulimo,ID,,581c586c-88f7-4639-891a-a4ff03c10be4,,111.7018452,-8.2702492,2020-10-04
844,65 Drewry Way,3XL,La Jutosa,HN,,70a70ac9-952d-47d5-b4c3-8b71fd37240c,,-87.997164,15.6497514,2020-12-31
845,36 Macpherson Way,XL,Hengshan,CN,,8d18ab50-8049-4ff2-be3f-b4898587c81b,,113.732809,39.672791,2020-01-11
846,35 Mitchell Court,S,Lanlongkou,CN,,b52049ac-f8f8-4cbe-9e7d-ce8b8dac1419,,101.48989,36.769677,2018-08-25
847,87669 Loftsgordon Crossing,2XL,Ḑawrān ad Daydah,YE,,d382e1b4-6203-4c42-87f0-24fccb09b7ff,,44.20664,14.73927,2018-07-22
848,0 Bowman Plaza,M,Blučina,CZ,664 56,8e234fa7-223c-4c8a-8f31-eff66f3f9215,,16.6445006,49.0549661,2018-05-23
849,7 Evergreen Street,XL,Iza,UA,,e98197ad-7dbd-4f8c-8e26-91971866ef29,,23.3302946,48.2162668,2018-11-15
850,62793 Hansons Avenue,XS,Benito Juarez,MX,31540,cda2c967-8d61-4d58-8d0e-828006c5a0c2,COL,-106.8458626,28.42456,2020-11-18
851,9 Swallow Terrace,XL,Leskovec pri Krškem,SI,8273,adc1b92f-fd95-4c9e-bf7a-c8e30733aeed,,15.4773182,45.9402271,2020-11-11
852,4569 Schlimgen Pass,3XL,Aldeia de Juzo,PT,2750-015,643f2d4c-4d30-48a4-a1e2-7e6325272108,11,-9.4472984,38.7255705,2019-01-27
853,0 Spohn Trail,M,Ludvika,SE,771 24,468344e1-7c66-49ce-b4a8-55f2a0c0da87,W,14.3822323,60.1387829,2018-02-08
854,60617 Monica Road,3XL,Viljoenskroon,ZA,9521,d533ea00-3a6b-44c5-8011-6a4baae21cf4,,26.9528629,-27.1886944,2020-10-15
855,731 Randy Circle,XL,Yeghegnut,AM,,53e5b082-2b52-4f77-9600-21d923a7f644,,45.3575191,39.8726158,2019-11-01
856,5 Hayes Lane,XL,Akkol’,KZ,,13f05750-8c29-4016-8ea2-d7868156c4d9,,70.9359277,51.9956496,2020-07-28
857,27 Bayside Crossing,M,Mashan,CN,,045ef743-ab0e-41b3-97be-925a6ecd9dae,,130.478187,45.212088,2019-09-27
858,08 Park Meadow Alley,L,Quince Mil,PE,,0ce3b89b-0146-44cb-9d72-98a85789d4eb,,-70.7549896,-13.231069,2018-10-09
859,22252 Eagan Crossing,3XL,Santarém,BR,58928-000,ca8a71a2-da03-4370-82e1-385e3cca1b71,,-38.4795129,-6.4835644,2020-01-28
,,XS,,RU,,fef21c3c-cb8d-4ad4-b48e-a73779502f4a,,41.4352936,44.5140354,2018-11-07
861,79029 Autumn Leaf Circle,M,Sanxi,CN,,4ba14959-586b-4418-84a8-4773c3f73a5c,,111.8568586,37.2425649,2019-07-09
862,8 Basil Road,XS,Youdunjie,CN,,171dd6eb-8b07-4492-8550-b95be120b6d2,,116.64395,29.367424,2020-11-24
863,36574 Continental Trail,3XL,Cireundang,ID,,93f9b1ec-8981-448a-ad6f-afbf14ba3a9c,,108.4795361,-6.9520475,2020-06-10
864,6 Buhler Plaza,XS,Kalān Deh,AF,,c0391306-caa8-4de9-9d6f-21e24bc3ab31,,67.778633,33.1184269,2020-02-07
865,962 Evergreen Road,XS,Imatra,FI,55910,f691b01c-c8fc-4c29-8120-31ea11eb5570,,28.9205449,61.2429355,2018-10-30
866,5 Shelley Place,XS,Tigbao,PH,7043,b6daa926-e5d6-415b-b326-6492bc5bd69f,,123.3412743,7.8042011,2020-05-13
867,41 Bartelt Parkway,2XL,Svitlovods’k,UA,,2859d693-517f-4753-be32-ddf0e7fd0a8c,,33.2284693,49.0496835,2020-10-16
868,6143 Forest Dale Circle,L,Al Fashn,EG,,d612037a-79a1-4b4a-a3bf-f8a05a4ae6e0,,30.8991338,28.8228403,2020-10-29
869,17919 Hudson Trail,3XL,Lugovoy,KZ,,615b188d-dc16-485e-8c84-20952d87edf1,,72.7617572,42.9438711,2018-05-19
870,5 Sloan Crossing,XL,Pruzhany,BY,,b7b6c93c-9cab-4261-ae6d-f25c7416ee0a,,24.4554644,52.5557638,2018-07-19
871,10447 Oneill Parkway,XS,Karlskrona,SE,371 47,7c5e78f6-2bf0-48c5-995a-04a69fd9c950,K,15.6309078,56.1993557,2020-04-25
872,39 Summer Ridge Crossing,XS,Santa Lucía,HN,,4c2c7f80-8e1b-49cc-bdec-06a81488b9fb,,-87.1098612,14.1148241,2019-02-26
873,97 Nevada Point,M,Leubatang,ID,,c0926d47-26b0-432c-ace5-1522e708b518,,123.7238308,-8.3124202,2019-04-12
874,89 Goodland Terrace,2XL,Clermont-Ferrand,FR,63964 CEDEX 9,41f2a0f7-5568-490d-bb58-1970d90c2454,98,3.103119,45.0386871,2019-04-15
875,52551 Northfield Avenue,S,Anilao,PH,5009,afd868cf-21b1-4b9b-b07a-9b52105fd4b1,,122.740723,11.0002604,2018-02-06
876,6069 Tony Pass,M,Fengxi,CN,,557db8d6-0ebe-4199-aab0-123059136216,,121.474042,30.917795,2018-04-07
877,78745 Hauk Place,M,Izborsk,RU,181518,253d5086-105c-460f-a9ab-be7ebd62311a,,27.8608831,57.708244,2020-08-02
878,945 Jackson Way,XL,Jerez,GT,22010,b4d662a9-2c05-49d2-b5fe-8bf3b5f34147,,-102.9937166,22.6611943,2019-01-22
879,14168 International Circle,XS,Matadi,CD,,1df2a192-7fb3-4213-bf3c-edd537e4b621,,13.4627375,-5.8508719,2019-01-24
880,6 Spohn Point,XL,Bemposta,PT,4980-403,232ad355-4328-47b5-8aa1-137a7de6e4ac,16,-8.4685789,41.7973754,2018-10-19
881,673 Haas Pass,2XL,Omoa,HN,,5e4a0abf-221b-4251-bf2d-f5fabc02065d,,-88.0265257,15.7790394,2020-05-01
882,45842 Holy Cross Center,S,Cieurih Satu,ID,,70ee071d-4967-4b73-ad2a-2755021980b3,,108.6699011,-6.9667234,2020-08-02
883,7 Graedel Way,M,Bobon,PH,6401,5829abf7-17f3-43d7-89cb-ce2ce5990a83,,124.5372661,12.5200531,2018-03-06
884,6 Northport Circle,L,Hüremt,MN,,739a6a4a-241f-4013-b4e1-cfbdc02bc52f,,102.625198,48.659828,2020-05-04
885,35982 Melody Drive,S,Ban Thaen,TH,36190,fb31699b-23ce-4298-adda-1e81cf3d8d57,,102.3692982,16.3793702,2018-12-16
886,311 Briar Crest Lane,2XL,Kitakyūshū,JP,822-0003,a1b5c8a5-f379-43e0-ac55-b94d4bcf0c7b,,130.7620202,33.8580586,2020-10-25
887,6514 Milwaukee Court,XS,Matozinhos,BR,35720-000,c1281a75-24a1-43f6-8572-3f8eafd91444,,-44.0871994,-19.5547969,2020-09-04
888,69369 Redwing Circle,2XL,Ḩurayḑah,YE,,0b4667e0-d611-4ccd-b12f-17451aba0a2e,,48.18278,15.59861,2018-05-01
889,009 Logan Plaza,2XL,Jhang Sadr,PK,52051,7f120fbe-1706-412a-b3dc-a93a3908d8eb,,72.3110986,31.2633956,2018-06-29
890,3728 International Alley,3XL,Cibiru,ID,,e20c49a4-bc05-4953-ba50-9c093bf363b5,,107.7192104,-6.9163257,2019-12-31
891,7 David Pass,XL,Tapayan,PH,1711,f8b0d970-7b97-405d-9ec9-d811e0ce64f5,,121.112687,14.5347758,2020-05-09
892,4 Ohio Way,S,Ribnica na Pohorju,SI,2364,7ac6043c-6236-433d-a88a-a5e3114b65c8,,15.2675136,46.5356403,2020-09-24
893,82029 Arizona Court,2XL,Shetan,CN,,f05ef18f-5925-4719-95e7-ff9fd426a7b2,,107.621139,29.98784,2020-02-27
894,74885 Clemons Drive,M,Moroto,UG,,b1989bf6-dd48-435b-be64-9110e1fa93cb,,34.6579985,2.5282234,2020-11-07
895,584 Luster Hill,3XL,Haarlem,NL,2004,f62dfa26-3abb-4b48-85ab-b934d20bc8b2,7,4.6195236,52.3626877,2019-06-24
896,2973 8th Park,XS,Buchanan,LR,,6937ec8d-e046-4157-84da-7d835aa7dc97,,-10.0303723,5.887247,2018-06-09
897,46 Summer Ridge Place,S,Cangkuang,ID,,fa50abd2-7595-4c43-9dd5-a2c274d8d890,,107.9146687,-7.1044542,2020-06-13
898,5806 Anniversary Alley,3XL,Buchanan,LR,,7efe6f7a-7f66-4310-b8d1-60e9c8458a0d,,-10.0303723,5.887247,2020-08-23
899,33200 David Court,2XL,Renko,FI,14300,25dab176-5aab-4c6c-9c7b-b437d0b944f5,,24.2869324,60.8936893,2020-10-13
900,08837 Sommers Pass,XS,Tatou,CN,,d900d023-23ef-4129-bb56-3f939d2a24d2,,118.534074,24.607906,2019-10-13
901,4 Bellgrove Park,L,Maulawin,PH,5105,2fbd15a7-5efa-4182-a1df-f037a08d6a95,,121.4106742,14.2813218,2020-08-21
902,2461 Huxley Junction,S,Santiago del Estero,AR,4200,b0a29559-b086-49aa-ab1f-bbfda26da983,,-65.2546997,-26.8135107,2020-03-17
903,840 Park Meadow Terrace,M,Vikhorevka,RU,665770,82b5a9ca-740a-4039-bd2e-3b4dca1c230d,,101.186866,56.114128,2019-10-07
904,1 Judy Road,L,Kende,NG,,2198c540-eb9c-4a28-b69e-474ea87d818c,,4.2653854,11.5263357,2020-08-09
905,83992 Debra Park,XS,Shache,CN,,952ba053-4f11-4719-bfed-060c0690b54d,,77.245761,38.414217,2020-04-13
906,1979 Acker Road,M,Mahaba,PH,6215,92ffe0ff-9863-4aae-8e05-9b91419cc896,,121.7248195,12.9447713,2019-07-10
907,89733 Thierer Hill,L,Caijiazha,CN,,b0aada4c-060a-49c9-ba9f-6690830a5bb0,,114.827038,30.910965,2020-01-01
908,813 Namekagon Point,M,Inawashiro,JP,969-3288,4929e8af-0958-42dd-a016-2fec3f3885fe,,140.0611908,37.5743169,2020-06-12
909,72222 Corscot Place,L,Lisiy Nos,RU,197755,c4bfeca6-a618-499b-a194-de46cb3693a9,,30.0046156,60.0128251,2020-06-21
910,52 Anhalt Junction,S,Shiban,CN,,17059320-eb94-49c5-b5d2-35e0104b5ebe,,105.908525,27.114252,2020-09-07
911,1 Lillian Hill,3XL,Nanjie,CN,,94e27f7b-25d7-423a-a590-0d39efeb9a5e,,116.456946,39.932164,2020-05-22
912,63 Loomis Circle,2XL,Nantes,FR,44265 CEDEX 2,f6d97fae-e6cc-45d7-bd6b-b1d1aa337f77,B5,-1.5401497,47.2550409,2018-10-10
913,6425 Jackson Street,XL,Hai Riêng,VN,,74a5c283-58ef-4a8d-9de0-c275d002f3c5,,108.8848569,12.9881784,2021-01-01
914,3599 New Castle Circle,L,Pervomayskoye,RU,659607,0ed5d1c9-97b6-42e0-87ae-f36f16c8b48b,,83.777896,53.340959,2020-03-30
915,548 Crownhardt Pass,3XL,Danderyd,SE,182 57,ad7a9451-528e-4905-a125-10a0935301be,AB,18.0310718,59.3927955,2018-02-03
916,580 Anhalt Circle,XS,Ciseda,ID,,665728af-dfb2-44f5-ae8d-fc68b2473a1d,,107.9276672,-6.7796462,2018-08-30
917,6 Tomscot Road,L,Ujmisht,AL,,25bff2f6-0bf1-459b-9988-20965f6fda71,,20.3755648,41.9238499,2018-01-19
918,85 Gina Hill,M,Pęczniew,PL,99-235,8b40bc9a-8c62-414c-a787-f42d565306f0,,18.7885677,51.811764,2018-10-31
919,447 Summer Ridge Park,M,Louta,CN,,8fb193c5-902b-42ce-a691-387087cb02c0,,120.142352,29.912769,2019-05-05
920,24 Artisan Parkway,XL,Longxian Chengguanzhen,CN,,6d30fcdf-e595-40c8-adfb-a95d2f1bcb50,,106.836465,34.894093,2019-05-11
921,3093 Briar Crest Way,XL,Nikopol,BG,5964,96b106ff-eaaa-4e19-9258-29b701fb87d1,,24.850714,43.654415,2019-04-04
922,01 Blue Bill Park Park,L,Ban Muang,TH,47140,7f65c28e-e9ea-4bea-a11f-707ac10fdc8d,,103.4974258,17.9053046,2018-06-18
923,3915 Erie Avenue,XS,Sanxiang,CN,,29e8f4da-59d0-415b-8e09-e312cd19a829,,113.440958,22.358169,2020-10-08
924,276 Roxbury Court,3XL,Zhifang,CN,,bd81d51e-b5f4-4a3d-9110-4fe4c4a7d5c3,,116.317369,35.2901,2019-12-06
925,522 Clemons Plaza,XS,Cihideung Satu,ID,,3feeb223-4818-4c40-9fad-9bdbb62da4ae,,106.3483779,-6.9028171,2018-10-15
926,6216 Grayhawk Circle,3XL,Guijalo,PH,7113,51a9da45-6ee7-469f-848f-c8a71d0d7612,,123.8623691,13.7527691,2018-07-22
927,16097 Petterle Parkway,3XL,Sridadi,ID,,bfd677ee-5f5c-4955-aa51-755d2ede3d55,,104.5247463,-4.232717,2020-12-25
928,74437 Hollow Ridge Place,L,Changle,CN,,b66421e1-2fed-4652-9521-f3707c89800c,,119.523266,25.962888,2019-07-31
929,9918 Eastlawn Place,S,Maoqitun,CN,,b242825b-8643-4917-869b-d278052215bf,,127.082675,44.760391,2019-09-20
930,73 Ilene Court,L,Sundsvall,SE,851 78,63a7ba5c-a825-46dd-9c09-339f3236a853,Y,17.2842162,62.3946271,2020-01-28
931,6161 Fair Oaks Crossing,3XL,Damietta,EG,,1a436d00-9040-4996-9216-54a9acf46ce8,,31.8144434,31.4175388,2018-01-06
932,44155 Corscot Crossing,XS,Uwa,ID,,d7cf1549-0c30-4e29-8eeb-baa455231a3d,,107.5902556,-6.8637417,2018-08-12
933,835 Nevada Hill,XL,Timoulilt,MA,,b49e9a7f-8303-401f-bda9-2701861f1c4c,,-6.4649964,32.2066153,2019-04-15
934,829 Northview Terrace,3XL,Anak,KP,,807a6ce5-064b-4c6d-8601-4f12fbed634f,,125.4946236,38.504559,2018-09-15
935,04 Heath Pass,M,Sambopinggir,ID,,8f90094f-78a6-4fa3-bf20-4b86b5cf83c6,,112.4798088,-7.0215218,2018-08-31
936,1 Texas Court,XS,Xiying,CN,,e36430fe-814d-4fe0-8075-02757c2ada70,,119.823308,31.340637,2018-04-03
937,4897 Twin Pines Court,S,Ballyboden,IE,D6W,3617900d-736d-40c9-a00d-c33e907eb4a0,,-6.3049392,53.3021194,2020-02-14
938,01 Declaration Crossing,S,Selat,ID,,0fb8a00e-6688-4915-8c88-c5a950240780,,103.449501,-1.550129,2020-01-10
939,683 Elka Crossing,XS,Néa Plágia,GR,,28ca98ad-a916-4e02-9a5c-5b184f119178,,23.2039759,40.2655961,2018-12-11
940,21 Hagan Place,M,Zeqin,CN,,6640d2b9-86de-438d-b92a-f8136905c8c7,,116.023145,25.84122,2018-05-13
941,118 Bashford Center,3XL,Zürich,CH,8012,caa912c2-827a-4319-bbe1-14c2a54882c0,ZH,8.5113801,47.3774041,2019-11-26
942,1 Forest Alley,3XL,Coruripe,BR,57230-000,65b7408e-0020-43f9-ab7c-67ad4a95d27e,,-36.2196853,-10.0519585,2019-08-25
943,48 Nancy Junction,XS,Sorol,FM,,c9f384a1-1900-4026-9e7e-1872fddd54ec,,140.4108333,8.1333333,2019-10-30
944,43 Division Pass,3XL,Vélizy-Villacoublay,FR,78942 CEDEX,d1b09086-6736-4644-aad9-51059425a081,A8,2.2161608,48.7724625,2020-09-21
945,03 Burrows Plaza,S,Erandique,HN,,4bce07ab-652c-490a-a9d7-e7d64b4feab3,,-88.4670322,14.2376109,2018-05-30
946,5300 Mallard Park,3XL,Dordrecht,ZA,5436,8629c0ab-47d9-4044-885a-2f3efef8c607,,27.03523,-31.3699,2020-01-29
947,17 Derek Terrace,S,Melbourne,AU,8383,0dc1f930-a357-43dd-a819-4729ce287487,VIC,144.9630576,-37.8136276,2019-05-25
948,295 Colorado Hill,3XL,Fengcun,CN,,fc4859f4-b5bd-41da-b5a7-ecbb24013852,,113.2446381,23.0886013,2019-04-08
949,82 Tennyson Terrace,2XL,Shengli,CN,,577bba80-17d7-45b3-abda-41520badb40c,,120.1561748,30.2979687,2019-10-05
950,79626 Corry Place,2XL,Chimanimani,ZW,,4d774f11-a71a-40e6-b8e0-fdb1158753c0,,32.866667,-19.8,2020-12-04
951,25 Chive Court,2XL,Stapleford,GB,LN6,58731723-9a64-49af-8e64-7fe83ffda63f,ENG,-0.687802,53.10672,2020-09-22
,,2XL,,CN,,098b8210-4227-4f7f-b6a9-b65a5a5cb08d,,112.469023,34.683646,2018-08-21
953,8 Alpine Crossing,S,Guanlu,CN,,009739da-f4ec-4cdb-b38c-5ab7deab7061,,114.055261,22.719257,2020-04-25
954,00977 Kennedy Center,2XL,Huskvarna,SE,561 85,86bc5d12-183e-409d-a644-1d11987034cb,F,14.2483538,57.7911244,2019-02-06
955,8 Shelley Junction,XS,Corral,CL,,28ec5827-9d7a-4660-bcab-feb43906a011,,-73.4315987,-39.8885744,2018-02-25
956,2325 Lighthouse Bay Junction,2XL,Dushanbe,TJ,,225756eb-5e87-408e-8921-5f0d8b2e83c7,,68.7870384,38.5597722,2019-10-21
957,688 Ilene Drive,XL,Yantian,CN,,955a7310-64d2-4af5-abcc-415dbe5f0df6,,114.236875,22.556499,2018-09-19
,,2XL,,AF,,5ca044dd-cea3-46c6-8925-7a590d728693,,64.4082082,31.6095648,2018-11-15
959,37626 Schurz Pass,3XL,Paoay,PH,2902,50234f79-8ee8-4358-91ce-1fb79b80286a,,120.5168009,18.1405298,2020-12-20
960,36 Esker Pass,XS,Tirah,IL,,303c1b5c-dcc7-43cb-b694-49a4a8e81932,,34.950506,32.235466,2020-01-31
961,2 Dapin Street,3XL,Seara,PT,4845-028,a9a08aeb-a252-4cd0-a6b9-38f2891bf8b0,3,-8.2060587,41.6929759,2018-09-19
962,15593 Everett Street,2XL,Oropós,GR,,a258f70e-8009-4297-bf32-c0bce1727186,,23.7548814,38.3032384,2019-09-21
963,14125 Knutson Place,2XL,Mugala,CN,,4c9e0078-b558-4f06-9687-bfccffb98675,,81.660646,36.85608,2020-05-17
964,22996 Summit Pass,3XL,Na Muen,TH,55180,6c16d484-677b-496d-8d7b-7ddeedaf6e12,,100.5746224,18.1821215,2020-04-25
965,780 Grasskamp Center,L,Stanisław Dolny,PL,34-143,20338d32-ca03-4e0f-a5a0-512e0f7d3342,,19.665565,49.896113,2020-11-30
966,4 Gale Place,L,Sijunjung,ID,,f659285c-b814-4bf8-8bc9-a44e2f89a3cd,,101.0711758,-0.6647007,2020-11-22
967,5289 Shasta Hill,2XL,Malhou,PT,2380-506,56d8f557-9b43-4ebe-a246-ec42f279d7b3,14,-8.6985716,39.4242713,2020-11-29
968,15747 Roth Circle,XL,Göteborg,SE,401 24,3a6d2ee5-c22b-430d-8680-4b43a7805542,O,11.9727803,57.7069317,2020-02-12
969,6 Bartillon Junction,2XL,Xarrë,AL,,a2c82c1c-05b5-4e40-b9bc-69d09e20d172,,20.0598549,39.7271767,2019-12-02
970,8 Maple Court,2XL,Catalão,BR,75700-000,03bc213a-d3a6-45d2-a268-451987467d3d,,-47.944531,-18.1661375,2020-03-03
971,47 Fair Oaks Plaza,M,Sloboda,RU,397743,c920cbfe-f1f0-4921-9080-753edd10b396,,40.2997102,51.1434519,2020-07-29
972,53 Independence Crossing,3XL,Jönköping,SE,551 21,f97b4428-d5a1-4fb0-a083-4638f38f8af9,F,14.3117654,57.7123057,2020-04-12
973,133 Caliangt Place,S,Żabieniec,PL,05-509,eb8352e2-49f3-444b-b453-48b8ef128ea2,,20.3964722,53.1106929,2018-02-09
,,M,,CN,,44333c78-de99-48ff-b394-040c750967a6,,123.236944,41.267244,2018-02-16
975,8434 Corben Plaza,L,Maracanaú,BR,61900-000,b270ccc2-3c71-47e8-9930-90c9e88efc97,,-38.602824,-3.870003,2020-07-14
976,8 Talisman Hill,L,Severo-Yeniseyskiy,RU,192289,1b4aac99-e354-42dc-a50e-5a19fb5bc62f,,93.0249306,60.3767999,2018-07-18
977,8 Meadow Vale Avenue,M,Jacarezinho,BR,86400-000,3e914f05-d56d-4f31-8536-22effe872ea0,,-49.9783088,-23.1734868,2019-03-11
978,6 Shasta Road,S,Bu‘eina,IL,,789b92e9-bda4-4b49-9af9-6d7e3678766d,,35.271917,32.929538,2020-11-03
979,560 Dexter Circle,2XL,Cartagena,CO,130027,34e2e348-ae90-43d7-a00e-10e4ccc36085,,-74.9438915,10.9819737,2018-08-17
980,8221 Ryan Parkway,2XL,Arosbaya,ID,,b42f6f4d-10a1-4e7a-8e4b-3bd999509dcc,,112.8463007,-6.9704332,2018-06-09
981,55 Bellgrove Alley,XS,Duba,SA,,7a6a0220-631e-41b0-a47a-15b01c1f806e,,35.7243073,27.3457474,2019-03-16
982,01716 Columbus Alley,S,Rizó,GR,,f30aa08e-ea9c-4f35-b218-5c1ca80b6db4,,22.1375317,40.7338864,2019-11-15
983,9 Erie Pass,M,Novoaleksandrovsk,RU,356003,7ac9757c-4244-497d-8e91-c82fc088c7e5,,41.1600688,45.4885295,2018-05-27
984,5813 Mayfield Street,M,Berendeyevo,RU,152000,478a49c7-8529-4d23-bec2-f05bb2d809ef,,39.3104788,43.9480111,2019-07-01
985,83 Bultman Place,M,Dailekh,NP,,039ace7e-e118-4476-9ee9-8da284de4260,,81.647344,28.9261863,2018-07-07
986,03 Derek Hill,M,Mingshan,CN,,23477d7b-e32a-41a6-8c99-6a11de2a76cd,,103.109184,30.069954,2019-05-28
987,7787 Sloan Crossing,M,Ocote Paulino,HN,,0a0c4107-7cee-412b-a9ca-77593f190f76,,-87.6,15.41667,2020-04-22
988,7 Hoepker Alley,M,Frederiksberg,DK,1865,0d125bbd-36d7-479d-a2cf-2bd7264f8d5d,1084,12.5383906,55.6789638,2018-03-31
989,3639 Doe Crossing Junction,M,Suren,ID,,372d50f2-c58b-4590-8c77-935b6ef5b757,,109.8975853,-7.7533886,2019-08-26
990,75 Spenser Point,M,Mlimba,TZ,,a4969c65-fdb3-4d32-9d44-853b06fe3ce6,,35.8089055,-8.7824511,2018-04-03
991,72 Lyons Junction,M,Konibodom,TJ,,827c0cbe-f1f7-4a79-9863-bbc69c035fd0,,70.419388,40.2982408,2020-05-27
992,55761 Barby Trail,M,Iset’,RU,624082,c44cd9c4-d0c8-4a1a-a910-62b96220b474,,60.3645218,56.975553,2020-07-24
993,59168 Debra Terrace,M,Santa Bárbara d'Oeste,BR,13450-000,7247c0bd-b5ee-4b80-ad34-ac41f49c83cd,,-47.4147585,-22.7557422,2019-05-24
994,56 Mcguire Park,M,Cisadap,ID,,078a17fc-501b-434f-a450-5fd55ef63e49,,108.3059677,-7.3052247,2018-02-09
995,1617 Quincy Court,M,Soito,PT,3460-710,8fe23417-9ecd-4494-bc3a-8d01463721aa,18,-8.1110545,40.4690667,2018-04-12
996,0 Spohn Park,M,Hässleholm,SE,281 43,66e7bbd7-b35a-4f8b-98b7-68f61e0ef863,M,13.8037716,56.1629286,2019-07-24
997,0 Lakeland Avenue,M,Bianba,CN,,bdca33eb-ab24-40c0-b556-4d51cfe52697,,94.7078,30.933652,2019-09-09
998,85 Cherokee Avenue,M,Zhangbang,CN,,891d894d-26dd-4e87-94ea-e52c0d1ecbb9,,121.121123,31.145454,2019-11-21
999,6745 Bluestem Way,M,Mozio,CN,,7c66a668-99d9-4a83-ab6a-f5c0a6e187dc,,105.037225,34.289806,2020-10-03
1000,96346 northwestern plaza,M,Bayuwan,ID,,126771d5-01b2-4f3c-a58f-9a990fbc68ae,,114.3691416,-8.2190944,2020-04-03
1001,7787 slloan Crossing,S,Ocote Paulino,HN,,0a0c4107-7cee-412b-a9ca-77593f190f76,,-87.6,15.41667,2018-01-17
1002,7 Hoeopker Alley,S,Frederiksberg,DK,1865,0d125bbd-36d7-479d-a2cf-2bd7264f8d5d,1084,12.5383906,55.6789638,2020-02-06
1003,3639 Doe  Crossing junction,S,Sureni,ID,,372d50f2-c58b-4590-8c77-935b6ef5b757,,109.8975853,-7.7533886,2019-01-04
1004,75 spenser point place,S,Mlimba,TZ,,a4969c65-fdb3-4d32-9d44-853b06fe3ce6,,35.8089055,-8.7824511,2019-03-09
1005,72 Lyoons Junction,S,Konibodom,TJ,,827c0cbe-f1f7-4a79-9863-bbc69c035fd0,,70.419388,40.2982408,2018-05-23
1006,55761 Barby Traile,S,Iset’,RU,624082,c44cd9c4-d0c8-4a1a-a910-62b96220b474,,60.3645218,56.975553,2020-11-01
1007,59168 Deb Terrace,S,Santa Bárbara d'Oeste,BR,13450-000,7247c0bd-b5ee-4b80-ad34-ac41f49c83cd,,-47.4147585,-22.7557422,2020-09-26
1008,56 McGuire Pk,S,Cisadap,ID,,078a17fc-501b-434f-a450-5fd55ef63e49,,108.3059677,-7.3052247,2018-12-06
1009,1617 Le quincy Court,S,Soito,PT,3460-710,8fe23417-9ecd-4494-bc3a-8d01463721aa,18,-8.1110545,40.4690667,2019-09-25
1010,0 Spohn Park,S,Hässleholm,SE,281 43,66e7bbd7-b35a-4f8b-98b7-68f61e0ef863,M,13.8037716,56.1629286,2018-01-11
1011,0 Lakeland St,S,Bianba,CN,,bdca33eb-ab24-40c0-b556-4d51cfe52697,,94.7078,30.933652,2018-09-04
1012,85 Cherokee,S,Zhangbhang,CN,,891d894d-26dd-4e87-94ea-e52c0d1ecbb9,,121.121123,31.145454,2018-03-11
1013,6745 Bluestemm Way,S,Mozi,CN,,7c66a668-99d9-4a83-ab6a-f5c0a6e187dc,,105.037225,34.289806,2018-04-26
1014,96346 Northwestern ,S,Bayuwan,ID,,126771d5-01b2-4f3c-a58f-9a990fbc68ae,,114.3691416,-8.2190944,2021-01-01