id,locationId,source,sourceKey,sourceId,address,city,state,zip,country,longitude,latitude,created,updated
1,1,NYSE,Manat,#deb7a7,19 Waubesa Crossing,Bakƒ±xanov,,,Azerbaijan,49.950331,40.4249808,12/7/20,2/6/21
2,2,NASDAQ,Yuan Renminbi,#66da3f,5760 Mariners Cove Center,Tehetu,,,China,99.135994,33.892837,12/12/20,10/9/20
3,3,NYSE,Euro,#b186a7,6 Petterle Trail,Gargali√°noi,,,Greece,21.6379278,37.0654883,2/18/21,7/25/21
4,4,NYSE,Krona,#004b9d,44 Warbler Plaza,Sval√∂v,M,268 32,Sweden,13.0879461,55.9128355,7/29/21,10/12/20
5,5,NYSE,Rial,#e662b5,47 Pine View Circle,Ar Rass,,,Saudi Arabia,43.5222313,25.8517475,6/29/21,9/4/20
6,6,NASDAQ,Denar,#a47d50,7846 Michigan Plaza,Oslomej,,6254,Macedonia,21.0005869,41.5817519,4/7/21,1/21/21
7,7,NYSE,Yuan Renminbi,#facba5,481 Meadow Valley Street,Gutian,,,China,118.746284,26.577837,10/6/20,2/6/21
8,8,NASDAQ,Quetzal,#8371a8,26 Tony Alley,Chisec,,18006,Guatemala,-90.290544,15.809627,3/29/21,6/6/21
9,9,NYSE,Euro,#2bb9ca,93311 Bluestem Point,Le Tampon,RE,97838 CEDEX,Reunion,55.5229203,-21.2814327,12/14/20,11/18/20
10,10,NYSE,Ruble,#c928a1,23949 Jenna Parkway,Zhatay,,182514,Russia,129.8236089,62.155883,1/13/21,1/20/21
11,11,NYSE,Rupee,#756d53,10 Thompson Court,GujrƒÅt,,41201,Pakistan,74.0420093,32.5734842,11/19/20,11/24/20
12,12,NASDAQ,Rand,#7605c1,954 Forest Center,Port Saint John‚Äôs,,6625,South Africa,29.5358464,-31.6434099,4/30/21,11/10/20
13,13,NYSE,Real,#3fa4d9,4550 Sunfield Alley,Santa Cruz do Capibaribe,,55190-000,Brazil,-36.2064182,-7.9484331,6/13/21,10/18/20
14,14,NYSE,Krona,#5af22e,727 Oakridge Point,H√§ssleholm,M,281 43,Sweden,13.8037716,56.1629286,12/25/20,8/7/21
15,15,NASDAQ,Rupiah,#7e1eae,54 Esch Lane,Lembursawah,,,Indonesia,106.8370122,-6.9014042,6/18/21,2/12/21
16,16,NYSE,Rupiah,#39c832,2795 Havey Junction,Genyem,,,Indonesia,140.470795,-2.631564,9/16/20,1/26/21
17,17,NASDAQ,Peso,#542e79,72 Homewood Junction,Cerro Colorado,,,Uruguay,-55.5441311,-33.8603461,9/27/20,10/4/20
18,18,NASDAQ,Rupiah,#cb13fe,437 Schurz Circle,Essang,,,Indonesia,126.7496264,4.4529473,7/30/21,11/16/20
19,19,NASDAQ,Ruble,#c5e48b,9664 Elka Center,Okulovka,,174350,Russia,33.3074607,58.3495477,10/16/20,3/20/21
20,20,NASDAQ,Real,#ee9bd3,250 Sherman Street,Mineiros,,75830-000,Brazil,-52.5489206,-17.5624415,12/12/20,7/25/21
21,21,NYSE,Euro,#3a7164,1403 Porter Road,Estombar,8,8400-017,Portugal,-8.4833256,37.1464563,1/6/21,10/11/20
22,22,NASDAQ,Rial,#5f0ebe,15288 Anzinger Drive,Az Zulfi,,,Saudi Arabia,44.831834,26.3098543,6/17/21,10/28/20
23,23,NASDAQ,Real,#c322a4,85 Sunnyside Park,Artur Nogueira,,13160-000,Brazil,-47.1731269,-22.573223,10/6/20,7/11/21
24,24,NYSE,Ruble,#37c072,15125 Ridge Oak Point,Lesnoy,,623851,Russia,44.4160763,46.0675028,8/26/20,5/8/21
25,25,NYSE,Yuan Renminbi,#914750,430 Sugar Terrace,Tengqiao,,,China,120.6784858,27.9937685,6/18/21,1/15/21
26,26,NASDAQ,Euro,#d50733,69 Butternut Terrace,Avallon,A1,89204 CEDEX,France,3.91302,47.49116,8/28/20,8/6/21
27,27,NYSE,Yuan Renminbi,#e8a812,1908 Portage Circle,Shixiang,,,China,120.1534039,30.3312397,11/1/20,10/14/20
28,28,NYSE,Franc,#91e07c,3600 Saint Paul Circle,Aplahou√©,,,Benin,1.6736397,6.9421349,10/3/20,5/2/21
29,29,NYSE,Yuan Renminbi,#aa2911,6555 Lunder Park,Zhangping,,,China,117.419998,25.290184,3/27/21,8/9/21
30,30,NASDAQ,Sol,#881c36,5030 Union Park,Llacanora,,,Peru,-78.426165,-7.193833,9/13/20,7/18/21
31,31,NYSE,Peso,#7541a2,0 Prairie Rose Junction,Villa Bustos,,5164,Argentina,-64.460387,-31.2657738,5/24/21,9/11/20
32,32,NYSE,Krona,#65aa9b,8 Mifflin Street,Vogar,,190,Iceland,-22.379,63.9825,3/9/21,10/10/20
33,33,NASDAQ,Dollar,#a71552,00648 Oak Trail,TƒÅfuna,,96799,American Samoa,-170.7269854,-14.331296,10/18/20,2/7/21
34,34,NASDAQ,Pound,#6e2fac,42 Anhalt Street,El Obeid,,,Sudan,30.2166519,13.1782149,3/30/21,2/23/21
35,35,NYSE,Franc,#f87fb2,60774 Stone Corner Terrace,Bouna,,,Ivory Coast,-2.9925577,9.2716618,8/7/21,11/11/20
36,36,NASDAQ,Sol,#021bf6,6 Dorton Drive,Antabamba,,,Peru,-72.8778527,-14.3651534,9/20/20,9/3/20
37,37,NYSE,Rupiah,#7ef46a,4140 Kingsford Pass,Anjani Barat,,,Indonesia,116.0594701,-8.3535966,7/24/21,5/14/21
38,38,NYSE,Yen,#cd6886,286 Corscot Court,Kisarazu,,299-0271,Japan,139.9386123,35.4252373,4/2/21,12/15/20
39,39,NYSE,Euro,#971b69,758 Hayes Court,Le Puy-en-Velay,98,43010 CEDEX,France,3.8924136,45.0428681,6/23/21,2/27/21
40,40,NYSE,Dollar,#58be34,1 Northport Terrace,Taichung,,,Taiwan,120.6736482,24.1477358,7/8/21,11/14/20
41,41,NYSE,Rupiah,#bd1d65,083 Autumn Leaf Center,Pakel,,,Indonesia,111.8270486,-8.1553145,6/22/21,3/30/21
42,42,NYSE,Yuan Renminbi,#b70c8b,7339 Riverside Crossing,Fushan,,,China,113.121435,23.021478,10/20/20,10/4/20
43,43,NYSE,Rupiah,#b06bad,2 Florence Lane,Saparua,,,Indonesia,128.6320086,-3.5508343,12/10/20,4/21/21
44,44,NYSE,Dollar,#702e2c,70 Bunker Hill Hill,Waihi Beach,,3642,New Zealand,175.9364317,-37.3965056,5/13/21,11/24/20
45,45,NASDAQ,Yuan Renminbi,#db49d3,9 Eliot Place,Jiangnan,,,China,108.273158,22.781631,1/23/21,11/5/20
46,46,NYSE,Real,#00102b,133 Village Green Drive,Taquarituba,,18740-000,Brazil,-49.2435998,-23.4819846,4/13/21,2/16/21
47,47,NASDAQ,Peso,#76810f,6 David Place,Mabasa,,3707,Philippines,121.1190338,16.3264084,3/19/21,8/15/21
48,48,NASDAQ,Euro,#08174c,9 Victoria Street,Ballyhaunis,,F35,Ireland,-8.7683674,53.7942932,12/12/20,7/30/21
49,49,NASDAQ,Rupiah,#8b64ff,21864 Red Cloud Crossing,Munggang,,,Indonesia,107.8569988,-6.7837708,1/7/21,3/29/21
50,50,NASDAQ,Yuan Renminbi,#3c7fa7,24024 Anzinger Place,Baohe,,,China,117.309522,31.793861,2/6/21,7/10/21
51,51,NASDAQ,Rupiah,#2b9746,966 Mariners Cove Junction,Kudang,,,Indonesia,107.9836107,-7.0345626,3/12/21,4/25/21
52,52,NYSE,Dinar,#568f99,169 Manitowish Crossing,Sremska Mitrovica,,,Serbia,19.6209662,44.9794968,2/28/21,11/7/20
53,53,NASDAQ,Rupiah,#c34bad,503 Arizona Alley,Pakkat,,,Indonesia,98.4403573,2.160693,3/31/21,2/24/21
54,54,NASDAQ,Franc,#c5e461,473 Rigney Center,Ngama,,,Chad,17.1632224,11.7931418,8/28/20,2/18/21
55,55,NYSE,Shilling,#ad8e79,1 Cordelia Court,Jawhar,,,Somalia,45.5016253,2.7774231,6/24/21,1/13/21
56,56,NYSE,Krone,#9f9548,01 Sullivan Parkway,Sandefjord,7,3249,Norway,10.1916192,59.1477457,3/29/21,7/23/21
57,57,NASDAQ,Peso,#6c0312,98487 Florence Junction,Hanggan,,6406,Philippines,121.2786716,14.5165603,11/18/20,7/10/21
58,58,NASDAQ,Yuan Renminbi,#7a913d,01601 Kensington Junction,A‚Äôyi Take,,,China,125.1864669,44.4286616,5/30/21,1/25/21
59,59,NASDAQ,Hryvnia,#33e045,12 Sutteridge Trail,Uman‚Äô,,,Ukraine,30.2154406,48.7699292,4/24/21,8/8/21
60,60,NASDAQ,Krona,#572cb4,994 Lerdahl Hill,Lule√•,BD,973 29,Sweden,20.6859936,67.1355975,9/28/20,8/26/20
61,61,NASDAQ,Real,#7957b2,93169 Melrose Hill,Congonhas,,36415-000,Brazil,-43.8613566,-20.4993469,11/14/20,10/2/20
62,62,NYSE,Rupiah,#c8221e,4594 Stang Place,Tarimbang,,,Indonesia,119.9624902,-9.9484703,7/5/21,4/20/21
63,63,NYSE,Rupee,#0a4e67,83104 Bunker Hill Road,Chemin Grenier,,,Mauritius,57.468383,-20.4967315,12/24/20,4/2/21
64,64,NASDAQ,Rupiah,#18499a,37024 Miller Alley,Buluh Kasap,,,Indonesia,101.4537902,1.6832081,12/18/20,12/27/20
65,65,NASDAQ,Lev,#2250b6,4670 Hollow Ridge Court,Kula,,3818,Bulgaria,22.5188282,43.8564397,9/19/20,4/9/21
66,66,NASDAQ,Euro,#67889a,98872 Del Mar Lane,Alto do Estanqueiro,15,2870-610,Portugal,-8.923648,38.6805556,1/19/21,12/1/20
67,67,NASDAQ,Peso,#401875,42165 Arapahoe Park,Francisco Sarabia,COA,29783,Mexico,-99.2820233,19.5959923,5/1/21,9/18/20
68,68,NYSE,Tenge,#1a12ce,83042 Ohio Way,Kyzylorda,,,Kazakhstan,65.4822686,44.8488314,7/8/21,9/13/20
69,69,NYSE,Dinar,#32c328,1849 Arkansas Road,Al Bay·∏ëƒÅ‚Äô,,,Libya,21.7376178,32.756417,10/29/20,1/11/21
70,70,NYSE,Rupiah,#ea2c7f,31612 Forest Run Hill,Oematnunu,,,Indonesia,123.5336078,-10.2674627,8/20/20,2/7/21
71,71,NYSE,Kyat,#589c2b,1721 Coolidge Center,Shwebo,,,Myanmar,95.6983979,22.5786554,12/16/20,11/29/20
72,72,NYSE,Real,#7fa055,78 Talisman Plaza,C√¢ndido Mota,,19880-000,Brazil,-50.3834929,-22.7475609,8/11/21,3/7/21
73,73,NASDAQ,Rupiah,#3a8c78,2510 Meadow Ridge Parkway,Pangligaran,,,Indonesia,108.1798126,-7.2211138,10/20/20,5/10/21
74,74,NYSE,Yuan Renminbi,#980f7b,487 Spohn Lane,Hekou,,,China,103.93935,22.529403,9/17/20,2/6/21
75,75,NASDAQ,Yuan Renminbi,#a870cd,7 Heffernan Way,Liping,,,China,109.136724,26.230385,11/9/20,7/9/21
76,76,NASDAQ,Euro,#cdf2a9,9 Quincy Crossing,J√§ms√§nkoski,,42301,Finland,25.2322629,61.8178084,8/2/21,8/29/20
77,77,NASDAQ,Sol,#df5d4d,34 Lyons Lane,Cahuac,,,Peru,-76.631796,-9.8535874,6/28/21,3/17/21
78,78,NASDAQ,Peso,#8c5776,092 Village Center,Maria,,6229,Philippines,121.0064151,14.5072887,3/4/21,9/19/20
79,79,NASDAQ,Kwacha,#5aef7e,2987 Glacier Hill Plaza,Dedza,,,Malawi,34.3254842,-14.3816618,6/30/21,2/3/21
80,80,NASDAQ,Rupiah,#5ed62e,6310 Hayes Trail,Ubajami,,,Indonesia,121.7895,-10.5182,11/7/20,5/17/21
81,81,NYSE,Hryvnia,#5f6568,00430 Coleman Drive,Saky,,,Ukraine,33.5941067,45.1310529,6/30/21,8/16/21
82,82,NYSE,Euro,#531760,076 Susan Road,Swords,,K67,Ireland,-6.2071246,53.4562426,1/5/21,1/13/21
83,83,NASDAQ,Rupee,#0bde3f,262 Towne Crossing,Bƒ´rganj,,,Nepal,84.8672171,27.0449005,8/11/21,1/23/21
84,84,NYSE,Rupee,#d53f83,2 Transport Drive,HadƒÅli,,51801,Pakistan,73.6083351,33.0405874,12/24/20,11/23/20
85,85,NASDAQ,Peso,#4e332f,9767 Welch Way,Nari√±o,,252837,Colombia,-74.828718,4.398278,3/26/21,5/22/21
86,86,NYSE,Naira,#7bed4a,3 Weeping Birch Park,Lere,,,Nigeria,8.5721016,10.4145738,9/27/20,10/12/20
87,87,NYSE,Marka,#213e97,46326 Sauthoff Way,Pjaniƒái,,,Bosnia and Herzegovina,15.8238674,44.9844262,4/23/21,6/24/21
88,88,NASDAQ,Yuan Renminbi,#96b349,55 Independence Road,Huangjinjing,,,China,110.897275,27.58237,4/3/21,10/28/20
89,89,NYSE,Real,#72a85c,167 Merrick Crossing,Igara√ßu do Tiet√™,,17350-000,Brazil,-48.5787728,-22.5506487,12/22/20,7/3/21
90,90,NYSE,Pound,#e7108b,817 Ridgeview Park,Mala·∏©,,,Syria,36.8519377,32.5067042,6/28/21,3/5/21
91,91,NASDAQ,Euro,#635c34,0 Westend Court,Quint√£o,13,4745-328,Portugal,-8.5943326,41.3044511,8/20/20,10/11/20
92,92,NYSE,Rupiah,#b2d624,5 Sloan Street,Bungur,,,Indonesia,106.8488128,-6.1718076,8/31/20,4/10/21
93,93,NYSE,Euro,#11951c,08 Westerfield Road,Lille,B4,59715 CEDEX 9,France,2.0308233,44.1675867,4/20/21,7/2/21
94,94,NYSE,Shilling,#147369,1099 David Junction,Ceelbuur,,,Somalia,46.6198608,4.6839135,5/28/21,2/10/21
95,95,NYSE,Ruble,#531ed7,156 Pearson Point,Kargasok,,636708,Russia,80.1006379,58.6316895,12/19/20,5/16/21
96,96,NASDAQ,Real,#5e9865,1980 Shelley Way,Macatuba,,17290-000,Brazil,-48.71221,-22.504198,12/5/20,1/10/21
97,97,NASDAQ,Peso,#074934,51703 Carey Lane,Toluviejo,,707037,Colombia,-75.4391349,9.452849,1/12/21,1/2/21
98,98,NASDAQ,Koruna,#3207bd,9814 Superior Alley,Kralupy nad Vltavou,,278 01,Czech Republic,14.310645,50.2416453,10/6/20,1/21/21
99,99,NASDAQ,Tenge,#3445ba,178 Algoma Terrace,Altay,,,Kazakhstan,84.606767,48.8315157,4/15/21,11/16/20
100,100,NYSE,Lev,#3ec5af,59 Dwight Terrace,Yambol,,8600,Bulgaria,26.5331057,42.4865907,7/31/21,4/13/21
101,101,NASDAQ,Peso,#98cf87,92 Menomonie Center,Samuh√∫,,3543,Argentina,-60.3884354,-27.5245743,6/10/21,1/21/21
102,102,NASDAQ,Yuan Renminbi,#8c2e29,422 Ramsey Alley,Duishan,,,China,109.667164,28.90499,3/9/21,4/12/21
103,103,NYSE,Won,#68b9c7,6 Gale Crossing,Hamh≈≠ng,,,North Korea,127.6124552,39.9838002,2/10/21,1/22/21
104,104,NYSE,Euro,#33034e,96 Cody Street,Gal√°tsi,,,Greece,23.7530327,38.0130742,6/28/21,7/4/21
105,105,NYSE,Peso,#ee049f,39579 Darwin Parkway,Solidaridad,TAM,88736,Mexico,-87.0696273,20.6523028,10/21/20,10/31/20
106,106,NYSE,Peso,#c33342,347 Vidon Terrace,Fernando Gutierrez Barrios,VER,93420,Mexico,-97.3401785,20.4360818,4/30/21,1/26/21
107,107,NASDAQ,Sol,#141bef,6704 Old Gate Way,Ollachea,,,Peru,-70.4719705,-13.7947125,4/28/21,9/22/20
108,108,NASDAQ,Euro,#6ccba9,833 Erie Street,La Rochelle,B7,17044 CEDEX 1,France,5.2893597,47.9318074,11/24/20,9/14/20
109,109,NASDAQ,Real,#55698b,5 Corry Road,Cacoal,,78975-000,Brazil,-61.4566885,-11.434693,7/7/21,10/20/20
110,110,NASDAQ,Yuan Renminbi,#8fea6c,5 Bashford Road,Tanniu,,,China,110.735357,19.710084,5/16/21,1/30/21
111,111,NASDAQ,Euro,#91343a,16925 Summer Ridge Park,Arruda dos Vinhos,11,2630-115,Portugal,-9.0774591,38.9835516,3/25/21,1/21/21
112,112,NASDAQ,Peso,#f66060,8 Monument Way,General San Mart√≠n,,1702,Argentina,-58.5351929,-34.5802207,5/16/21,10/7/20
113,113,NYSE,Rupiah,#7ddbeb,27 Sloan Road,Jembatandua,,,Indonesia,106.7985107,-6.1425043,4/5/21,12/9/20
114,114,NYSE,Yuan Renminbi,#fc1d6a,3 Mayfield Terrace,Shigu,,,China,112.507849,27.522725,7/6/21,7/23/21
115,115,NYSE,Pound,#9d8a6a,89 Blackbird Avenue,Mallawƒ´,,,Egypt,30.8396598,27.7327603,9/6/20,8/4/21
116,116,NASDAQ,Yuan Renminbi,#7b4c88,32 Charing Cross Street,Wuyang,,,China,113.609286,33.437877,8/11/21,9/13/20
117,117,NYSE,Real,#cc4a82,6 Arrowood Parkway,Pacajus,,62870-000,Brazil,-38.460945,-4.1731846,7/24/21,5/18/21
118,118,NASDAQ,Yen,#58dcc7,77877 Mallard Point,Kashihara,,769-0105,Japan,133.9508311,34.2872962,11/8/20,12/3/20
119,119,NASDAQ,Gourde,#f4dfaf,35085 Westerfield Trail,Port-de-Paix,,,Haiti,-72.8308692,19.9348887,8/19/20,8/10/21
120,120,NASDAQ,Rupiah,#becdd7,89 Kenwood Way,Kadaka,,,Indonesia,107.905287,-7.2042488,12/22/20,12/17/20
121,121,NASDAQ,Ruble,#e4501a,800 Claremont Hill,Zagoryanskiy,,141143,Russia,37.9176675,55.9289331,11/8/20,8/4/21
122,122,NASDAQ,Euro,#81ec48,8 Ryan Center,Miratejo,15,2855-188,Portugal,-9.1453534,38.6459249,10/6/20,4/12/21
123,123,NASDAQ,Ringgit,#8c2072,1993 Raven Parkway,Kota Kinabalu,SBH,88906,Malaysia,116.0761121,5.9840985,6/5/21,4/15/21
124,124,NASDAQ,Rupee,#eefdb0,5 Ohio Pass,Jhang Sadr,,52051,Pakistan,72.3110986,31.2633956,9/24/20,5/19/21
125,125,NYSE,Dinar,#d6b354,9 Village Green Road,NƒÅ·∏©iyat Ba·∏©ƒÅr,,,Iraq,44.4075911,35.4755834,3/15/21,2/15/21
126,126,NYSE,Yuan Renminbi,#ff30dd,855 Hermina Lane,Cola,,,China,114.181701,22.278114,8/31/20,8/26/20
127,127,NYSE,Rupiah,#e9d209,3100 Lien Point,Mojolampir,,,Indonesia,111.2099808,-6.8005667,12/3/20,3/24/21
128,128,NASDAQ,Peso,#6a9a3a,74 Bowman Drive,La Uni√≥n,,55028,Colombia,-75.329557,5.902266,8/14/21,2/16/21
129,129,NASDAQ,Krona,#0a71ba,2 Clemons Parkway,S√∂derk√∂ping,E,614 94,Sweden,16.1860744,58.465971,8/8/21,7/26/21
130,130,NASDAQ,Dram,#895e0b,008 Westport Terrace,Aygek,,,Armenia,44.384146,40.1912987,1/10/21,7/23/21
131,131,NASDAQ,Ruble,#a97f50,4961 Tony Trail,Kazanskoye,,627439,Russia,47.4687165,55.8547803,7/6/21,6/3/21
132,132,NASDAQ,Rupiah,#98dc9e,45602 Valley Edge Alley,Sumberbaru,,,Indonesia,113.4061697,-8.0989645,10/3/20,2/15/21
133,133,NASDAQ,Dirham,#cb0132,89 Helena Court,Tazarine,,,Morocco,-5.5459787,30.7717757,11/4/20,10/12/20
134,134,NASDAQ,Leone,#ae0630,170 Gerald Avenue,Lunsar,,,Sierra Leone,-12.5355393,8.6881283,7/20/21,11/10/20
135,135,NASDAQ,Euro,#281ca3,4057 Leroy Street,Amsterdam Nieuw West,7,1069,Netherlands,4.7901227,52.3576375,2/9/21,4/11/21
136,136,NYSE,Peso,#9217a3,6 Atwood Trail,Abut,,2720,Philippines,120.791828,18.5286072,3/22/21,10/17/20
137,137,NYSE,Zloty,#ddade8,8 Hanover Street,Rzewnie,,06-225,Poland,21.3426286,52.8234799,12/2/20,9/17/20
138,138,NYSE,Yuan Renminbi,#1e76b4,706 Portage Point,Lanxi,,,China,119.460526,29.208918,1/15/21,11/5/20
139,139,NYSE,Koruna,#5c51a6,5171 Shopko Street,Hudlice,,267 03,Czech Republic,13.9706421,49.9609687,12/10/20,5/18/21
140,140,NASDAQ,Peso,#b86965,43682 Fairview Way,Datagon,,3605,Philippines,121.1016044,14.6238704,2/9/21,6/18/21
141,141,NYSE,Dollar,#22d048,00 Transport Hill,Allentown,PA,18105,United States,-75.47,40.6,7/14/21,12/2/20
142,142,NYSE,Euro,#893878,77020 Shasta Plaza,Ant√≠paros,,,Greece,25.0406679,36.9884302,5/27/21,3/31/21
143,143,NASDAQ,Euro,#0a0589,6967 Glacier Hill Circle,Vilar,16,4960-010,Portugal,-8.5381298,41.2290184,12/9/20,3/23/21
144,144,NYSE,Krone,#220365,97 Hanson Crossing,Trondheim,16,7419,Norway,10.4024274,63.4400274,9/23/20,7/23/21
145,145,NASDAQ,Yuan Renminbi,#57e9ed,8 Green Ridge Point,Yayao,,,China,121.154634,30.037192,4/3/21,5/2/21
146,146,NASDAQ,Euro,#abd5f6,3 International Street,Saint-Brieuc,A2,22025 CEDEX 1,France,-2.7383235,48.509075,2/5/21,11/2/20
147,147,NYSE,Kuna,#d526b0,774 South Plaza,ƒåakovec,,40000,Croatia,16.4379653,46.3897383,7/30/21,5/8/21
148,148,NASDAQ,Zloty,#72543f,6467 Golf View Trail,Susiec,,22-672,Poland,23.2170296,50.4145342,5/18/21,9/28/20
149,149,NYSE,Dollar,#431eac,16 Erie Crossing,Charleston,SC,29424,United States,-79.9365839,32.7830575,6/12/21,6/5/21
150,150,NYSE,Krona,#b0e4dc,72 School Alley,Hova,O,548 32,Sweden,14.2134536,58.8578776,1/28/21,8/12/21
151,151,NYSE,Dollar,#a24d38,926 Larry Point,Sainte-Agathe-des-Monts,QC,J8C,Canada,-74.2739552,46.0474907,9/17/20,11/11/20
152,152,NASDAQ,Euro,#6b80b3,237 Melrose Lane,Eaubonne,A8,95604 CEDEX,France,2.2868727,48.9897895,7/9/21,8/21/20
153,153,NASDAQ,Dollar,#aecc80,5508 Marcy Avenue,Amarillo,TX,79171,United States,-102.8518139,32.9578909,3/26/21,1/10/21
154,154,NASDAQ,Zloty,#a37d9e,82509 Swallow Trail,Rƒôdziny,,42-242,Poland,19.2061348,50.8677076,1/5/21,11/3/20
155,155,NASDAQ,Yuan Renminbi,#4bd65c,10 Chinook Junction,Jiasi,,,China,119.58045,39.940238,10/7/20,9/3/20
156,156,NYSE,Yuan Renminbi,#976b22,728 Springs Lane,Qingquan,,,China,112.0069982,27.7303815,7/22/21,7/30/21
157,157,NYSE,Peso,#c6e946,788 Bultman Parkway,Lubao,,2005,Philippines,120.551341,14.903607,3/13/21,12/31/20
158,158,NYSE,Rupiah,#677bed,0598 Dexter Road,Jetis,,,Indonesia,110.363649,-7.783297,1/31/21,4/18/21
159,159,NASDAQ,Ruble,#05c5c0,94345 Brickson Park Drive,Yoshkar-Ola,,424999,Russia,47.9021415,56.6332138,7/28/21,12/4/20
160,160,NASDAQ,Yuan Renminbi,#8184b1,9752 Moland Junction,Daxi,,,China,117.1199596,24.1092009,6/19/21,7/25/21
161,161,NYSE,Euro,#97d968,2 Thompson Trail,Bairro de Santo Ant√≥nio,11,2765-133,Portugal,-9.4052043,38.7233591,5/9/21,7/30/21
162,162,NYSE,Peso,#b41cc1,056 American Ash Lane,Anticala,,6010,Philippines,125.5406265,8.9475374,6/10/21,1/21/21
163,163,NYSE,Peso,#cb1ea8,008 Di Loreto Place,Paatan,,9406,Philippines,124.848271,7.0773723,10/12/20,3/15/21
164,164,NYSE,Denar,#c93b37,034 Schmedeman Court,Debar,,1250,Macedonia,20.696064,41.536057,1/2/21,8/24/20
165,165,NYSE,Yuan Renminbi,#bb5659,73282 Garrison Avenue,Gangbei,,,China,109.57224,23.11153,7/24/21,12/26/20
166,166,NASDAQ,Rupiah,#65c078,6545 Badeau Drive,Panyarang,,,Indonesia,106.7855,-6.73479,12/7/20,3/21/21
167,167,NASDAQ,Manat,#5d4505,52 Utah Trail,Pirallahƒ±,,,Azerbaijan,50.3334447,40.4746848,6/13/21,3/14/21
168,168,NYSE,Yuan Renminbi,#063b37,39201 Canary Street,Gaoqiao,,,China,108.249509,31.364902,9/10/20,5/22/21
169,169,NYSE,Euro,#a272df,4455 Ridgeview Junction,Solkan,,5250,Slovenia,13.6455618,45.9678392,7/5/21,8/24/20
170,170,NASDAQ,Birr,#49c62d,62940 Heffernan Avenue,Gambƒìla,,,Ethiopia,34.5915966,8.2471899,5/19/21,1/24/21
171,171,NASDAQ,Yuan Renminbi,#556e29,3 Bonner Street,Yangjia,,,China,116.4442945,39.9368237,11/27/20,10/2/20
172,172,NYSE,Peso,#942b2c,89940 Menomonie Hill,Dumlan,,8119,Philippines,125.8610989,7.3756564,9/30/20,11/30/20
173,173,NASDAQ,Ruble,#79bc2b,259 Hovde Terrace,Manturovo,,307000,Russia,37.1272446,51.4537368,10/26/20,10/3/20
174,174,NASDAQ,Yuan Renminbi,#0bebb6,5 Kennedy Street,Baizhu,,,China,112.3578078,22.9457326,9/10/20,6/22/21
175,175,NASDAQ,Peso,#0c9205,237 Bultman Junction,Mabalacat,,2010,Philippines,120.5879653,15.1757062,9/1/20,9/7/20
176,176,NASDAQ,Euro,#268c92,0 Northridge Center,K√°to Mili√°,,,Greece,22.3420757,40.2549207,10/4/20,6/4/21
177,177,NASDAQ,Yen,#cceb23,49 Elka Way,Toride,,302-0004,Japan,140.0636977,35.8886106,1/22/21,7/25/21
178,178,NYSE,Sol,#1bb6ca,907 Mendota Crossing,Celend√≠n,,,Peru,-78.1421905,-6.8666512,8/22/20,9/4/20
179,179,NASDAQ,Euro,#0b56d5,9 Schlimgen Alley,√âvora,7,7000-062,Portugal,-7.9325424,38.5703228,9/17/20,3/26/21
180,180,NYSE,Ariary,#d267f8,71 Barby Circle,Ikalamavony,,,Madagascar,46.5957488,-21.1674808,11/19/20,9/1/20
181,181,NASDAQ,Yuan Renminbi,#ccd134,382 Grasskamp Park,Qingtang,,,China,118.449526,27.347756,12/5/20,9/4/20
182,182,NYSE,Hryvnia,#67f126,97 Jana Way,Chornorudka,,,Ukraine,29.0542223,49.8461722,4/1/21,10/13/20
183,183,NYSE,Euro,#8015a4,1529 Vidon Trail,Tournai,WAL,7536,Belgium,3.4387783,50.59219,10/4/20,11/29/20
184,184,NASDAQ,Yen,#69662b,62 Independence Place,Tahara,,879-7305,Japan,131.6336105,33.0602736,10/13/20,10/3/20
185,185,NYSE,Ruble,#9dd429,240 Hoepker Lane,Tatarsk,,632147,Russia,75.9684541,55.1936526,3/17/21,11/20/20
186,186,NYSE,Yuan Renminbi,#86b85b,66 Debs Court,Liuxia,,,China,120.053059,30.242572,5/7/21,7/31/21
187,187,NASDAQ,Euro,#681a2e,47346 High Crossing Place,Arbois,A6,39605 CEDEX,France,5.3378155,43.4903429,2/27/21,12/8/20
188,188,NASDAQ,Rupiah,#edbe07,0 American Place,Pinggirsari,,,Indonesia,107.6540877,-7.0837462,5/21/21,8/5/21
189,189,NASDAQ,Yuan Renminbi,#1fbbc5,90 Duke Terrace,Shunling,,,China,111.947363,25.58038,6/26/21,11/30/20
190,190,NYSE,Yuan Renminbi,#622b63,7737 Fair Oaks Parkway,Jiangkou,,,China,108.839557,27.69965,7/2/21,4/10/21
191,191,NASDAQ,Yen,#813c3f,9 Mcbride Center,Kushiro,,729-5122,Japan,133.2811579,34.8663135,2/6/21,6/1/21
192,192,NASDAQ,Peso,#87131d,86 Susan Point,Tala,,,Uruguay,-55.7648161,-34.343056,4/22/21,4/25/21
193,193,NASDAQ,Peso,#f10bf3,59 Independence Street,Libertad,,9021,Philippines,120.997522,14.5473421,9/10/20,12/26/20
194,194,NYSE,Yuan Renminbi,#2f6ba7,946 Ridgeway Parkway,Xinshi,,,China,113.256439,23.199183,9/26/20,1/1/21
195,195,NASDAQ,Dollar,#b7989c,7 Dayton Street,Bouctouche,NB,E4S,Canada,-64.7242645,46.4722761,2/3/21,6/27/21
196,196,NASDAQ,Yuan Renminbi,#e3a830,1258 Hanover Road,Yueshan,,,China,112.509269,22.428345,7/8/21,9/20/20
197,197,NASDAQ,Peso,#ee0247,2 Cordelia Point,San Miguel del Padr√≥n,,,Cuba,-82.3072013,23.0818155,7/13/21,10/4/20
198,198,NYSE,Euro,#771b55,8 Eastlawn Terrace,Gala,6,3090-710,Portugal,-8.8575795,40.1284892,3/21/21,7/20/21
199,199,NASDAQ,Krone,#b4dbf5,0 Independence Point,K√∏benhavn,1084,1260,Denmark,12.5899894,55.6832198,2/11/21,9/26/20
200,200,NYSE,Euro,#efc6a4,49043 Coleman Drive,Almelo,15,7604,Netherlands,6.624795,52.3517146,9/20/20,12/7/20
201,201,NYSE,Denar,#caba3c,793 Dawn Junction,Ohrid,,6322,Macedonia,20.7427213,40.9141247,12/29/20,7/23/21
202,202,NASDAQ,Dollar,#16c80c,60271 Hansons Terrace,Sainte-Ad√®le,QC,J8B,Canada,-74.1213151,45.9400646,8/15/21,7/9/21
203,203,NASDAQ,Rupiah,#f63f2f,42 Donald Way,Krajan Ngrambingan,,,Indonesia,111.4526032,-8.2296365,6/29/21,7/2/21
204,204,NASDAQ,Real,#1d17f0,2042 Acker Street,Farroupilha,,95180-000,Brazil,-51.3423619,-29.2231867,8/20/20,5/21/21
205,205,NYSE,Zloty,#28150a,3 North Parkway,Dziemiany,,83-425,Poland,17.7763729,54.0058465,11/27/20,6/27/21
206,206,NASDAQ,Yuan Renminbi,#4f895a,186 Parkside Way,Xinjiang,,,China,87.5395855,42.5246357,4/24/21,8/24/20
207,207,NYSE,Yuan Renminbi,#93c27c,4 Roxbury Terrace,Shiniu,,,China,112.239446,27.375021,4/22/21,10/10/20
208,208,NASDAQ,Yuan Renminbi,#29ca49,65 Hallows Plaza,Pingba,,,China,106.256412,26.405715,5/10/21,3/3/21
209,209,NYSE,Zloty,#b6258b,7 Almo Junction,Tolkmicko,,82-340,Poland,19.5273042,54.3202047,4/11/21,7/9/21
210,210,NASDAQ,Yuan Renminbi,#98a1d8,26293 Homewood Pass,Jinhua,,,China,119.64742,29.079175,12/20/20,12/14/20
211,211,NYSE,Peso,#4a9ff2,94993 Carey Terrace,Don Mat√≠as,,51858,Colombia,-75.393831,6.485702,8/4/21,6/18/21
212,212,NASDAQ,Zloty,#fa9380,82 Arizona Crossing,G√≥rzno,,87-320,Poland,19.6444061,53.1980031,12/11/20,1/14/21
213,213,NYSE,Dollar,#4d96a3,5 Marquette Parkway,Simi Valley,CA,93094,United States,-118.7,34.28,11/27/20,11/17/20
214,214,NASDAQ,Rupiah,#68a924,8013 Little Fleur Plaza,Panyindangan,,,Indonesia,107.9679983,-6.6913037,12/23/20,5/26/21
215,215,NASDAQ,Yuan Renminbi,#d41498,7 Fremont Junction,Hongqi Yingzi,,,China,123.4454,40.343992,11/8/20,4/9/21
216,216,NASDAQ,Euro,#da6d92,0 Hansons Hill,Colares,11,2705-188,Portugal,-9.4665149,38.7952662,4/9/21,9/23/20
217,217,NASDAQ,Peso,#cbdbfc,4 Katie Alley,Ci√©naga de Oro,,232538,Colombia,-75.632447,8.8105088,4/3/21,11/19/20
218,218,NYSE,Dollar,#ff7955,840 Pine View Pass,Sacramento,CA,94297,United States,-121.49,38.58,4/6/21,12/10/20
219,219,NASDAQ,Dinar,#e9ba20,16717 Londonderry Hill,Raƒça,,,Serbia,20.9791382,44.2327226,2/8/21,12/24/20
220,220,NASDAQ,Denar,#c52c0c,9 Old Gate Parkway,Pirava,,7316,Macedonia,22.53047,41.32042,11/10/20,8/26/20
221,221,NYSE,Riels,#779181,3 Namekagon Circle,Phnom Penh,,,Cambodia,104.8921668,11.5448729,3/28/21,4/20/21
222,222,NYSE,Euro,#f2ccd5,8 Delaware Plaza,√Ågios Vas√≠leios,,,Greece,24.4523968,35.2452552,10/22/20,9/27/20
223,223,NASDAQ,Boliviano,#5bab88,0 Huxley Crossing,Santa Cruz de la Sierra,,,Bolivia,-63.1560853,-17.8145819,1/12/21,8/17/21
224,224,NYSE,Rupiah,#6359a4,78298 Dorton Avenue,Narawayong,,,Indonesia,123.2391,-8.2909,7/23/21,7/16/21
225,225,NASDAQ,Ruble,#e16bc2,13345 Mcbride Point,Svecha,,612040,Russia,47.5136153,58.2768797,2/20/21,9/16/20
226,226,NASDAQ,Tugrik,#5345ec,26744 Arkansas Crossing,Sujji,,,Mongolia,106.25,48.316667,8/21/20,9/5/20
227,227,NYSE,Real,#50caf8,48810 Bluestem Parkway,Itapetininga,,18200-000,Brazil,-47.9985512,-23.5795137,5/29/21,6/6/21
228,228,NYSE,Dollar,#d44feb,0 Killdeer Plaza,Toledo,OH,43615,United States,-83.666758,41.6560291,3/14/21,4/11/21
229,229,NYSE,Euro,#3cde90,66 Union Drive,Orimattila,,16301,Finland,25.8332761,60.6847164,1/23/21,8/1/21
230,230,NYSE,Pound,#ed86c5,72 Sunnyside Pass,Al Mazra‚Äòah,,,Syria,36.47696,32.78398,6/10/21,1/27/21
231,231,NYSE,Yuan Renminbi,#49ebe1,1 Corben Terrace,Jiefu,,,China,121.512981,31.235029,9/17/20,6/27/21
232,232,NASDAQ,Somoni,#0a7976,8 Muir Park,Boshchorbogh,,,Tajikistan,68.12824,37.52027,11/14/20,11/20/20
233,233,NASDAQ,Euro,#986dd9,17965 International Court,Fornos,1,4550-356,Portugal,-8.2439651,41.0562367,11/22/20,2/17/21
234,234,NYSE,Yuan Renminbi,#9c9312,5 Buell Way,Gaozhou,,,China,110.853299,21.918203,11/13/20,12/17/20
235,235,NASDAQ,Peso,#a3afdf,0 Stone Corner Trail,Lazaro Cardenas,CHP,27944,Mexico,-102.1943485,17.9567646,7/10/21,12/16/20
236,236,NASDAQ,Rupiah,#13fb6c,991 Holmberg Plaza,Pajak,,,Indonesia,101.642899,2.100305,3/28/21,2/26/21
237,237,NYSE,Koruna,#a8755f,8876 Sunbrook Trail,Jablonec nad Nisou,,466 01,Czech Republic,15.1765093,50.7193517,8/18/20,2/9/21
238,238,NYSE,Koruna,#7ee73b,6 Derek Park,Zl√≠n,,760 01,Czech Republic,17.6970599,49.2176397,9/13/20,12/30/20
239,239,NASDAQ,Lek,#75a3a4,938 Jana Pass,Shez√´,,,Albania,19.822316,41.021678,11/19/20,4/15/21
240,240,NASDAQ,Rupiah,#c4302d,600 Becker Avenue,Manonjaya,,,Indonesia,108.3207992,-7.3639966,8/22/20,1/5/21
241,241,NASDAQ,Ruble,#1410b0,73688 Bunting Court,Mindyak,,175320,Russia,58.8399853,54.0057263,2/13/21,2/10/21
242,242,NYSE,Real,#652326,85 Manley Pass,Ubatuba,,11680-000,Brazil,-45.0479872,-23.4602881,4/23/21,3/27/21
243,243,NASDAQ,Sol,#6e6210,21224 Caliangt Alley,Pucyura,,,Peru,-72.1110396,-13.479597,12/3/20,10/27/20
244,244,NASDAQ,Euro,#9324d2,8276 Canary Way,Ranua,,97701,Finland,25.755466,66.4924399,3/7/21,12/15/20
245,245,NYSE,Rupiah,#29e503,01 Anderson Crossing,Rancaranji,,,Indonesia,105.939567,-6.194154,6/7/21,4/2/21
246,246,NASDAQ,Peso,#a21389,9 Washington Pass,Banocboc,,5048,Philippines,122.899983,14.18364,2/14/21,2/28/21
247,247,NASDAQ,Euro,#5484d8,3589 Summer Ridge Parkway,Orivesi,,35301,Finland,24.5263263,61.9095031,2/7/21,3/8/21
248,248,NASDAQ,Yuan Renminbi,#2aa306,521 Corben Drive,Shigutang,,,China,113.151358,24.348178,1/20/21,2/15/21
249,249,NASDAQ,Som,#1e835c,23 Corry Trail,Oqtosh,,,Uzbekistan,65.9214676,39.9225394,7/7/21,3/13/21
250,250,NYSE,Franc,#b5366b,59812 Continental Lane,Nd√©l√©,,,Central African Republic,20.6481794,8.4101505,3/1/21,11/13/20
251,251,NASDAQ,Peso,#97bf7f,2 Helena Drive,Hidalgo,CHP,26060,Mexico,-98.7623874,20.0910963,7/27/21,6/24/21
252,252,NASDAQ,Dram,#4533a0,974 Mockingbird Court,K‚Äôanak‚Äôerravan,,,Armenia,44.53511,40.24739,3/22/21,8/28/20
253,253,NASDAQ,Yuan Renminbi,#87bf80,53 Chive Center,Hailang,,,China,129.5688889,44.5241667,11/25/20,1/7/21
254,254,NASDAQ,Yuan Renminbi,#e3c598,411 Toban Plaza,Woshui,,,China,112.235945,24.561134,8/15/21,8/23/20
255,255,NASDAQ,Rupiah,#1989c3,10267 Eagle Crest Way,Lowotukan,,,Indonesia,123.2814017,-8.3120496,12/30/20,4/25/21
256,256,NASDAQ,Rupiah,#3bf3d3,6230 Pearson Trail,Ambarita,,,Indonesia,98.8087151,2.6715181,6/11/21,4/17/21
257,257,NYSE,Ruble,#689ff5,38245 Hanover Hill,Dubrovka,,242750,Russia,33.5027704,53.6911177,9/26/20,9/28/20
258,258,NASDAQ,Baht,#88d163,06367 Menomonie Lane,Chum Phae,,40130,Thailand,102.0832543,16.5235265,8/6/21,12/15/20
259,259,NASDAQ,Peso,#3601d9,7892 Brickson Park Road,Siruma,,4427,Philippines,123.2983232,14.0206423,5/17/21,7/17/21
260,260,NYSE,Hryvnia,#bac1a8,7251 Oxford Avenue,Berestechko,,,Ukraine,25.1107867,50.3633974,6/29/21,3/26/21
261,261,NASDAQ,Ruble,#bbfaf4,74 Clove Place,Elekmonar,,649234,Russia,86.01456,51.462471,2/1/21,4/19/21
262,262,NYSE,Yuan Renminbi,#e39775,5017 Tomscot Road,Xinchang,,,China,120.903866,29.499831,7/30/21,8/13/21
263,263,NASDAQ,Baht,#4fa8c6,3441 Dennis Place,Phatthalung,,86000,Thailand,100.592145,7.193611,11/4/20,3/19/21
264,264,NASDAQ,Ariary,#bc3cf6,14 Dunning Court,Sambava,,,Madagascar,50.1678121,-14.2713338,9/18/20,3/28/21
265,265,NYSE,Peso,#ff79eb,8 Kedzie Alley,Independencia,DUR,35156,Mexico,-99.1476908,19.3803931,12/17/20,7/19/21
266,266,NASDAQ,Rupiah,#ea0c55,414 Lotheville Court,Wonorejo,,,Indonesia,112.8135304,-7.305958,1/13/21,10/27/20
267,267,NYSE,Denar,#016748,25590 Hazelcrest Crossing,–†–∞–¥–æ–≤–∏—à,,2423,Macedonia,22.4665446,41.634449,8/20/20,12/9/20
268,268,NASDAQ,Peso,#1aa8fd,2 Barby Street,Ejidal,DUR,35069,Mexico,-104.6751805,23.9891132,3/30/21,5/8/21
269,269,NASDAQ,Zloty,#bca391,1 Reindahl Alley,Wilkowice,,43-365,Poland,19.0904515,49.7624347,6/10/21,12/29/20
270,270,NYSE,Yuan Renminbi,#b90f17,52 Leroy Plaza,Kuzhuping,,,China,110.089415,29.645451,2/2/21,4/29/21
271,271,NASDAQ,Hryvnia,#ca84db,2876 Dayton Trail,Khorosheve,,,Ukraine,36.2090012,49.854824,10/24/20,3/31/21
272,272,NYSE,Peso,#be1aea,20 Elka Crossing,R√≠o Colorado,,8138,Argentina,-58.5056396,-34.6146409,12/3/20,12/10/20
273,273,NYSE,Won,#db323d,5919 Morrow Street,S≈ènbong,,,North Korea,130.3874889,42.3383958,7/30/21,4/12/21
274,274,NASDAQ,Rand,#0d8728,983 Russell Way,Jansenville,,6265,South Africa,24.6549185,-32.943528,1/31/21,6/4/21
275,275,NYSE,Euro,#74ca5c,88671 Bayside Street,Salacgrƒ´va,,,Latvia,24.3543455,57.7581391,8/14/21,9/1/20
276,276,NYSE,Real,#965f08,5 Drewry Alley,Tupaciguara,,38430-000,Brazil,-48.7043878,-18.5938307,9/24/20,7/17/21
277,277,NASDAQ,Ruble,#8298ba,516 Pleasure Parkway,Yelizovo,,117452,Russia,158.3871557,53.1891447,4/27/21,10/11/20
278,278,NASDAQ,Yuan Renminbi,#0ff7cf,1738 Chinook Way,Oroin Xibe,,,China,124.25218,46.364025,5/18/21,11/18/20
279,279,NASDAQ,Kuna,#7872fe,12 Old Shore Hill,Vrbovec,,10340,Croatia,16.416766,45.8839523,10/9/20,6/11/21
280,280,NYSE,Lempira,#410b93,6 Kinsman Court,Traves√≠a,,,Honduras,-87.8930184,15.8672784,1/5/21,7/19/21
281,281,NYSE,Peso,#24f8cb,12 Pine View Terrace,San Isidro,PUE,74960,Mexico,-99.1985584,19.482042,11/19/20,4/2/21
282,282,NASDAQ,Hryvnia,#62d4b6,53 Mifflin Way,Melioratyvne,,,Ukraine,35.398479,48.6160168,10/1/20,4/3/21
283,283,NYSE,Peso,#7d74a2,14 Alpine Point,San Juan Nepomuceno,,132018,Colombia,-75.083828,9.95114,6/19/21,6/20/21
284,284,NYSE,Yuan Renminbi,#292226,0 Moose Pass,Jiujiang,,,China,116.00193,29.705077,7/26/21,11/24/20
285,285,NASDAQ,Yuan Renminbi,#f6fab0,9 Golf Drive,Chizhou,,,China,117.489156,30.656037,6/29/21,7/7/21
286,286,NYSE,Yuan Renminbi,#3920ca,463 Sage Plaza,Changning,,,China,121.424624,31.220367,8/11/21,11/28/20
287,287,NASDAQ,Hryvnia,#3a3e73,1211 Nova Place,Amvrosiyivka,,,Ukraine,38.4885354,47.8018062,9/19/20,6/11/21
288,288,NYSE,Ruble,#6d023d,59932 Cordelia Lane,Privodino,,165391,Russia,46.4952164,61.0816055,10/31/20,5/4/21
289,289,NASDAQ,Rupiah,#3d7a1d,69 Glendale Terrace,Lunyuk Ode,,,Indonesia,117.3028803,-8.9670697,1/29/21,2/3/21
290,290,NASDAQ,Zloty,#f476d4,554 Old Gate Park,Mrozy,,05-320,Poland,21.828508,52.1379258,12/15/20,7/14/21
291,291,NYSE,Kuna,#391cc6,993 Redwing Hill,Tenja,,31207,Croatia,18.7768698,45.4835641,8/14/21,10/28/20
292,292,NASDAQ,Euro,#c68ef8,673 Glacier Hill Parkway,V√§stanfj√§rd,,25830,Finland,22.6666377,60.0499479,11/18/20,6/4/21
293,293,NYSE,Euro,#037e4b,897 Crescent Oaks Park,Soutocico,10,2420-031,Portugal,-8.7377503,39.7024946,5/23/21,9/7/20
294,294,NYSE,Dinar,#63d02b,92701 Melby Plaza,Zarqa,,,Jordan,36.0941795,32.0608187,7/16/21,7/13/21
295,295,NASDAQ,Yuan Renminbi,#05070e,417 Summerview Center,Baixi,,,China,103.573122,31.874138,10/14/20,10/30/20
296,296,NASDAQ,Lempira,#60dc8f,82544 Messerschmidt Terrace,Quebrada de Arena,,,Honduras,-85.9355648,15.8087834,8/12/21,8/10/21
297,297,NYSE,Hryvnia,#254061,821 Pawling Hill,Belz,,,Ukraine,24.0089352,50.3815209,8/16/21,1/19/21
298,298,NASDAQ,Yuan Renminbi,#11ec05,96 Eastwood Parkway,Sucun,,,China,110.947552,34.423878,9/16/20,12/11/20
299,299,NYSE,Dong,#80e3b6,11912 Corscot Court,TraÃâng Bom,,,Vietnam,107.0303221,10.9667039,12/27/20,6/22/21
300,300,NYSE,Yuan Renminbi,#6325e4,2850 Erie Lane,Xibing,,,China,101.778223,36.617134,5/4/21,5/14/21
301,301,NASDAQ,Krona,#567e52,03971 Dahle Street,J√∂nk√∂ping,F,554 46,Sweden,14.1268727,57.7818019,4/10/21,9/6/20
302,302,NASDAQ,Yuan Renminbi,#7219b6,08276 Garrison Place,Cangqian,,,China,120.006412,30.291711,3/1/21,5/17/21
303,303,NASDAQ,Euro,#7761f4,843 Sycamore Crossing,Arrabal,10,2420-005,Portugal,-8.7316491,39.7034754,7/21/21,10/10/20
304,304,NASDAQ,Yuan Renminbi,#98c707,3 Hollow Ridge Lane,Fanzhuang,,,China,116.3323366,39.9335533,4/23/21,9/24/20
305,305,NYSE,Som,#efc414,13 Clove Lane,Charxin,,,Uzbekistan,66.7724653,39.6725789,12/29/20,2/1/21
306,306,NYSE,Lempira,#5763a8,196 Kingsford Drive,Cololaca,,,Honduras,-88.533333,14.75,10/3/20,6/26/21
307,307,NYSE,Tenge,#1357c0,48663 Stone Corner Drive,Kyzylzhar,,,Kazakhstan,69.2398607,54.8625893,4/4/21,9/15/20
308,308,NASDAQ,Krona,#1ff6d2,3898 Meadow Valley Place,Smedjebacken,W,777 82,Sweden,12.9683864,58.2609408,7/20/21,4/21/21
309,309,NYSE,Zloty,#631ff8,6 Rieder Hill,J√≥zef√≥w,,24-340,Poland,20.9183286,51.7565958,5/31/21,6/6/21
310,310,NYSE,Quetzal,#096ce0,811 Harper Street,Champerico,,11007,Guatemala,-91.912218,14.290674,3/5/21,10/15/20
311,311,NYSE,Hryvnia,#d22beb,5536 Vera Park,Kostyantynivka,,,Ukraine,37.7075811,48.5239429,6/8/21,1/30/21
312,312,NASDAQ,Ruble,#42e65a,4 Forest Dale Place,Vostryakovo,,141662,Russia,37.4429397,55.6613674,4/2/21,1/8/21
313,313,NASDAQ,Real,#310f86,68 School Road,Apodi,,59700-000,Brazil,-37.8512309,-5.6455578,9/28/20,7/12/21
314,314,NYSE,Shilling,#7d05cf,7965 International Parkway,Nanyuki,,,Kenya,37.0722303,0.0074415,12/22/20,10/21/20
315,315,NYSE,Krona,#3a3803,96 4th Pass,V√§rnamo,F,331 43,Sweden,14.0676645,57.1785037,5/21/21,1/2/21
316,316,NASDAQ,Sol,#57c956,66 Killdeer Park,Chinchaypujio,,,Peru,-72.232262,-13.6332,3/14/21,1/21/21
317,317,NASDAQ,Ruble,#707beb,86219 Eagan Road,Khrenovoye,,397743,Russia,40.28889,51.12,9/4/20,10/30/20
318,318,NYSE,Yuan Renminbi,#824b1a,9 Harper Trail,Shazhouba,,,China,116.00261,25.881342,2/25/21,6/19/21
319,319,NASDAQ,Peso,#392a13,60 Tony Pass,La Caya,,11503,Dominican Republic,-69.8627901,18.4849486,6/17/21,4/12/21
320,320,NYSE,Denar,#f82c19,2720 Gulseth Street,Pehƒçevo,,2326,Macedonia,22.887043,41.761923,10/11/20,9/1/20
321,321,NASDAQ,Sol,#de6116,808 Everett Alley,Lloque,,,Peru,-78.1546617,-8.2641378,11/24/20,12/6/20
322,322,NASDAQ,Euro,#b78265,1 Esker Center,Tampere,,33901,Finland,23.7382315,61.4559668,2/7/21,3/24/21
323,323,NASDAQ,Peso,#4c2355,17 Nancy Junction,San Vicente,,6419,Philippines,121.0589081,14.7596318,1/19/21,11/9/20
324,324,NYSE,Dollar,#8afd18,409 Paget Lane,Miami,FL,33175,United States,-80.3992652,25.7357116,5/11/21,3/29/21
325,325,NASDAQ,Yuan Renminbi,#cfc2c1,06560 Melby Junction,Yijiang,,,China,118.372655,31.311756,3/16/21,4/26/21
326,326,NYSE,Yuan Renminbi,#b7a57a,5595 Heffernan Terrace,Shixiang,,,China,120.1534039,30.3312397,9/22/20,8/31/20
327,327,NYSE,Yuan Renminbi,#69a77f,73223 Bowman Plaza,Dongli,,,China,117.314323,39.086569,4/28/21,10/1/20
328,328,NYSE,Koruna,#831a06,8236 Tomscot Center,ƒåerno≈°√≠n,,349 01,Czech Republic,12.8838251,49.8161454,11/13/20,10/22/20
329,329,NYSE,Real,#9abfac,7 Portage Point,Vi√ßosa do Cear√°,,62300-000,Brazil,-41.0919197,-3.5670807,10/13/20,6/11/21
330,330,NYSE,Som,#a797ea,735 Butterfield Crossing,Qo‚Äông‚Äôirot Shahri,,,Uzbekistan,58.84596,43.05207,6/21/21,8/10/21
331,331,NASDAQ,Dollar,#363c94,077 Merrick Point,Smoky Lake,AB,N8V,Canada,-112.4800499,54.1100086,8/20/20,2/13/21
332,332,NYSE,Yuan Renminbi,#8bbdea,51887 Gulseth Place,Ningdun,,,China,119.117626,30.456361,5/1/21,12/22/20
333,333,NASDAQ,Rupiah,#22f155,40201 Northfield Place,Sidoaji,,,Indonesia,112.6675398,-7.4726134,7/24/21,4/1/21
334,334,NASDAQ,Baht,#331ec3,29 Ohio Trail,Phutthaisong,,31120,Thailand,103.0241726,15.5678638,12/21/20,11/25/20
335,335,NYSE,Yuan Renminbi,#adf2b7,051 Elka Court,Zhitan,,,China,118.793215,28.7401,8/31/20,2/5/21
336,336,NASDAQ,Ruble,#e9d41e,14668 Utah Circle,Kortkeros,,168020,Russia,51.5568693,61.8171356,10/2/20,11/5/20
337,337,NYSE,Real,#74980e,40726 La Follette Junction,Forquilhinha,,88850-000,Brazil,-49.4745059,-28.7477963,9/23/20,12/23/20
338,338,NASDAQ,Shilling,#d0f17f,5 Clove Court,Bududa,,,Uganda,34.3338123,1.0029693,1/24/21,1/5/21
339,339,NASDAQ,Rupiah,#a99f2a,100 Everett Crossing,Asahbadung,,,Indonesia,115.16736,-8.665118,10/26/20,11/16/20
340,340,NYSE,Yuan Renminbi,#aec07b,673 Hazelcrest Lane,Shanghu,,,China,121.4737021,31.2303904,1/6/21,2/17/21
341,341,NYSE,Zloty,#3a1ce9,61 Gulseth Hill,Bukowina Tatrza≈Ñska,,34-530,Poland,20.1084256,49.3359789,5/13/21,10/2/20
342,342,NASDAQ,Peso,#d57fae,4679 Karstens Alley,Banawang,,2107,Philippines,120.4291289,15.9082382,3/24/21,12/17/20
343,343,NYSE,Rupiah,#aae7ff,18843 Rutledge Junction,Curahpacul Satu,,,Indonesia,114.288097,-8.4425528,1/16/21,9/21/20
344,344,NASDAQ,Yuan Renminbi,#968b88,0076 Leroy Point,Xitiangezhuang,,,China,116.771211,40.400903,7/31/21,5/3/21
345,345,NASDAQ,Dollar,#ab131f,11155 Pawling Road,Puyo,,,Ecuador,-78.0024134,-1.4923925,5/23/21,9/24/20
346,346,NYSE,Peso,#c95268,27566 Florence Center,Mercedes,,6808,Philippines,121.0307955,14.5634196,11/30/20,10/24/20
347,347,NASDAQ,Ruble,#d72c69,108 Graedel Court,Rodniki,,301086,Russia,82.9514853,55.1052515,8/5/21,2/12/21
348,348,NASDAQ,Euro,#c2273e,5902 Jenna Park,Mulhouse,C1,68064 CEDEX 3,France,7.540987,47.8215045,7/4/21,5/6/21
349,349,NASDAQ,Euro,#7a6322,26697 Clove Road,Senglea,,ZTN,Malta,14.51694,35.8875,12/13/20,9/10/20
350,350,NASDAQ,Ruble,#c6f0ce,37240 Claremont Hill,Khalopyenichy,,,Belarus,28.9587,54.5156,2/28/21,5/24/21
351,351,NASDAQ,Dong,#0dbca5,5640 Vidon Park,Minh Long,,,Vietnam,108.6888227,14.9659262,8/7/21,10/22/20
352,352,NYSE,Won,#e25441,66 Russell Street,Sunan,,,North Korea,125.6765362,39.2008462,4/17/21,1/19/21
353,353,NASDAQ,Peso,#cd6817,20056 Caliangt Terrace,Santa Lucia,,2712,Philippines,120.4557309,17.1056791,9/15/20,3/9/21
354,354,NYSE,Dinar,#cfef9f,181 Dryden Junction,‚ÄòIzrƒÅ,,,Jordan,36.2251116,32.8449406,8/18/20,7/22/21
355,355,NASDAQ,Peso,#24b538,2613 Nelson Lane,Haguimit,,6117,Philippines,125.7230302,7.0649018,12/14/20,6/25/21
356,356,NYSE,Peso,#b41f53,47 Texas Junction,Sangali,,1154,Philippines,122.2124068,7.0762776,2/25/21,11/7/20
357,357,NASDAQ,Peso,#b82793,0350 Surrey Center,Villa Santa Rita,,4600,Argentina,-58.4794508,-34.6204268,3/10/21,9/20/20
358,358,NASDAQ,Euro,#d0e5de,6 Service Avenue,Marly,B2,57155,France,6.154795,49.059828,9/2/20,6/22/21
359,359,NASDAQ,Peso,#bfef1b,1871 Prairieview Court,Villarrica,,,Chile,-72.2307798,-39.2820124,11/28/20,9/7/20
360,360,NASDAQ,Birr,#ec03b3,0495 Oakridge Center,Debre Tabor,,,Ethiopia,38.015522,11.8566874,4/20/21,11/12/20
361,361,NYSE,Dollar,#79b7ba,3048 Gale Street,Otjimbingwe,,,Namibia,16.1286901,-22.3531369,10/2/20,9/16/20
362,362,NASDAQ,Dollar,#a2a90f,8932 Grayhawk Way,Boise,ID,83727,United States,-117.7765895,33.6977944,3/21/21,12/6/20
363,363,NYSE,Yuan Renminbi,#60a205,7 Atwood Pass,Yankou,,,China,111.554576,27.644731,2/9/21,4/19/21
364,364,NYSE,Dollar,#ef4914,688 Jay Parkway,Oklahoma City,OK,73167,United States,-97.52,35.47,11/19/20,8/14/21
365,365,NYSE,Rand,#a8fa42,0041 Glacier Hill Hill,Plettenberg Bay,,6606,South Africa,23.3261801,-34.0896763,8/16/21,6/14/21
366,366,NYSE,Euro,#9343cb,23 Basil Road,V√°rzea,16,4950-221,Portugal,-8.4388534,42.0445765,3/11/21,7/27/21
367,367,NASDAQ,Real,#a0738b,7 Pond Way,Santa Cruz das Palmeiras,,13650-000,Brazil,-47.2484692,-21.8239574,4/23/21,2/7/21
368,368,NYSE,Franc,#16af57,16 Service Plaza,Matamey,,,Niger,8.4760154,13.4211757,8/25/20,6/14/21
369,369,NYSE,Zloty,#87a6e2,02648 Chinook Parkway,Kowalewo Pomorskie,,87-410,Poland,18.89802,53.15467,4/8/21,4/25/21
370,370,NYSE,Yuan Renminbi,#29fbc0,431 Meadow Valley Lane,Tiebiancheng,,,China,107.853926,36.990268,1/16/21,9/9/20
371,371,NYSE,Bolivar,#462370,33650 Claremont Parkway,Las Mercedes,,,Venezuela,-66.8603112,10.4816837,9/26/20,7/14/21
372,372,NASDAQ,Lek,#2fe623,71781 Shelley Terrace,Lunik,,,Albania,20.321945,41.2870015,4/22/21,6/2/21
373,373,NASDAQ,Koruna,#d56fac,876 Mayer Center,Jablonec nad Nisou,,466 01,Czech Republic,15.1765093,50.7193517,12/5/20,8/26/20
374,374,NASDAQ,Ouguiya,#3ff3d5,95845 5th Avenue,Kiffa,,,Mauritania,-11.4055282,16.6258353,5/24/21,12/7/20
375,375,NYSE,Euro,#52ed43,14 Sutteridge Court,Pameƒçe,,2383,Slovenia,15.0941863,46.5448561,7/29/21,7/8/21
376,376,NYSE,Euro,#b07580,8882 Farragut Circle,Creil,B6,60922 CEDEX 9,France,2.510652,49.243003,8/31/20,7/21/21
377,377,NASDAQ,Peso,#e53193,194 Mayfield Drive,Jamund√≠,,764008,Colombia,-76.5929658,3.1377116,7/31/21,7/19/21
378,378,NASDAQ,Krona,#be8ac0,912 Roth Way,R√∂nninge,AB,144 30,Sweden,17.7689811,59.2013654,6/13/21,6/2/21
379,379,NASDAQ,Euro,#4c99e8,8388 Clemons Junction,Igreja,31,9200-078,Portugal,-16.792927,32.735468,4/18/21,11/14/20
380,380,NASDAQ,Yuan Renminbi,#569a7b,72120 Onsgard Point,Xia Zanggor,,,China,100.695534,34.073572,9/26/20,8/8/21
381,381,NYSE,Metical,#359aa5,28358 Quincy Center,Chokw√©,,,Mozambique,32.9831998,-24.5323166,1/29/21,2/20/21
382,382,NASDAQ,Peso,#d4511a,208 Shasta Crossing,Torrijos,,4903,Philippines,122.0103514,13.3393279,2/27/21,12/21/20
383,383,NASDAQ,Yuan Renminbi,#ba0ce5,779 Vermont Point,Kangxung,,,China,90.081241,29.276219,7/27/21,6/4/21
384,384,NASDAQ,Zloty,#89566e,7460 Ridge Oak Park,Czerniewice,,97-216,Poland,20.1795118,51.6711341,8/4/21,5/4/21
385,385,NASDAQ,Dong,#2d07bc,2053 Bayside Circle,V≈© Quang,,,Vietnam,105.4771084,18.2865589,4/27/21,7/5/21
386,386,NASDAQ,Rupiah,#f8f246,49419 Barnett Way,Karangtengah,,,Indonesia,107.1781769,-6.8008183,4/18/21,2/22/21
387,387,NYSE,Koruna,#a4842b,62 Cardinal Hill,Zliv,,507 23,Czech Republic,15.230454,50.3616019,4/7/21,3/8/21
388,388,NYSE,Yuan Renminbi,#764981,5 Annamark Center,Shiniu,,,China,112.239446,27.375021,11/30/20,4/27/21
389,389,NASDAQ,Shekel,#c4e057,61 Forest Place,Jalqam≈´s,,,Palestinian Territory,35.364533,32.42465,1/28/21,9/1/20
390,390,NASDAQ,Sol,#5aa600,94 5th Plaza,Muquiyauyo,,,Peru,-75.4534081,-11.8163553,10/20/20,1/15/21
391,391,NASDAQ,Lari,#6fffef,08715 American Ash Center,Didi Lilo,,,Georgia,44.9621678,41.7260416,11/19/20,5/7/21
392,392,NASDAQ,Yuan Renminbi,#9a650d,188 Old Gate Road,Kongkeshu,,,China,110.345643,29.434465,3/15/21,8/18/20
393,393,NYSE,Rupiah,#940eea,54667 Bayside Crossing,Padaan,,,Indonesia,111.2994071,-6.9427755,2/11/21,2/25/21
394,394,NYSE,Rupiah,#28db23,61628 Brentwood Way,Beutong Ateuh,,,Indonesia,96.5249759,4.4613091,12/7/20,3/13/21
395,395,NYSE,Euro,#80df26,653 Toban Trail,Kajaani,,87900,Finland,27.5846719,64.0662338,7/5/21,6/21/21
396,396,NASDAQ,Peso,#b4aad3,77 Sunnyside Parkway,Barrancas,,443049,Colombia,-72.795543,10.9556419,8/1/21,11/14/20
397,397,NYSE,Rupee,#03b24a,4 Summit Pass,Kelaniya,,11600,Sri Lanka,79.9115522,6.9782137,9/10/20,2/2/21
398,398,NASDAQ,Euro,#de0aab,979 Anhalt Pass,Suure-Jaani,,,Estonia,25.4666818,58.5355022,2/9/21,7/27/21
399,399,NASDAQ,Zloty,#b22faa,35137 Green Ridge Hill,Chrzan√≥w,,32-503,Poland,20.9948039,50.404585,11/6/20,5/25/21
400,400,NASDAQ,Yuan Renminbi,#8b1241,04563 Clarendon Trail,Yangxunqiao,,,China,120.369051,30.146551,12/26/20,11/12/20
401,401,NASDAQ,Euro,#616ca2,4 Hanson Center,Lamas,3,4830-411,Portugal,-8.2639239,41.5488297,1/13/21,7/26/21
402,402,NYSE,Lempira,#c6f698,021 Lerdahl Point,San Vicente Centenario,,,Honduras,-88.2777465,14.8886565,10/10/20,2/15/21
403,403,NYSE,Tenge,#486202,8 Buena Vista Crossing,Balpyk Bƒ´,,,Kazakhstan,78.2166516,44.904219,10/13/20,11/8/20
404,404,NASDAQ,Ruble,#e24851,2 Karstens Way,Zakamensk,,671950,Russia,103.2816977,50.3713333,3/4/21,11/13/20
405,405,NASDAQ,Euro,#b9efe2,4811 Sachs Parkway,Lenningen,,L-5431,Luxembourg,6.3670151,49.6005751,2/23/21,12/5/20
406,406,NYSE,Peso,#b91b42,6111 Loeprich Parkway,Aliaga,,3111,Philippines,120.7990105,15.5754812,12/18/20,4/16/21
407,407,NASDAQ,Krone,#ce5f80,8 Haas Alley,Trondheim,16,7026,Norway,10.3070483,63.3772787,10/30/20,1/8/21
408,408,NYSE,Ruble,#cbfde6,5217 Haas Place,Trunovskoye,,356180,Russia,42.1414011,45.478943,1/20/21,2/2/21
409,409,NASDAQ,Boliviano,#ba9ffe,503 Fairfield Way,Concepci√≥n,,,Bolivia,-62.0399534,-16.131343,1/1/21,8/11/21
410,410,NASDAQ,Yuan Renminbi,#3088d0,7 Moose Crossing,Longguang,,,China,114.246899,22.720974,3/8/21,2/28/21
411,411,NASDAQ,Rupiah,#e0760d,58081 Ryan Center,Kertosari,,,Indonesia,114.3787108,-8.2334215,1/13/21,1/2/21
412,412,NASDAQ,Yen,#e08754,884 Union Avenue,Hiratach≈ç,,699-0644,Japan,136.2423721,35.2571984,5/21/21,7/13/21
413,413,NYSE,Zloty,#01248d,87831 Eagan Street,Chotcza,,81-035,Poland,21.4274273,51.1227795,9/13/20,1/19/21
414,414,NYSE,Birr,#a65f98,8876 Myrtle Plaza,ƒÄwash,,,Ethiopia,40.1631879,8.9917373,7/4/21,5/2/21
415,415,NASDAQ,Rial,#342755,29438 Ronald Regan Plaza,BƒÅfq,,,Iran,55.4139392,31.6216425,2/23/21,2/16/21
416,416,NASDAQ,Real,#6d1f4e,2169 Sunnyside Street,Mateus Leme,,35670-000,Brazil,-44.4370606,-20.017643,3/22/21,9/17/20
417,417,NASDAQ,Rupiah,#bfd3ce,115 Fairview Court,Oebai,,,Indonesia,124.1849,-9.9831,5/28/21,5/18/21
418,418,NYSE,Dollar,#d5d675,5573 Eagan Street,Pickering,ON,L1X,Canada,-79.1012197,43.8521146,7/15/21,6/30/21
419,419,NYSE,Quetzal,#1366c1,62 Sachs Pass,San Marcos,,12001,Guatemala,-91.79528,14.965327,12/2/20,4/15/21
420,420,NYSE,Rupiah,#139e65,3679 Knutson Terrace,Baki,,,Indonesia,110.7742709,-7.6144216,2/11/21,5/21/21
421,421,NASDAQ,Yuan Renminbi,#ecf20c,2 Bellgrove Avenue,Shangdongjie,,,China,109.998621,29.322952,11/6/20,6/22/21
422,422,NYSE,Rupiah,#c466b3,45 Northview Park,Pangkalan,,,Indonesia,111.622398,-2.688962,11/23/20,5/28/21
423,423,NYSE,Real,#61bf24,20092 Chive Street,Cacoal,,78975-000,Brazil,-61.4566885,-11.434693,3/19/21,11/8/20
424,424,NASDAQ,Yuan Renminbi,#61b97f,6800 Macpherson Hill,Songnan,,,China,103.604698,32.655325,12/3/20,5/10/21
425,425,NASDAQ,Euro,#81dd4f,80 Spaight Way,Reckange-sur-Mess,,L-4982,Luxembourg,6.0123531,49.5636147,8/27/20,12/10/20
426,426,NYSE,Denar,#ed56fe,67 David Junction,–°–∞—Ä–∞—ò,,1234,Macedonia,21.3431378,42.0011586,7/17/21,7/18/21
427,427,NYSE,Yuan Renminbi,#8b99f3,5301 South Circle,Yanqian,,,China,112.4852219,23.0706415,4/17/21,10/19/20
428,428,NASDAQ,Peso,#34a252,45328 6th Alley,El Aguacate,GRO,40687,Mexico,-98.189463,18.855626,10/23/20,3/25/21
429,429,NASDAQ,Marka,#86ca2e,803 Westridge Street,Gornje Mo≈°tre,,,Bosnia and Herzegovina,18.1535702,44.019172,12/14/20,8/3/21
430,430,NASDAQ,Sol,#ac573b,03446 Southridge Pass,Pampas Chico,,,Peru,-77.4,-10.116667,7/2/21,6/21/21
431,431,NYSE,Ringgit,#b8442f,69 Nevada Way,Kuching,SRW,93702,Malaysia,101.6716295,3.2093353,12/18/20,1/8/21
432,432,NYSE,Euro,#8cc66a,4 Sage Plaza,Cherbourg-Octeville,99,50109 CEDEX,France,-1.6272462,49.6355347,4/28/21,1/24/21
433,433,NASDAQ,Euro,#451dd5,51 Namekagon Court,Cuba,2,7940-006,Portugal,-7.888224,38.1661758,1/13/21,7/1/21
434,434,NYSE,Peso,#2360a6,9493 Oak Road,San Pedro,MEX,52140,Mexico,-99.1075731,19.2586779,4/17/21,10/13/20
435,435,NASDAQ,Yuan Renminbi,#8b4295,4336 Susan Circle,Niaohe,,,China,127.460685,45.90453,3/28/21,3/14/21
436,436,NASDAQ,Yuan Renminbi,#38918c,3221 American Ash Pass,Haoraoshan,,,China,112.52667,27.915008,5/14/21,8/12/21
437,437,NYSE,Ruble,#df0c34,3385 Fremont Court,Peresvet,,141364,Russia,38.1361325,56.3736264,11/21/20,4/24/21
438,438,NYSE,Dollar,#e8e743,3 Mendota Point,Makin Village,,,Kiribati,172.8,3.1166667,9/13/20,10/24/20
439,439,NASDAQ,Franc,#9ba6a5,858 Oak Valley Lane,Kinshasa,,,Democratic Republic of the Congo,15.2662931,-4.4419311,3/12/21,4/4/21
440,440,NASDAQ,Euro,#7ade63,7710 Vernon Park,Osnabr√ºck,NI,49082,Germany,8.0495294,52.2415583,7/2/21,8/5/21
441,441,NASDAQ,Sol,#99c38e,55 Lakewood Road,Chiara,,,Peru,-73.667793,-13.87016,8/9/21,6/5/21
442,442,NYSE,Ariary,#239c3d,10824 Clove Place,Ambato Boeny,,,Madagascar,46.7164256,-16.4708895,2/9/21,12/23/20
443,443,NASDAQ,Real,#d98af3,1 East Crossing,Morrinhos,,75650-000,Brazil,-49.1221414,-17.7178133,6/24/21,6/27/21
444,444,NYSE,Yuan Renminbi,#fe7f46,1526 Eggendart Place,Hai‚Äôan,,,China,120.467343,32.533573,2/1/21,9/13/20
445,445,NYSE,Zloty,#2e5015,893 Melvin Pass,Poniatowa,,24-320,Poland,22.0650878,51.192893,5/18/21,1/20/21
446,446,NYSE,Zloty,#346b95,3 Oak Circle,Micha≈Çowice,,05-816,Poland,20.8799274,52.1675198,7/22/21,9/22/20
447,447,NYSE,Yuan Renminbi,#af5fbf,39 Comanche Hill,Xinxu,,,China,114.333767,22.863502,9/19/20,5/9/21
448,448,NASDAQ,Krona,#303f6f,43737 Eagan Junction,Sollebrunn,O,466 92,Sweden,12.6443729,58.1214207,12/4/20,9/10/20
449,449,NYSE,Krone,#f03d1c,77 Melby Parkway,Porsgrunn,8,3912,Norway,9.6586061,59.1499143,12/10/20,3/31/21
450,450,NYSE,Yuan Renminbi,#bd8af6,2116 Farwell Point,Mazongling,,,China,111.034516,28.512467,11/19/20,7/28/21
451,451,NYSE,Yuan Renminbi,#083890,297 Drewry Street,Huangmei,,,China,115.944218,30.070453,3/15/21,8/18/20
452,452,NASDAQ,Yuan Renminbi,#8d84e8,9409 Maryland Place,Yunluo,,,China,116.083951,23.24772,3/21/21,5/28/21
453,453,NYSE,Euro,#e972cc,4760 7th Center,Nancy,B2,54039 CEDEX,France,6.17445,48.689836,1/11/21,1/29/21
454,454,NASDAQ,Yuan Renminbi,#7a216b,97959 Ryan Park,Yiwa,,,China,120.07514,29.306756,10/27/20,1/10/21
455,455,NASDAQ,Yuan Renminbi,#a4df59,59120 Rockefeller Center,Aba,,,China,102.224653,31.899413,9/3/20,6/1/21
456,456,NASDAQ,Euro,#675fed,23 3rd Drive,Jardoeira,10,2440-370,Portugal,-8.8344377,39.6678843,1/3/21,9/8/20
457,457,NASDAQ,Zloty,#fc6d14,59967 Hazelcrest Point,Chwaszczyno,,80-209,Poland,18.4025756,54.4265348,4/25/21,6/20/21
458,458,NASDAQ,Yuan Renminbi,#251f52,32950 Lawn Trail,Wushi,,,China,120.31191,31.491169,11/7/20,1/1/21
459,459,NASDAQ,Sol,#2a0766,62691 Duke Trail,Cojata,,,Peru,-69.3667194,-15.0139992,6/4/21,5/10/21
460,460,NASDAQ,Shekel,#d22388,1 Amoth Crossing,‚ÄòIbwayn,,,Palestinian Territory,35.19992,32.03144,2/7/21,10/17/20
461,461,NASDAQ,Zloty,#b9895e,6621 Pennsylvania Trail,Bia≈Ço≈Çeka,,05-094,Poland,20.941429,52.3366443,8/16/21,5/15/21
462,462,NASDAQ,Peso,#bafa67,00193 Briar Crest Trail,Barobo,,8309,Philippines,126.121732,8.5211284,10/30/20,10/22/20
463,463,NASDAQ,Yuan Renminbi,#537bad,03 Autumn Leaf Point,Gancheng,,,China,120.16366,33.347316,1/6/21,10/6/20
464,464,NYSE,Ruble,#dfcc84,162 Lien Place,Kirovskaya,,353276,Russia,38.1546279,55.5834553,4/17/21,9/9/20
465,465,NYSE,Yuan Renminbi,#66f014,387 Crowley Parkway,Changshan,,,China,118.511235,28.901462,7/27/21,4/10/21
466,466,NASDAQ,Yen,#edda18,0 Dennis Way,Komono,,811-3122,Japan,130.5200852,33.7311229,8/6/21,1/14/21
467,467,NYSE,Zloty,#1924ac,6 Manufacturers Avenue,S≈Çubice,,69-101,Poland,14.5610119,52.354402,8/20/20,11/12/20
468,468,NYSE,Balboa,#d8da88,94908 Westridge Lane,R√≠o Sereno,,,Panama,-82.864463,8.8287071,1/2/21,8/3/21
469,469,NASDAQ,Rupiah,#91da3a,67 Emmet Avenue,Ngreco,,,Indonesia,112.4455374,-8.1392189,7/24/21,3/27/21
470,470,NYSE,Ruble,#bbf660,70517 Bellgrove Parkway,Reshetikha,,606093,Russia,43.29085,56.213277,11/12/20,5/7/21
471,471,NYSE,Real,#65f1c7,1409 Commercial Place,Coari,,69460-000,Brazil,-64.7162415,-4.8798602,3/4/21,10/13/20
472,472,NASDAQ,Yuan Renminbi,#fa5750,58724 Gale Circle,Songying,,,China,118.674614,37.433963,5/1/21,8/1/21
473,473,NASDAQ,Yuan Renminbi,#2a6b62,3 Melrose Street,Gongjiahe,,,China,105.272756,32.585342,4/8/21,12/20/20
474,474,NASDAQ,Rupiah,#63466a,9250 Nelson Place,Mlonggo,,,Indonesia,110.7095788,-6.5277643,8/27/20,9/4/20
475,475,NYSE,Yuan Renminbi,#cf09e3,30 Loftsgordon Center,Miaojie,,,China,114.4109921,27.6673175,8/4/21,10/5/20
476,476,NASDAQ,Yuan Renminbi,#bc9047,94 Buena Vista Point,Yonglong,,,China,115.935862,25.416658,10/24/20,7/20/21
477,477,NYSE,Yuan Renminbi,#55aa15,8 Holmberg Court,Dongjiang Matoukou,,,China,118.45323,31.5977,1/28/21,1/30/21
478,478,NYSE,Rial,#3e13d3,8 Hayes Junction,Manwakh,,,Yemen,48.10917,16.80778,4/30/21,6/5/21
479,479,NYSE,Naira,#aed949,8 Twin Pines Plaza,Kaura Namoda,,,Nigeria,6.5863469,12.5951892,3/9/21,8/7/21
480,480,NASDAQ,Boliviano,#7314fa,26379 Barby Parkway,Concepci√≥n,,,Bolivia,-62.0399534,-16.131343,12/11/20,12/1/20
481,481,NYSE,Euro,#239959,2853 Little Fleur Center,√âvry,A8,91914 CEDEX 9,France,2.4381665,48.6277459,7/12/21,7/26/21
482,482,NYSE,Peso,#841fef,22274 Scott Point,Colos√≥,,707037,Colombia,-75.3761952,9.5113187,1/7/21,2/10/21
483,483,NYSE,Peso,#b1f335,37256 Bunker Hill Street,Basco,,3900,Philippines,121.9685567,20.448773,4/21/21,1/21/21
484,484,NYSE,Franc,#cb82e0,0783 8th Plaza,Planken,,9498,Liechtenstein,9.5678116,47.1792078,10/1/20,5/5/21
485,485,NASDAQ,Euro,#252c41,0 John Wall Terrace,Fir√°,,,Greece,25.432447,36.4166485,6/23/21,4/25/21
486,486,NASDAQ,Koruna,#b09f6a,20495 Cherokee Trail,Kl√°≈°terec nad Oh≈ô√≠,,431 51,Czech Republic,13.1712929,50.3844613,3/25/21,7/12/21
487,487,NYSE,Peso,#b11ac9,95875 Ridge Oak Avenue,Mendez-Nu√±ez,,4221,Philippines,120.9054436,14.1285009,12/23/20,3/27/21
488,488,NASDAQ,Quetzal,#34852d,94 Hanover Road,Chisec,,18006,Guatemala,-90.290544,15.809627,11/18/20,4/10/21
489,489,NASDAQ,Baht,#3cfc6a,734 Pleasure Parkway,Chom Bueng,,70150,Thailand,99.6118667,13.6119882,7/12/21,11/9/20
490,490,NYSE,Yuan Renminbi,#a1304a,87058 Schiller Court,Zangzhai,,,China,113.870916,34.068191,3/3/21,10/8/20
491,491,NYSE,Yuan Renminbi,#4b6d8b,82 Rutledge Way,Laojun,,,China,111.648408,33.755453,4/10/21,2/1/21
492,492,NYSE,Marka,#84fa88,7910 Jay Park,Maglajani,,,Bosnia and Herzegovina,17.3583673,44.9532375,11/12/20,4/27/21
493,493,NASDAQ,Pound,#fb0ef9,3384 Mayer Street,Sheffield,ENG,S1,United Kingdom,-1.4730092,53.3788422,3/14/21,12/23/20
494,494,NASDAQ,Yuan Renminbi,#5d3bc5,57 Warrior Hill,Chahe,,,China,108.957345,19.238934,7/1/21,3/22/21
495,495,NYSE,Pound,#fd4d08,253 Mcbride Crossing,Mu·∏©radah,,,Syria,36.5715924,35.2487361,5/21/21,4/24/21
496,496,NASDAQ,Ruble,#55174a,79 Dayton Lane,Mnogoudobnoye,,416305,Russia,132.46674,43.46802,8/21/20,2/10/21
497,497,NASDAQ,Hryvnia,#790e05,9 Maple Wood Trail,Lysyanka,,,Ukraine,30.830724,49.2626871,1/22/21,6/14/21
498,498,NASDAQ,Euro,#c4539a,0406 Dennis Road,Daugavpils,,,Latvia,26.536179,55.874736,11/2/20,10/26/20
499,499,NYSE,Yuan Renminbi,#5d5e35,5 Eliot Alley,Linjiang,,,China,126.918087,41.811979,8/18/20,9/1/20
500,500,NASDAQ,Ruble,#4146c8,9562 Meadow Vale Lane,Tomsk,,634069,Russia,84.950397,56.484419,10/3/20,9/12/20
501,501,NYSE,Ruble,#87620a,5 Thierer Hill,Zabaykal‚Äôsk,,665259,Russia,113.5177301,52.029753,7/21/21,12/22/20
502,502,NASDAQ,Rupiah,#85b642,2928 Rusk Trail,Wates,,,Indonesia,110.1434668,-7.893728,2/16/21,1/22/21
503,503,NYSE,Dollar,#531224,55668 Crescent Oaks Circle,Sacramento,CA,94207,United States,-121.45,38.6,4/22/21,1/3/21
504,504,NYSE,Yuan Renminbi,#520f5a,8 Burning Wood Place,Jialu,,,China,8.2894205,47.1666507,11/18/20,2/20/21
505,505,NYSE,Rupiah,#04b1bf,43467 Grim Drive,Gombong,,,Indonesia,109.5151561,-7.6052823,6/10/21,3/5/21
506,506,NYSE,Real,#4bd0bc,9311 Fuller Center,Rio das Pedras,,13390-000,Brazil,-47.6063666,-22.8481591,10/15/20,3/18/21
507,507,NYSE,Zloty,#cda032,0858 Claremont Lane,Stare Miasto,,62-571,Poland,18.2293232,52.1327312,4/25/21,2/1/21
508,508,NYSE,Balboa,#446c80,806 Mayfield Hill,San Francisco,,,Panama,-79.5069436,8.9924711,2/23/21,1/2/21
509,509,NYSE,Rupiah,#8c6a0f,26 2nd Court,Sapat,,,Indonesia,103.3702811,-0.3372032,9/22/20,3/6/21
510,510,NASDAQ,Shekel,#63f06c,4006 Drewry Terrace,Bƒ´r NabƒÅlƒÅ,,,Palestinian Territory,35.200835,31.851182,7/26/21,1/9/21
511,511,NYSE,Yuan Renminbi,#168afa,47 Ryan Parkway,Leiwang,,,China,107.781956,22.066171,8/2/21,4/18/21
512,512,NASDAQ,Franc,#7c6e79,58754 Forest Pass,Douentza,,,Mali,-2.9550619,15.0045218,3/15/21,8/19/20
513,513,NASDAQ,Marka,#77b44e,2010 Colorado Lane,Donja Dubica,,,Bosnia and Herzegovina,18.3957811,45.0818466,7/17/21,9/16/20
514,514,NYSE,Shilling,#84790f,53280 Saint Paul Park,Busia,,,Kenya,34.1114621,0.4607691,7/1/21,3/19/21
515,515,NASDAQ,Yen,#f847b5,82228 Waubesa Point,Nagano-shi,,389-1227,Japan,138.1877051,36.6589921,1/29/21,5/6/21
516,516,NYSE,Yuan Renminbi,#365f89,016 Service Road,Hexi,,,China,117.223371,39.109563,6/1/21,7/17/21
517,517,NYSE,Ruble,#7c099e,3 Homewood Trail,Volkhovskiy,,173501,Russia,32.3469693,59.903525,8/14/21,11/15/20
518,518,NASDAQ,Euro,#8fa7e3,8 Moulton Parkway,N√©a Ankh√≠alos,,,Greece,22.818555,39.2759274,8/1/21,9/12/20
519,519,NYSE,Yuan Renminbi,#8d1902,50 Hauk Park,Gaoqiao,,,China,108.249509,31.364902,4/6/21,6/29/21
520,520,NASDAQ,Rupiah,#6e6394,34255 Gulseth Trail,Pangawaren,,,Indonesia,108.8640607,-7.3897541,1/28/21,4/18/21
521,521,NASDAQ,Rupiah,#2369c5,009 Michigan Avenue,Ganggawang,,,Indonesia,108.8343538,-7.1697343,6/18/21,11/30/20
522,522,NYSE,Peso,#2fa786,500 Kensington Pass,Cerinza,,150627,Colombia,-72.9489509,5.95661,2/25/21,4/16/21
523,523,NYSE,Yuan Renminbi,#3bae3f,24 Sutherland Place,Yangmingbu,,,China,112.882158,39.013668,7/5/21,10/3/20
524,524,NYSE,Rial,#4f950a,4650 Redwing Plaza,NajrƒÅn,,,Saudi Arabia,44.2289441,17.5656036,11/8/20,5/22/21
525,525,NASDAQ,Peso,#09898b,719 Kingsford Alley,Azul,,7300,Argentina,-58.6040349,-34.7796334,4/9/21,10/19/20
526,526,NYSE,Rial,#06555b,38 5th Terrace,≈ûa·∏©am,,,Oman,56.8648473,24.1539162,6/6/21,6/12/21
527,527,NASDAQ,Real,#05154e,26 Leroy Trail,Itapuranga,,76680-000,Brazil,-49.9417277,-15.5544752,10/9/20,6/1/21
528,528,NYSE,Yuan Renminbi,#af492d,4 Sutteridge Road,Shangshaleng,,,China,102.822686,36.035581,6/21/21,6/15/21
529,529,NYSE,Hryvnia,#2df74d,34 Birchwood Avenue,Utkivka,,,Ukraine,36.0269813,49.7938443,5/17/21,6/27/21
530,530,NYSE,Peso,#9ec1d7,68575 Meadow Ridge Pass,Gandara,,6706,Philippines,124.815974,12.013045,1/6/21,2/22/21
531,531,NYSE,Ruble,#9aec53,0267 Sachs Trail,Novaya Chigla,,397473,Russia,40.4794612,51.2221617,10/3/20,3/21/21
532,532,NYSE,Yuan Renminbi,#40da2a,06800 Melrose Road,Datong,,,China,113.300129,40.076762,12/3/20,6/25/21
533,533,NYSE,Yuan Renminbi,#317538,9179 Porter Plaza,Yanglong,,,China,108.084731,34.272117,12/13/20,9/18/20
534,534,NYSE,Yuan Renminbi,#2d50d1,02636 Helena Terrace,Liyuan,,,China,-90.3766634,38.5067706,3/30/21,7/3/21
535,535,NYSE,Ruble,#8c84cc,660 Hoffman Way,Starobelokurikha,,659633,Russia,85.08765,52.05206,8/8/21,11/7/20
536,536,NYSE,Yuan Renminbi,#4b14f6,185 Scott Plaza,Balin,,,China,104.964912,24.541563,12/8/20,8/8/21
537,537,NYSE,Rial,#f54ae1,6153 Cottonwood Trail,Neyrƒ´z,,,Iran,54.3139277,29.1893104,5/28/21,4/8/21
538,538,NYSE,Ruble,#c00943,544 Florence Drive,Devitsa,,397815,Russia,39.1184143,51.0762426,5/18/21,9/8/20
539,539,NASDAQ,Zloty,#5a57c6,58097 Eagle Crest Street,Chodzie≈º,,64-800,Poland,16.9198184,52.995267,1/10/21,5/12/21
540,540,NYSE,Dong,#b0e25b,8989 Coleman Junction,Nam S√°ch,,,Vietnam,106.3346061,20.995464,7/26/21,9/12/20
541,541,NASDAQ,Euro,#9b2358,5 Blaine Point,Venlo,5,5904,Netherlands,6.1747875,51.3731898,12/27/20,1/10/21
542,542,NYSE,Peso,#e3e1a8,9 Utah Circle,Santa Cruz,,5105,Philippines,120.7213113,13.0748879,1/17/21,4/29/21
543,543,NASDAQ,Peso,#86a787,68 Packers Place,Barrancas,,443049,Colombia,-72.795543,10.9556419,9/10/20,3/15/21
544,544,NYSE,Peso,#fff255,4 Mcbride Plaza,Corcuera,,5514,Philippines,122.0553349,12.8074809,10/6/20,5/15/21
545,545,NASDAQ,Euro,#e7412e,1 Oriole Lane,Cashel,,E25,Ireland,-7.888894,52.516323,9/19/20,10/15/20
546,546,NYSE,Dollar,#f3e45b,7159 Dapin Center,Beausejour,MB,M1C,Canada,-96.51669,50.0622,6/2/21,9/29/20
547,547,NASDAQ,Dollar,#4ba773,39795 Service Alley,San Antonio,TX,78220,United States,-98.3910127,29.4143476,3/16/21,5/18/21
548,548,NYSE,Yuan Renminbi,#4f8368,891 Eagan Drive,Dasiping,,,China,124.719659,41.318142,1/23/21,1/24/21
549,549,NYSE,Yuan Renminbi,#c97f97,50672 Monument Circle,Dingjia,,,China,125.1344298,46.5807254,5/25/21,5/5/21
550,550,NYSE,Euro,#a29a40,611 Hanover Street,Tullyallen,,E25,Ireland,-6.4241156,53.7369009,4/22/21,1/1/21
551,551,NYSE,Yuan Renminbi,#0fcf6d,29728 International Trail,Lujing Zhen,,,China,104.562412,34.319658,7/25/21,12/3/20
552,552,NYSE,Krona,#5073a7,5 Fremont Drive,Link√∂ping,E,582 31,Sweden,15.6066694,58.4172101,10/31/20,3/22/21
553,553,NYSE,Zloty,#c2352f,0 Hanover Hill,Sierpc,,09-200,Poland,19.669432,52.8568142,11/8/20,1/6/21
554,554,NYSE,Dram,#5bafac,68 Magdeline Point,Ddmashen,,,Armenia,44.8157566,40.5684068,4/8/21,5/13/21
555,555,NYSE,Ruble,#95590f,764 Butterfield Alley,Sosnovo-Ozerskoye,,612955,Russia,111.54124,52.52466,4/28/21,4/10/21
556,556,NYSE,Euro,#8683ed,867 Mendota Way,Apeldoorn,3,7319,Netherlands,5.9938487,52.2313764,9/22/20,2/4/21
557,557,NASDAQ,Krona,#8c31b8,95 Morning Park,Kalmar,H,391 21,Sweden,13.5973884,55.3964727,9/24/20,1/3/21
558,558,NYSE,Rupiah,#aab62a,101 Corry Court,Bambor,,,Indonesia,110.389141,-6.987312,2/11/21,10/21/20
559,559,NYSE,Rupiah,#b8ba08,27 Dahle Terrace,Tlogosadang,,,Indonesia,112.438087,-6.8931581,9/4/20,6/20/21
560,560,NYSE,Birr,#9b9f47,1602 Forest Court,Bichena,,,Ethiopia,38.2031762,10.4477737,1/9/21,12/8/20
561,561,NYSE,Yuan Renminbi,#c95e79,5945 Gateway Way,Bailiang,,,China,121.597823,31.266878,10/22/20,1/27/21
562,562,NYSE,Yuan Renminbi,#83bc9d,3262 Dexter Center,Shangjing,,,China,114.522393,24.390595,11/30/20,6/4/21
563,563,NYSE,Rupiah,#1428b3,81 Leroy Drive,Jembangan,,,Indonesia,109.7680967,-7.6629639,10/9/20,10/5/20
564,564,NASDAQ,Yuan Renminbi,#b987d9,38768 Nevada Trail,Xijiang,,,China,112.3810562,22.8387258,4/3/21,8/23/20
565,565,NYSE,Rial,#17032e,6091 Merry Circle,Abha,,,Saudi Arabia,42.5117238,18.2464685,3/27/21,7/21/21
566,566,NASDAQ,Rand,#9b54a0,96 Jenna Trail,Jeffrey‚Äôs Bay,,6332,South Africa,24.9116378,-34.0803725,6/28/21,8/30/20
567,567,NYSE,Krone,#133a0f,516 Dennis Plaza,Haugesund,11,5532,Norway,5.2978064,59.412262,6/8/21,5/26/21
568,568,NASDAQ,Real,#f5d710,90482 Superior Drive,Gaspar,,89110-000,Brazil,-48.9561869,-26.9265749,5/11/21,8/31/20
569,569,NASDAQ,Peso,#c61764,6627 Marcy Hill,Crespo,,3116,Argentina,-60.6752261,-32.968211,2/9/21,11/7/20
570,570,NASDAQ,Yuan Renminbi,#b52b58,53602 Bunting Lane,Caotan,,,China,-79.8567326,36.1296961,5/16/21,11/16/20
571,571,NYSE,Krona,#52f1f5,1904 Meadow Valley Parkway,Eksj√∂,F,575 35,Sweden,14.9774312,57.6734233,12/30/20,8/31/20
572,572,NYSE,Sol,#6cfabd,1 Maple Wood Hill,Molinos,,,Peru,-75.444669,-11.7382104,7/7/21,1/16/21
573,573,NYSE,Dirham,#9c7eee,411 Bartelt Center,Tata,,,Morocco,-7.9756343,29.750877,5/27/21,7/28/21
574,574,NYSE,Rupiah,#0977db,57 Jay Trail,Krajan Tengah,,,Indonesia,107.4552608,-6.4031324,9/13/20,5/1/21
575,575,NASDAQ,Krona,#1c658a,5446 Ruskin Road,Solna,AB,169 05,Sweden,18.0191452,59.3525393,11/14/20,7/23/21
576,576,NYSE,Yuan Renminbi,#45b4f6,9 Macpherson Trail,Qijing,,,China,103.796167,25.489999,9/22/20,6/27/21
577,577,NASDAQ,Hryvnia,#1f0bb6,7 Merry Crossing,Svalyava,,,Ukraine,22.9948916,48.5428567,6/5/21,8/26/20
578,578,NYSE,Cordoba,#be73bd,9 Forest Crossing,Yalag√ºina,,,Nicaragua,-86.4920736,13.4817182,3/19/21,12/25/20
579,579,NYSE,Yuan Renminbi,#d7e3b7,998 Lakeland Hill,Xijiao,,,China,116.3397725,39.9947462,12/26/20,11/15/20
580,580,NASDAQ,Rupiah,#56e671,8 Redwing Terrace,Waimangura,,,Indonesia,119.2262667,-9.4964,8/30/20,5/7/21
581,581,NASDAQ,Peso,#c84bbc,42715 Walton Terrace,Tagakpan,,8427,Philippines,125.4704601,7.0708519,9/6/20,1/16/21
582,582,NASDAQ,Euro,#805a9c,994 Brown Way,Paris 13,A8,75623 CEDEX 13,France,5.8978018,43.4945737,5/16/21,12/7/20
583,583,NASDAQ,Zloty,#c73c3d,06307 Fisk Drive,Rudka,,17-123,Poland,22.6886729,52.7301035,11/4/20,7/10/21
584,584,NASDAQ,Euro,#5772a7,2 Maple Wood Alley,Selmes,2,7960-155,Portugal,-7.7618365,38.1454503,6/1/21,12/15/20
585,585,NASDAQ,Dinar,#170aab,5325 Hanson Street,Ma'an,,,Jordan,35.7249409,30.1926637,7/16/21,5/1/21
586,586,NASDAQ,Peso,#1996e9,96448 Fairfield Crossing,Chicoana,,4423,Argentina,-65.5381671,-25.1042007,11/25/20,1/26/21
587,587,NASDAQ,Yuan Renminbi,#bc9eef,6 Mockingbird Pass,Qingyun,,,China,117.385256,37.775349,5/31/21,9/8/20
588,588,NYSE,Tugrik,#267908,33682 Jackson Plaza,Chandmanƒ≠,,,Mongolia,97.9685657,45.3369621,3/30/21,11/30/20
589,589,NASDAQ,Lempira,#ff9737,49627 Rieder Junction,La Guata,,,Honduras,-86.4174653,15.081635,11/24/20,2/25/21
590,590,NASDAQ,Hryvnia,#02b207,943 Waxwing Circle,Kamennyye Potoki,,,Ukraine,33.52638,48.97974,6/23/21,1/1/21
591,591,NASDAQ,Yen,#21ad57,4178 Arizona Lane,Kasukabe,,344-0061,Japan,139.7460429,35.981548,10/8/20,2/19/21
592,592,NYSE,Yuan Renminbi,#3717d8,85278 Dryden Junction,Tanglag,,,China,99.44638,33.9973,10/9/20,11/24/20
593,593,NYSE,Euro,#df87c3,6188 Petterle Park,Vigo,GA,36205,Spain,-8.7026991,42.229169,11/26/20,11/3/20
594,594,NASDAQ,Yuan Renminbi,#9dbbda,81780 Old Shore Circle,Tangzhuang,,,China,119.745363,32.770894,8/1/21,4/12/21
595,595,NASDAQ,Rial,#d663d3,65818 Oriole Court,VarazqƒÅn,,,Iran,46.1117612,38.6754819,9/18/20,4/19/21
596,596,NYSE,Peso,#6a94c5,5893 Moland Crossing,Matingain,,4211,Philippines,120.88006,13.9129,7/4/21,4/6/21
597,597,NYSE,Rupiah,#7256ba,45 Barnett Center,Oeleu,,,Indonesia,124.536223,-9.9678,6/13/21,3/4/21
598,598,NASDAQ,Yuan Renminbi,#db8e98,2 Scofield Hill,Zhenjiang,,,China,119.425836,32.187849,10/10/20,10/24/20
599,599,NASDAQ,Euro,#ef2771,11649 Mcbride Parkway,Caen,99,14030 CEDEX 4,France,-0.4440154,49.2221045,4/9/21,4/20/21
600,600,NYSE,Dollar,#04b8b5,7928 Debra Junction,Selkirk,MB,R1A,Canada,-96.8791564,50.1369112,11/11/20,7/27/21
601,601,NYSE,Yuan Renminbi,#18af4e,7 Dahle Plaza,Kuilehe,,,China,124.364153,49.548202,12/26/20,2/10/21
602,602,NASDAQ,Franc,#d883a1,07926 Columbus Crossing,H√©roumbili,,,Comoros,43.3885797,-11.5459875,2/6/21,5/14/21
603,603,NASDAQ,Real,#e501e5,6 Corscot Way,Itaperu√ßu,,83560-000,Brazil,-49.5076392,-25.1169056,7/22/21,8/6/21
604,604,NYSE,Yuan Renminbi,#0c83c5,5537 Ryan Lane,Baihe,,,China,110.112629,32.809026,10/30/20,4/25/21
605,605,NYSE,Peso,#71277e,64093 Victoria Park,Bahay Pare,,3007,Philippines,121.0137786,14.7690395,6/29/21,3/25/21
606,606,NYSE,Quetzal,#d228f3,73 Pearson Crossing,Concepci√≥n Tutuapa,,12006,Guatemala,-91.8440552,15.2402083,8/26/20,8/24/20
607,607,NYSE,Ruble,#2ad010,5896 Nova Plaza,Yubileynyy,,618284,Russia,86.1268949,55.3440711,5/24/21,8/2/21
608,608,NASDAQ,Euro,#337ee4,56 Norway Maple Point,Penalva de Alva,6,3400-548,Portugal,-7.8256005,40.336837,4/9/21,7/22/21
609,609,NASDAQ,Hryvnia,#05eb61,837 Arizona Pass,Nevyts‚Äôke,,,Ukraine,22.3927591,48.6769923,5/2/21,6/22/21
610,610,NASDAQ,Dollar,#890396,93365 Main Drive,Stockton,CA,95205,United States,-121.2569138,37.9642589,9/13/20,2/5/21
611,611,NYSE,Rupiah,#e1d944,6 Graceland Trail,Karanggeneng,,,Indonesia,110.5933862,-7.5173045,3/1/21,6/18/21
612,612,NASDAQ,Euro,#7ffc69,0628 Grayhawk Street,Vannes,A2,56019 CEDEX,France,-2.7524402,47.6651939,10/30/20,6/17/21
613,613,NASDAQ,Lek,#b9efc9,56309 Dottie Drive,Trebisht-Mu√ßin√´,,,Albania,20.53556,41.41111,4/7/21,12/21/20
614,614,NYSE,Rupiah,#64b9ea,631 Hazelcrest Junction,Duwaktenggi,,,Indonesia,113.5265,-7.1108,1/1/21,10/16/20
615,615,NASDAQ,Rupiah,#8aa5e0,9 Packers Junction,Kenyau,,,Indonesia,114.4108587,-1.4580748,5/26/21,9/29/20
616,616,NYSE,Euro,#f6b8bb,5 Clarendon Junction,M√∂nchengladbach,NW,41199,Germany,6.4449432,51.1329676,12/31/20,8/11/21
617,617,NYSE,Euro,#c6c273,50776 Huxley Lane,Colmar,C1,68004 CEDEX,France,7.3469006,48.0724737,7/9/21,3/15/21
618,618,NYSE,Yuan Renminbi,#56eaa7,9355 Anhalt Way,Renhe,,,China,101.738528,26.497765,10/29/20,12/13/20
619,619,NYSE,Yuan Renminbi,#15ae82,582 Charing Cross Terrace,Youzha,,,China,118.382379,30.673618,2/1/21,10/29/20
620,620,NASDAQ,Peso,#83b396,57 Banding Crossing,Malangabang,,1079,Philippines,123.2062,11.2367,7/11/21,5/28/21
621,621,NYSE,Yuan Renminbi,#6fe2ef,06 Monument Plaza,Guanban,,,China,119.677154,26.308284,6/27/21,11/22/20
622,622,NYSE,Rupiah,#53b1f5,2437 Weeping Birch Road,Pasir,,,Indonesia,109.0334318,0.4167052,6/8/21,9/9/20
623,623,NYSE,Yuan Renminbi,#77b144,773 Meadow Valley Road,Shuguang,,,China,121.591843,31.186433,11/7/20,3/17/21
624,624,NASDAQ,Peso,#256158,14540 Forest Run Place,Los Andes,,,Chile,-70.5972179,-32.8337995,12/9/20,8/13/21
625,625,NYSE,Euro,#c54beb,08178 Cardinal Lane,L-Iklin,,ZTN,Malta,14.45415,35.90414,8/21/20,3/30/21
626,626,NYSE,Lempira,#e54fad,24 Morning Road,San Esteban,,,Honduras,-85.7692277,15.2120303,9/18/20,7/30/21
627,627,NASDAQ,Yuan Renminbi,#fede9d,3 Marquette Road,Aihua,,,China,116.325077,39.8909584,6/16/21,2/22/21
628,628,NASDAQ,Yen,#348196,2 Fieldstone Place,T≈çkamachi,,949-8612,Japan,138.8255274,37.1448926,5/28/21,1/2/21
629,629,NYSE,Yuan Renminbi,#a9277d,21783 Bluejay Avenue,Yebaishou,,,China,100.222545,26.641315,3/21/21,2/21/21
630,630,NASDAQ,Shilling,#aedffe,496 Erie Trail,Serere,,,Uganda,33.5490078,1.4994033,6/18/21,7/14/21
631,631,NASDAQ,Zloty,#6145f0,1 New Castle Street,Rƒôczno,,97-510,Poland,19.877027,51.2217758,1/12/21,4/6/21
632,632,NASDAQ,Sol,#50763f,37570 Rutledge Crossing,Huacrachuco,,,Peru,-77.068703,-8.637081,3/28/21,10/20/20
633,633,NYSE,Rupiah,#ed89e4,7 Marquette Street,Dampit,,,Indonesia,112.7509656,-8.2298682,2/27/21,3/14/21
634,634,NYSE,Ruble,#6e38cc,80615 Johnson Drive,Velikiy Ustyug,,162399,Russia,46.4179523,60.7099757,4/7/21,6/30/21
635,635,NYSE,Koruna,#beb018,56052 Coolidge Way,≈Ωelezn√Ω Brod,,468 22,Czech Republic,15.2540856,50.64274,3/8/21,1/12/21
636,636,NASDAQ,Dram,#df79cf,772 Oakridge Road,Gogaran,,,Armenia,44.1992229,40.894048,5/6/21,9/2/20
637,637,NYSE,Yuan Renminbi,#c52256,2 Butternut Street,Tieling,,,China,123.726035,42.223828,5/19/21,1/21/21
638,638,NYSE,Real,#6b2028,2 Coleman Hill,Ribeir√£o Pires,,09400-000,Brazil,-46.4140801,-23.7130018,1/16/21,4/16/21
639,639,NASDAQ,Peso,#a9a530,0 Goodland Point,Pio Duran,,5046,Philippines,123.4584998,13.0710293,7/31/21,11/5/20
640,640,NASDAQ,Ruble,#0b350a,94 Oak Avenue,Kikerino,,188420,Russia,29.6278481,59.464182,3/4/21,5/6/21
641,641,NYSE,Euro,#9dfafc,15 Riverside Road,Paris 02,A8,75104 CEDEX 02,France,5.8978018,43.4945737,9/18/20,7/21/21
642,642,NASDAQ,Yuan Renminbi,#383844,81 Forest Run Avenue,Shagang,,,China,120.6442839,31.9703701,6/28/21,8/30/20
643,643,NYSE,Yuan Renminbi,#8cd589,5 Anhalt Hill,Guanjiabao,,,China,112.891988,40.179599,5/2/21,11/20/20
644,644,NASDAQ,Euro,#124278,65 Truax Trail,St√≠rion,,,Greece,22.71667,38.4,10/24/20,4/25/21
645,645,NASDAQ,Yuan Renminbi,#7dadb8,4361 Barnett Court,Mori,,,China,90.286028,43.834689,8/19/20,2/16/21
646,646,NYSE,Yuan Renminbi,#19e378,69994 Dayton Hill,Bailizhou,,,China,111.81127,30.400907,4/27/21,9/5/20
647,647,NYSE,Dollar,#55447b,2 Acker Point,Calgary,AB,T3S,Canada,-113.8998131,50.9359639,11/19/20,6/1/21
648,648,NASDAQ,Rupiah,#bdeb41,66390 Arkansas Place,Solok,,,Indonesia,100.6549823,-0.7885335,12/25/20,3/30/21
649,649,NASDAQ,Rand,#e97ab5,5806 Monument Trail,Bultfontein,,9670,South Africa,26.1477598,-28.2750463,5/15/21,9/12/20
650,650,NASDAQ,Yuan Renminbi,#6fa712,06952 Jackson Circle,Handaqi,,,China,118.31969,25.461545,3/21/21,6/16/21
651,651,NASDAQ,Zloty,#5996f4,213 Fordem Trail,Krzy≈ºowice,,43-254,Poland,18.6926323,49.9899828,3/9/21,2/22/21
652,652,NYSE,Yuan Renminbi,#8ee8bf,2425 Chive Way,Hexi,,,China,117.223371,39.109563,5/10/21,6/29/21
653,653,NASDAQ,Euro,#c74182,1464 International Circle,Ant√≠paros,,,Greece,25.0406679,36.9884302,3/1/21,4/9/21
654,654,NYSE,Rupiah,#6fd11f,86 Menomonie Point,Loakulu,,,Indonesia,116.8097817,-0.6209357,7/6/21,1/19/21
655,655,NASDAQ,Yuan Renminbi,#929a4c,47 Center Point,Shicheng,,,China,118.9353968,29.5530941,5/26/21,11/29/20
656,656,NASDAQ,Afghani,#adb5a2,92134 Oriole Park,Pachƒ´r wa ƒÄgƒÅm,,,Afghanistan,70.2884528,34.0740905,2/6/21,11/1/20
657,657,NYSE,Baht,#807ab9,95684 Alpine Terrace,Pakham,,92000,Thailand,102.7190771,14.4390514,4/7/21,12/16/20
658,658,NASDAQ,Euro,#dbfda3,473 Ryan Place,Zgornje Bitnje,,4220,Slovenia,14.3353423,46.2209242,11/27/20,1/25/21
659,659,NASDAQ,Euro,#dc9361,021 Maple Wood Lane,√Ågios Ge√≥rgios,,,Greece,19.683333,39.75,2/25/21,10/21/20
660,660,NYSE,Dinar,#47e2c5,361 Susan Circle,Al Mars√°,,,Tunisia,10.310501,36.8964803,1/22/21,3/5/21
661,661,NYSE,Rupiah,#90bc8f,8834 Victoria Terrace,Baing,,,Indonesia,120.548897,-10.22485,8/1/21,7/29/21
662,662,NYSE,Shilling,#5d8f9c,768 Kinsman Parkway,Luuka Town,,,Uganda,33.3037143,0.7250599,12/28/20,11/1/20
663,663,NASDAQ,Rupiah,#80382c,6 Vahlen Alley,Soho,,,Indonesia,106.9168787,-6.1873861,11/5/20,3/12/21
664,664,NYSE,Krona,#c1e972,89813 Hayes Road,V√§stra Fr√∂lunda,O,426 52,Sweden,11.8915238,57.6593247,4/28/21,2/13/21
665,665,NASDAQ,Lek,#f4f9c2,35407 Thompson Place,Gjegjan,,,Albania,20.006257,41.9437159,8/19/20,12/1/20
666,666,NYSE,Yuan Renminbi,#cb02f7,9 Lakeland Crossing,Yaqian,,,China,121.245717,30.723066,9/5/20,3/15/21
667,667,NYSE,Dinar,#8afb34,1365 Merrick Crossing,‚ÄòAlƒ´ al Gharbƒ´,,,Iraq,46.670534,32.4162098,10/21/20,9/17/20
668,668,NASDAQ,Franc,#464a82,991 Mcbride Court,Chironkamba,,,Comoros,44.3514414,-12.1943138,8/4/21,6/5/21
669,669,NYSE,Yuan Renminbi,#7170ba,720 Mesta Place,Hesheng,,,China,118.489851,24.724853,5/3/21,3/30/21
670,670,NYSE,Yuan Renminbi,#2d5af1,881 Dottie Center,Zhuge,,,China,107.62613,34.265637,12/3/20,1/12/21
671,671,NYSE,Euro,#4e115e,49407 Carberry Place,Alicante/Alacant,VC,3005,Spain,-0.5210565,38.3628307,12/27/20,10/25/20
672,672,NYSE,Real,#9d7780,74 Autumn Leaf Road,Vit√≥ria da Conquista,,45000-000,Brazil,-40.844989,-14.8503277,11/25/20,1/3/21
673,673,NASDAQ,Kyat,#d0771d,9689 Onsgard Street,Myaydo,,,Myanmar,95.8399993,19.6089189,5/4/21,4/26/21
674,674,NASDAQ,Real,#df0832,2 Spenser Street,Paragua√ßu Paulista,,19700-000,Brazil,-50.5745694,-22.4186285,2/18/21,6/18/21
675,675,NYSE,Krona,#039f69,3648 Steensland Parkway,Stockholm,AB,117 43,Sweden,18.0310357,59.3042543,8/17/21,11/24/20
676,676,NYSE,Dollar,#dce546,6270 Laurel Court,Labrador City,NL,A2V,Canada,-66.9238331,52.9369158,10/16/20,7/1/21
677,677,NASDAQ,Lek,#9091aa,74004 Jenifer Alley,Komb√´si,,,Albania,19.98556,41.58167,2/14/21,12/25/20
678,678,NYSE,Euro,#67b8f6,9 Ohio Street,Z√°kynthos,,,Greece,20.8998759,37.7870331,5/22/21,7/1/21
679,679,NYSE,Dirham,#a6e723,40511 Scoville Point,Dakhla,,,Western Sahara,-15.9347384,23.7221111,8/7/21,9/30/20
680,680,NASDAQ,Manat,#5bd8b7,0316 Elmside Circle,Qƒ±zƒ±lhacƒ±lƒ±,,,Azerbaijan,46.8429953,40.5851643,8/18/20,4/16/21
681,681,NASDAQ,Euro,#52043f,47 Eastwood Avenue,Montluel,B9,01129 CEDEX,France,5.0634248,45.8359543,9/4/20,1/31/21
682,682,NYSE,Yuan Renminbi,#af0a30,3 Dawn Lane,Duowa,,,China,115.193565,-8.784797,8/23/20,10/29/20
683,683,NASDAQ,Rupiah,#8114d8,2023 Melody Drive,Gampang,,,Indonesia,112.6004965,-7.482537,5/6/21,8/31/20
684,684,NASDAQ,Cordoba,#94f8ab,36627 Tomscot Street,Jinotega,,,Nicaragua,-85.9993997,13.0883907,1/9/21,8/16/21
685,685,NASDAQ,Peso,#2559e0,28994 Kennedy Road,Capay√°n,,4726,Argentina,-65.7905325,-28.4481029,12/6/20,1/2/21
686,686,NASDAQ,Yuan Renminbi,#a1ab0e,85911 Manitowish Trail,Xinsheng,,,China,105.220236,31.029897,3/29/21,8/10/21
687,687,NYSE,Dollar,#0681c5,700 Porter Road,Austin,TX,78769,United States,-97.74,30.27,7/28/21,2/1/21
688,688,NASDAQ,Rupiah,#e5a92e,5 Westend Parkway,Cikotok,,,Indonesia,106.2963486,-6.8546074,2/21/21,3/9/21
689,689,NASDAQ,Lari,#f3156e,8 Village Green Junction,Oni,,,Georgia,43.4350888,42.5779358,10/1/20,3/6/21
690,690,NYSE,Euro,#fd69a8,55893 Eastlawn Way,Cadiz,AN,11005,Spain,-6.2940354,36.5292176,3/15/21,6/25/21
691,691,NASDAQ,Rupiah,#e1dc3c,9 Maywood Plaza,Bosen,,,Indonesia,124.3032719,-9.7085741,4/19/21,8/2/21
692,692,NYSE,Yuan Renminbi,#207790,82269 Transport Park,Longxi,,,China,104.634983,35.00394,6/26/21,8/16/21
693,693,NYSE,Dollar,#8f5f16,526 Lerdahl Point,Louisville,KY,40205,United States,-85.6794434,38.2214782,8/11/21,2/3/21
694,694,NYSE,Peso,#c98e44,77 Spaight Place,Villaba,,6537,Philippines,124.3922901,11.1649599,11/23/20,6/3/21
695,695,NYSE,Koruna,#35f666,6 Brentwood Parkway,Mikulƒçice,,696 19,Czech Republic,17.0510711,48.8164264,8/30/20,3/1/21
696,696,NYSE,Peso,#6e5f1b,87 Lillian Pass,Santiago,MEX,54784,Mexico,-100.1591213,25.4166153,7/4/21,1/27/21
697,697,NASDAQ,Euro,#b4f0f2,4092 2nd Avenue,Sibbo,,61110,Finland,24.93914,60.1941783,6/29/21,11/27/20
698,698,NASDAQ,Euro,#7a9b51,2 Prentice Alley,Useldange,,L-8708,Luxembourg,5.981844,49.7724099,6/22/21,2/18/21
699,699,NYSE,Peso,#22ef11,268 Fulton Court,Charras,,5807,Argentina,-60.9326374,-34.5865835,8/25/20,9/28/20
700,700,NYSE,Peso,#3effd1,26208 American Ash Court,Palmira,,763547,Colombia,-76.01598,3.5737543,3/2/21,8/11/21
701,701,NYSE,Ruble,#2b56d3,18 Northridge Park,Ostrov,,181353,Russia,28.3570946,57.3397034,12/24/20,4/22/21
702,702,NYSE,Yuan Renminbi,#d68ca7,730 Kipling Crossing,Xinbao,,,China,112.10915,22.951554,3/17/21,10/3/20
703,703,NYSE,Real,#0e7534,3 Loeprich Place,Ubaitaba,,45545-000,Brazil,-39.3932232,-14.2581428,8/12/21,11/20/20
704,704,NASDAQ,Dirham,#4d1d66,346 Del Mar Circle,Aoufous,,,Morocco,-4.1788953,31.6890813,9/20/20,9/8/20
705,705,NYSE,Yuan Renminbi,#319a7f,5142 Larry Pass,Dongyuan,,,China,114.74638,23.788392,2/22/21,10/19/20
706,706,NYSE,Hryvnia,#39fd9d,77134 Elgar Parkway,Marshintsy,,,Ukraine,26.3003025,48.2113225,3/27/21,4/13/21
707,707,NASDAQ,Peso,#aebae9,5733 Waubesa Pass,Malaga,,1109,Philippines,121.0390378,14.3758164,6/17/21,10/2/20
708,708,NYSE,Sol,#14e589,9604 Moulton Drive,Palca,,,Peru,-75.5655147,-11.3442564,12/15/20,4/23/21
709,709,NYSE,Yuan Renminbi,#85fcd1,32868 Orin Alley,Caoxi,,,China,107.730679,35.657343,6/9/21,7/14/21
710,710,NYSE,Dollar,#48efba,3 Bobwhite Place,Montgomery,AL,36195,United States,-121.6954666,38.5385973,4/9/21,9/3/20
711,711,NASDAQ,Zloty,#96b412,25506 Delladonna Avenue,Pawonk√≥w,,42-772,Poland,18.5510673,50.6906104,10/3/20,7/14/21
712,712,NYSE,Real,#04cbdc,27 Drewry Center,Candel√°ria,,96930-000,Brazil,-52.8312661,-29.7132471,12/31/20,11/20/20
713,713,NYSE,Rupee,#16679c,34 Loftsgordon Avenue,S≈´rƒÅb,,23161,Pakistan,65.8232788,27.8914335,12/30/20,5/13/21
714,714,NASDAQ,Krona,#a2dfd4,043 Declaration Circle,Torslanda,O,423 43,Sweden,11.7360101,57.7236265,12/16/20,11/9/20
715,715,NYSE,Euro,#8c92cd,9 Maywood Lane,Santa Maria Oliveira,3,4765-322,Portugal,-8.4028972,41.4069416,8/10/21,3/5/21
716,716,NYSE,Ruble,#badcad,97 Pennsylvania Road,Spas-Zaulok,,141667,Russia,36.5752249,56.4768137,10/9/20,2/22/21
717,717,NYSE,Dollar,#f76f48,8695 Hansons Hill,Markham,ON,L6E,Canada,-79.273304,43.899227,8/17/21,1/8/21
718,718,NYSE,Peso,#753f0b,0379 Bonner Point,Buenavista,,8601,Philippines,125.408732,8.972681,10/4/20,5/5/21
719,719,NYSE,Guarani,#140497,58039 Browning Lane,Villa Florida,,,Paraguay,-57.1154122,-26.4105245,9/30/20,4/27/21
720,720,NASDAQ,Afghani,#f59558,86885 Eagan Parkway,Khayr K≈ç·πØ,,,Afghanistan,68.44972,32.85355,12/21/20,7/16/21
721,721,NASDAQ,Yuan Renminbi,#cd9dc5,58 Harper Hill,Wuyang,,,China,113.609286,33.437877,8/25/20,11/9/20
722,722,NASDAQ,Hryvnia,#292d20,18267 Bunker Hill Crossing,Seredyna-Buda,,,Ukraine,34.0412051,52.1837429,9/17/20,8/21/20
723,723,NYSE,Manat,#a8d180,66833 Twin Pines Alley,Arƒ±qƒ±ran,,,Azerbaijan,45.61414,40.53971,6/30/21,10/22/20
724,724,NYSE,Ringgit,#89578c,986 Loomis Way,Labuan,LBN,87018,Malaysia,115.2384663,5.2805802,2/13/21,10/7/20
725,725,NASDAQ,Yuan Renminbi,#a61b76,86339 Crest Line Way,Sanxi,,,China,111.8568586,37.2425649,11/27/20,5/28/21
726,726,NYSE,Peso,#e8487f,76 2nd Terrace,Bagroy,,5309,Philippines,122.8333359,10.5333328,6/21/21,8/20/20
727,727,NASDAQ,Rupiah,#bc5f0f,7342 Surrey Junction,Cigembong,,,Indonesia,107.9520129,-6.8747015,12/1/20,6/7/21
728,728,NASDAQ,Euro,#99b265,55557 Corry Crossing,Loutr√≥s,,,Greece,26.045885,40.8806112,11/28/20,6/29/21
729,729,NASDAQ,Euro,#a82ac0,2677 Vahlen Road,Delft,11,2629,Netherlands,4.3871967,51.9850245,9/5/20,3/4/21
730,730,NASDAQ,Ruble,#c50e9e,404 Myrtle Crossing,Podporozh‚Äôye,,187789,Russia,34.1661641,60.9116468,3/16/21,2/5/21
731,731,NYSE,Peso,#44cbb8,30435 Golden Leaf Avenue,Tanay,,1980,Philippines,121.0257322,14.5727654,7/12/21,4/28/21
732,732,NYSE,Yuan Renminbi,#296427,85 Blue Bill Park Place,Xinghai,,,China,121.5830108,38.8812423,10/17/20,5/8/21
733,733,NYSE,Yuan Renminbi,#a85484,98 Carey Way,Hongjiazui,,,China,116.664056,28.695534,11/15/20,7/27/21
734,734,NYSE,Tugrik,#5eb41f,283 Merry Point,Bayshint,,,Mongolia,90.2905901,49.663978,3/9/21,3/27/21
735,735,NYSE,Litas,#e0bee1,6161 Michigan Street,Kƒódainiai,,57005,Lithuania,23.9749999,55.2884444,2/8/21,11/6/20
736,736,NYSE,Ruble,#7240db,973 Sloan Avenue,Kunashak,,456730,Russia,61.5382494,55.7040901,6/12/21,9/28/20
737,737,NASDAQ,Koruna,#83f16a,520 Arizona Alley,Zadn√≠ Mostek,,544 75,Czech Republic,15.6996613,50.4987034,5/25/21,8/18/20
738,738,NASDAQ,Baht,#717879,5511 David Park,Pak Kret,,11120,Thailand,100.5426442,13.8994973,7/20/21,10/3/20
739,739,NYSE,Yuan Renminbi,#adc02e,309 Lighthouse Bay Parkway,Shuiyuan,,,China,114.466022,38.052038,12/26/20,10/2/20
740,740,NASDAQ,Euro,#e96e48,116 Sage Center,La Courneuve,A8,93126 CEDEX,France,2.3882228,48.9236625,8/27/20,4/29/21
741,741,NASDAQ,Kuna,#cbf082,0668 Warbler Center,Ozalj,,47280,Croatia,15.4778574,45.6128697,1/1/21,7/23/21
742,742,NYSE,Peso,#4c95eb,99 Tony Road,Francisco I Madero,ZAC,98351,Mexico,-103.2605763,25.7784224,2/1/21,8/22/20
743,743,NYSE,Ariary,#15d8c5,98501 Heffernan Junction,Soanindrariny,,,Madagascar,47.2342299,-19.90625,10/27/20,9/9/20
744,744,NYSE,Dollar,#fafb39,7399 Duke Road,Waitara,,4346,New Zealand,174.2418241,-39.0482569,11/5/20,11/4/20
745,745,NYSE,Naira,#5f4819,253 Rusk Point,Damasak,,,Nigeria,12.5113296,13.0996105,2/18/21,10/3/20
746,746,NYSE,Dollar,#0aec9a,5 Truax Park,Long Beach,CA,90831,United States,-118.2022212,33.7684556,8/5/21,8/20/20
747,747,NASDAQ,Hryvnia,#9e928e,519 Shasta Crossing,Horodne,,,Ukraine,31.5958532,51.8911132,9/19/20,4/11/21
748,748,NASDAQ,Yuan Renminbi,#e95fdb,948 Shasta Trail,Nanniu,,,China,108.366543,22.817002,9/6/20,10/14/20
749,749,NYSE,Baht,#0c3ad1,43699 Sachs Pass,Selaphum,,33150,Thailand,103.9344076,16.0332128,6/21/21,1/26/21
750,750,NASDAQ,Yen,#ef5ee6,2 Jackson Circle,Miyata,,981-4305,Japan,140.8225484,38.5779674,10/21/20,10/3/20
751,751,NASDAQ,Franc,#226dfc,3839 Evergreen Lane,L√©o,,,Burkina Faso,-2.0959429,11.0978809,2/16/21,3/16/21
752,752,NASDAQ,Euro,#ca4e4f,01536 Lake View Plaza,Brest,A2,29228 CEDEX 2,France,-4.4706255,48.4100734,9/19/20,5/16/21
753,753,NASDAQ,Peso,#a39679,18572 Roxbury Plaza,Necochea,,7630,Argentina,-57.5897345,-37.9641843,12/29/20,8/8/21
754,754,NYSE,Peso,#ec22de,32 Caliangt Alley,Balbalan,,3801,Philippines,121.148087,17.531858,2/19/21,11/28/20
755,755,NYSE,Yuan Renminbi,#8a96eb,7 Hoard Avenue,Fengshou,,,China,126.6379525,45.7652358,7/27/21,2/21/21
756,756,NASDAQ,Sol,#303b86,8 Sutherland Place,Chocos,,,Peru,-75.783333,-13.316667,9/12/20,11/27/20
757,757,NYSE,Kwacha,#0f4c0f,0028 Drewry Drive,Senanga,,,Zambia,23.2960171,-16.1178235,9/14/20,1/24/21
758,758,NASDAQ,Rupiah,#dd56c2,40125 4th Crossing,Jember,,,Indonesia,113.6680747,-8.1844859,1/9/21,9/14/20
759,759,NYSE,Pound,#80db86,4 Annamark Circle,Kassala,,,Sudan,36.4039629,15.4581332,4/5/21,9/4/20
760,760,NYSE,Ruble,#eeb2a1,67 Oneill Plaza,Zhyrovichy,,,Belarus,25.3425332,53.0131368,12/20/20,3/15/21
761,761,NYSE,Dollar,#eea226,97 Farmco Park,Keetmanshoop,,,Namibia,18.1310083,-26.5642351,6/25/21,12/5/20
762,762,NYSE,Dollar,#0bec96,6 Dennis Terrace,Martensville,SK,L3R,Canada,-106.66792,52.28339,12/23/20,9/24/20
763,763,NYSE,Zloty,#453907,2 Fieldstone Junction,Mst√≥w,,42-244,Poland,19.2859852,50.8294542,12/8/20,5/13/21
764,764,NYSE,Yuan Renminbi,#7a4690,711 Old Shore Terrace,Wuli,,,China,110.346166,29.893672,10/31/20,9/25/20
765,765,NASDAQ,Baht,#d361b4,8 Everett Park,Seka,,43150,Thailand,100.5593109,13.7768017,2/3/21,12/31/20
766,766,NASDAQ,Yuan Renminbi,#7bed20,46 Sunnyside Pass,Cuijiaqiao,,,China,112.007869,28.7163066,1/15/21,3/7/21
767,767,NASDAQ,Real,#3deef4,59937 Moose Alley,Paraty,,23970-000,Brazil,-44.7235076,-23.2218772,12/2/20,9/15/20
768,768,NYSE,Euro,#dad17a,919 Atwood Drive,Nogent-sur-Marne,A8,94734 CEDEX,France,2.4923085,48.8333236,4/18/21,6/5/21
769,769,NYSE,Yuan Renminbi,#cb83ba,61401 Lillian Parkway,Longzui,,,China,118.4500421,39.2752729,12/1/20,9/12/20
770,770,NASDAQ,Zloty,#e02e67,37833 Delladonna Way,Regimin,,06-461,Poland,20.5544716,52.9434371,7/18/21,2/8/21
771,771,NYSE,Rand,#4e525a,94974 Stang Point,Plettenberg Bay,,6606,South Africa,23.3261801,-34.0896763,9/22/20,9/6/20
772,772,NASDAQ,Pound,#6e7787,63658 Bellgrove Junction,Hƒ´sh,,,Syria,36.6444758,35.5488997,6/1/21,9/24/20
773,773,NYSE,Yuan Renminbi,#9d3204,3 Spohn Place,Qiling,,,China,115.451043,24.086165,3/23/21,6/26/21
774,774,NYSE,Peso,#2994d8,098 Di Loreto Circle,San Rafael,,5600,Argentina,-68.3426534,-34.6143394,8/5/21,2/2/21
775,775,NYSE,Dong,#788b1d,69463 Bellgrove Junction,Phong ƒêi·ªÅn,,,Vietnam,107.3375791,16.503112,5/31/21,7/7/21
776,776,NASDAQ,Yuan Renminbi,#e3538a,1 Hoffman Drive,Shewopo,,,China,120.878247,37.136553,8/4/21,12/18/20
777,777,NASDAQ,Sol,#4f5979,7996 Petterle Terrace,Huaccana,,,Peru,-75.762586,-14.0874587,4/10/21,4/30/21
778,778,NASDAQ,Zloty,#4ec6a4,438 Kim Drive,Srokowo,,11-420,Poland,21.5226322,54.2139021,6/8/21,12/12/20
779,779,NYSE,Rupiah,#c51363,648 Johnson Center,Pajeksan,,,Indonesia,111.1470115,-6.7149192,2/16/21,12/22/20
780,780,NYSE,Won,#0e4b94,3376 Northfield Crossing,Kilju,,,North Korea,129.3209986,40.9612198,6/29/21,12/24/20
781,781,NASDAQ,Ruble,#c9c6ed,01 Utah Road,Alpatovo,,433303,Russia,45.2427175,43.708681,1/18/21,10/15/20
782,782,NYSE,Franc,#b19bc4,01 Cherokee Parkway,Kongoussi,,,Burkina Faso,-1.5257042,13.3252954,6/11/21,10/30/20
783,783,NYSE,Ruble,#4376f7,22 Buena Vista Lane,Usman‚Äô,,399373,Russia,39.7408362,52.0391192,2/26/21,2/5/21
784,784,NASDAQ,Peso,#0e37d9,90311 1st Center,20 de Noviembre,VER,93828,Mexico,-99.1082647,19.4449916,10/26/20,7/7/21
785,785,NASDAQ,Euro,#a27b6b,37 Lotheville Road,Riachos,14,2350-323,Portugal,-8.5116903,39.4381452,11/16/20,1/14/21
786,786,NYSE,Yuan Renminbi,#5e7e0c,039 Melvin Pass,Zhongying,,,China,116.371207,39.953041,5/31/21,9/1/20
787,787,NASDAQ,Rupiah,#29acc3,676 Banding Point,Kabar Utara,,,Indonesia,117.6485192,4.141254,6/11/21,3/26/21
788,788,NYSE,Real,#7e8f94,7478 Di Loreto Avenue,Osvaldo Cruz,,17700-000,Brazil,-50.879763,-21.7972251,8/8/21,2/11/21
789,789,NASDAQ,Dollar,#f0ccd5,748 Troy Way,Rochester,NY,14604,United States,-77.6063541,43.1581207,5/30/21,12/10/20
790,790,NYSE,Hryvnia,#270e87,13 Carberry Hill,Kolomyya,,,Ukraine,25.0412055,48.5304917,1/19/21,6/26/21
791,791,NYSE,Krona,#8952ed,50 Linden Junction,Bor√•s,O,507 10,Sweden,13.1015839,57.7298725,7/18/21,5/30/21
792,792,NASDAQ,Zloty,#94cc65,83849 Monterey Terrace,Radymno,,37-550,Poland,22.82395,49.94712,4/20/21,12/11/20
793,793,NYSE,Peso,#c83e6b,9 Dawn Alley,Jurad√≥,,276019,Colombia,-77.5504779,6.7911741,8/3/21,7/19/21
794,794,NYSE,Yuan Renminbi,#f5f0b8,7 Tennyson Road,Wangcheng,,,China,112.833836,28.353912,5/19/21,7/13/21
795,795,NASDAQ,Lev,#9ae4a8,353 Northland Way,Isperikh,,7447,Bulgaria,26.7336839,43.6709677,6/20/21,6/18/21
796,796,NYSE,Rand,#329206,99226 Bluejay Pass,Stutterheim,,4935,South Africa,29.460311,-26.433666,4/14/21,4/26/21
797,797,NYSE,Euro,#7cefb8,550 Trailsway Way,Cestas,97,33614 CEDEX,France,-0.6995221,44.7721717,3/28/21,10/10/20
798,798,NASDAQ,Rupiah,#b54bfb,311 Declaration Drive,Luthu,,,Indonesia,98.729681,3.541868,5/2/21,9/18/20
799,799,NYSE,Yuan Renminbi,#bdfa3d,46 Kensington Road,Renhe,,,China,101.738528,26.497765,12/17/20,2/5/21
800,800,NASDAQ,Euro,#96302e,90 Burrows Pass,Aseri,,,Estonia,26.8687946,59.4520561,4/13/21,1/3/21
801,801,NYSE,Naira,#7b482c,689 Florence Place,Minna,,,Nigeria,6.5463156,9.5835546,9/29/20,5/13/21
802,802,NASDAQ,Peso,#1ebd16,2 International Point,Carmen,,9408,Philippines,124.796217,7.20312,11/5/20,11/10/20
803,803,NYSE,Zloty,#f77883,149 5th Plaza,Roczyny,,43-354,Poland,19.3158581,49.8541052,5/24/21,8/3/21
804,804,NASDAQ,Peso,#4e4e55,1125 Del Mar Circle,Francisco I Madero,VER,93995,Mexico,-103.2605763,25.7784224,2/20/21,12/25/20
805,805,NYSE,Yen,#36da4e,2683 1st Terrace,Yaita,,329-2165,Japan,139.9200321,36.8079089,1/28/21,12/10/20
806,806,NASDAQ,Dong,#dadeb8,96958 Declaration Point,Ph√∫c Y√™n,,,Vietnam,105.7233814,21.3325846,4/20/21,3/29/21
807,807,NYSE,Yuan Renminbi,#f51364,0 Sullivan Pass,Heka,,,China,118.0855763,24.4670098,12/21/20,5/14/21
808,808,NYSE,Rupiah,#f59649,6806 Jenifer Trail,Krajan Winong,,,Indonesia,111.4253892,-7.9110809,11/11/20,4/29/21
809,809,NASDAQ,Ruble,#735851,1321 Gulseth Lane,Satis,,607328,Russia,43.2293226,54.9255438,5/27/21,10/15/20
810,810,NYSE,Dollar,#be4656,182 1st Point,Las Cruces,NM,88006,United States,-106.78,32.31,6/23/21,9/6/20
811,811,NASDAQ,Colon,#49236b,3 Fuller Crossing,Alajuela,,20101,Costa Rica,-84.2184331,10.0165314,11/26/20,12/18/20
812,812,NYSE,Boliviano,#ef6594,9 Dapin Park,Colomi,,,Bolivia,-65.8649827,-17.3399775,11/15/20,6/29/21
813,813,NYSE,Dollar,#d0c24a,6749 Beilfuss Drive,Magrath,AB,J7G,Canada,-112.86856,49.41668,9/16/20,8/19/20
814,814,NASDAQ,Dollar,#f17750,42 Alpine Pass,Anibare,,,Nauru,166.944141,-0.532915,9/29/20,5/20/21
815,815,NYSE,Shilling,#f3123e,29041 Iowa Alley,Kasulu,,,Tanzania,30.1011836,-4.5702358,3/27/21,5/3/21
816,816,NASDAQ,Rupiah,#2f7882,4065 Michigan Circle,Olejet,,,Indonesia,108.5693,-6.9924,9/29/20,5/28/21
817,817,NYSE,Hryvnia,#98a527,87103 Superior Plaza,Iza,,,Ukraine,23.3302946,48.2162668,4/28/21,8/5/21
818,818,NYSE,Ringgit,#639377,260 Cambridge Circle,Shah Alam,SGR,40706,Malaysia,101.549066,2.9878652,7/20/21,5/15/21
819,819,NYSE,Rupiah,#f47141,9 Lotheville Court,Kelungkung,,,Indonesia,115.5444231,-8.727807,10/27/20,12/11/20
820,820,NASDAQ,Afghani,#c50134,7 Gateway Way,Mƒ´r Bachah K≈ç·πØ,,,Afghanistan,69.2758336,34.6982972,10/30/20,7/4/21
821,821,NASDAQ,Zloty,#ca12b1,40 Gateway Hill,Drohiczyn,,17-312,Poland,22.6585778,52.4003253,12/28/20,1/3/21
822,822,NYSE,Dollar,#b52fc2,79415 Ridgeway Center,Humble,TX,77346,United States,-95.1744903,29.9997656,8/20/20,8/20/20
823,823,NASDAQ,Yuan Renminbi,#e3a6c6,8 Duke Way,Cihe,,,China,109.459516,35.786026,2/7/21,12/11/20
824,824,NYSE,Peso,#0544eb,3 Lakewood Gardens Circle,Cabalawan,,6006,Philippines,123.9881642,12.6679167,9/21/20,5/9/21
825,825,NYSE,Won,#46c217,08 Petterle Crossing,Cheongsong gun,,,South Korea,129.0571077,36.4359045,12/2/20,2/22/21
826,826,NASDAQ,Peso,#90a91b,4806 Redwing Parkway,Reina Mercedes,,3303,Philippines,121.7837044,16.982797,4/24/21,7/26/21
827,827,NYSE,Peso,#f78ede,40694 Graceland Place,Bogot√°,,111831,Colombia,-74.115187,4.5604389,10/5/20,7/18/21
828,828,NASDAQ,Somoni,#111099,176 Hazelcrest Pass,Vose‚Äô,,,Tajikistan,69.636351,37.8038994,7/30/21,8/20/20
829,829,NASDAQ,Zloty,#ef42f7,0509 Lillian Avenue,Kolbuszowa,,36-100,Poland,21.77627,50.24417,11/4/20,2/1/21
830,830,NASDAQ,Real,#b9de31,36582 Dottie Road,Aimor√©s,,35200-000,Brazil,-41.0713439,-19.4959312,11/3/20,9/20/20
831,831,NYSE,Quetzal,#db8cd6,79 Menomonie Lane,Santa Catarina Barahona,,3016,Guatemala,-90.789918,14.549394,7/4/21,5/4/21
832,832,NYSE,Yuan Renminbi,#b4975c,689 Fair Oaks Junction,Wulongshan,,,China,105.965695,27.820107,6/16/21,1/19/21
833,833,NYSE,Yuan Renminbi,#fce197,817 Eagle Crest Pass,Zhongdeng,,,China,107.840624,22.826877,1/30/21,9/9/20
834,834,NYSE,Yuan Renminbi,#6e7ec3,7402 Fallview Plaza,Zhangjiawan,,,China,104.969819,31.686188,12/8/20,3/17/21
835,835,NYSE,Peso,#2c4517,0974 Briar Crest Terrace,Bascaron,,4500,Philippines,123.6999,13.1029,5/17/21,3/5/21
836,836,NYSE,Hryvnia,#517388,20781 Artisan Hill,Zgurovka,,,Ukraine,31.7833183,50.4974447,10/27/20,4/19/21
837,837,NASDAQ,Ruble,#a608ba,62 Mitchell Drive,Yekimovichi,,216533,Russia,33.29648,54.11285,12/30/20,4/29/21
838,838,NASDAQ,Shilling,#f71638,65286 Heffernan Point,Molo,,,Kenya,35.7323709,-0.2488358,2/21/21,4/20/21
839,839,NASDAQ,Real,#6e39b8,7 Messerschmidt Court,Bar√£o de Melga√ßo,,78190-000,Brazil,-56.0249982,-16.9163431,2/27/21,11/25/20
840,840,NASDAQ,Real,#f8a3c5,14932 Buena Vista Pass,Ner√≥polis,,75460-000,Brazil,-49.1828385,-16.4078661,6/3/21,10/29/20
841,841,NYSE,Baht,#febbce,06 Farmco Alley,Non Sung,,30160,Thailand,102.2575235,15.1805822,1/25/21,5/11/21
842,842,NASDAQ,Koruna,#cfe1bb,3 Carey Junction,Velk√° nad Veliƒçkou,,696 74,Czech Republic,17.5206059,48.8825673,5/24/21,9/26/20
843,843,NASDAQ,Yuan Renminbi,#2e466d,922 Scofield Way,Bailiang,,,China,121.597823,31.266878,12/29/20,8/1/21
844,844,NASDAQ,Real,#3b9ae0,681 Longview Lane,Bom Jesus do Itabapoana,,28360-000,Brazil,-41.7407394,-21.1330059,8/16/21,5/28/21
845,845,NASDAQ,Dollar,#c5a306,9 Swallow Terrace,Guaranda,,,Ecuador,-78.9995154,-1.5904721,12/24/20,10/27/20
846,846,NASDAQ,Rial,#cfec94,690 Carberry Road,Al KhirƒÅb,,,Yemen,44.29048,16.5544,12/6/20,4/7/21
847,847,NYSE,Real,#7b0534,46466 Forest Dale Terrace,Araras,,13600-000,Brazil,-47.3853435,-22.3595631,7/20/21,12/23/20
848,848,NYSE,Peso,#866fbb,713 Corben Alley,Libuganon,,6615,Philippines,125.7782,7.3488,3/19/21,8/5/21
849,849,NYSE,Dollar,#c7fc16,99682 Donald Avenue,Hollywood,FL,33023,United States,-80.2153998,25.9868744,3/24/21,3/28/21
850,850,NYSE,Zloty,#94e6e0,31855 Washington Drive,BƒÖk√≥w,,46-233,Poland,18.3083298,50.9831778,4/8/21,11/28/20
851,851,NASDAQ,Koruna,#cc8b0d,63242 Hudson Park,ƒåeladn√°,,739 12,Czech Republic,18.3370739,49.4922202,8/3/21,9/25/20
852,852,NYSE,Sol,#d14b74,56 Miller Street,Colcabamba,,,Peru,-74.7,-12.4,4/14/21,3/5/21
853,853,NYSE,Ruble,#522a15,86 Doe Crossing Street,Kromy,,303211,Russia,35.8136035,52.664639,1/24/21,9/13/20
854,854,NYSE,Naira,#50acc0,80 Express Way,Awgu,,,Nigeria,7.4760047,6.0639962,6/29/21,12/7/20
855,855,NASDAQ,Ruble,#2b84f1,69 Bunting Place,Gigant,,144005,Russia,39.2435026,51.6455857,12/25/20,2/10/21
856,856,NASDAQ,Peso,#c65db2,45482 Sunnyside Pass,Valencia,,6306,Philippines,121.0348405,14.6099284,1/19/21,5/15/21
857,857,NASDAQ,Euro,#eadb30,6 Merchant Way,Nagoselo do Douro,18,5130-225,Portugal,-7.4179536,41.1814553,1/16/21,10/31/20
858,858,NASDAQ,Yuan Renminbi,#2395a9,40085 Eastwood Circle,Tanzhesi,,,China,116.0313067,39.8783781,7/26/21,10/2/20
859,859,NYSE,Yen,#7ec410,56824 Ramsey Hill,Ichinomiya,,941-0056,Japan,137.8674573,37.0398003,12/10/20,3/8/21
860,860,NYSE,Rupiah,#3ae08d,1 1st Parkway,Rapas,,,Indonesia,132.324948,-2.1653279,1/24/21,1/24/21
861,861,NYSE,Euro,#46c359,4031 Esker Point,Malaga,AN,29071,Spain,-4.2429565,36.757714,8/13/21,3/7/21
862,862,NYSE,Yuan Renminbi,#072fb1,76754 Kinsman Park,Duobaoshan,,,China,99.0818001,24.8415601,1/23/21,12/15/20
863,863,NYSE,Peso,#425563,546 Dorton Crossing,San Juan de Mata,,6131,Philippines,120.5285998,15.5356992,6/2/21,9/5/20
864,864,NYSE,Yuan Renminbi,#84a657,4 Sloan Plaza,Xiaohe,,,China,102.521807,35.202503,5/1/21,3/2/21
865,865,NYSE,Shilling,#900f44,9 Lukken Court,Namikupa,,,Tanzania,39.6285874,-10.8416198,4/16/21,8/17/21
866,866,NYSE,Zloty,#8a73b5,20331 Arrowood Road,Dobra,,72-210,Poland,15.28454,53.5659675,4/9/21,4/18/21
867,867,NYSE,Yen,#367de7,01843 Summer Ridge Way,Shiraoka,,349-0218,Japan,139.659239,36.0174073,6/30/21,2/16/21
868,868,NYSE,Rupiah,#e5c698,935 Shoshone Junction,Sukamantri Satu,,,Indonesia,106.540052,-6.167943,10/28/20,11/21/20
869,869,NASDAQ,Rial,#34184c,6504 Roxbury Way,AkbarƒÅbƒÅd,,,Iran,52.7830627,29.2444816,7/5/21,3/3/21
870,870,NYSE,Zloty,#e117bf,7583 Meadow Vale Street,Praszka,,46-320,Poland,18.4535,51.05359,8/8/21,11/11/20
871,871,NASDAQ,Euro,#a9ee3e,985 Dryden Road,V√≥nitsa,,,Greece,20.8889257,38.9190379,2/2/21,7/29/21
872,872,NASDAQ,Pound,#606ba1,71 Hanover Terrace,Dark≈´sh,,,Syria,36.3938121,35.991705,1/25/21,8/21/20
873,873,NASDAQ,Pound,#dc3be7,66 Eagle Crest Plaza,Kuwayris Sharqƒ´,,,Syria,37.5454589,36.1722416,8/2/21,10/24/20
874,874,NASDAQ,Yuan Renminbi,#e3e8ac,1305 Summer Ridge Junction,Jiaqu,,,China,88.417003,31.248842,9/9/20,11/22/20
875,875,NYSE,Ruble,#5cef0e,9419 Acker Point,Hal‚Äôshany,,,Belarus,26.0150745,54.2569032,1/8/21,4/11/21
876,876,NYSE,Yuan Renminbi,#fe0787,44037 Cambridge Drive,Qingquan,,,China,112.0069982,27.7303815,3/25/21,9/4/20
877,877,NYSE,Peso,#de24d4,3 Ridge Oak Street,Catriel,,8307,Argentina,-58.5247124,-34.6893026,1/31/21,5/19/21
878,878,NYSE,Krona,#ad0d3b,46 Banding Terrace,Sundsvall,Y,852 36,Sweden,17.300175,62.3873541,4/4/21,1/12/21
879,879,NYSE,Koruna,#0b4be2,30958 Morrow Crossing,Kostelec nad ƒåern√Ωmi Lesy,,281 63,Czech Republic,14.859224,49.9940366,2/13/21,1/6/21
880,880,NYSE,Ruble,#f165a1,75031 Pawling Hill,Novopokrovskaya,,353029,Russia,45.1806143,57.9330635,11/30/20,8/4/21
881,881,NASDAQ,Yuan Renminbi,#b46b56,81899 Kennedy Lane,Fuling,,,China,107.389298,29.703113,1/30/21,5/6/21
882,882,NASDAQ,Dong,#55dabf,71388 Sheridan Circle,Th·ªã Tr·∫•n Na Hang,,,Vietnam,105.3950939,22.3622017,8/8/21,9/20/20
883,883,NASDAQ,Yuan Renminbi,#7da788,61384 Anhalt Junction,Yanhe,,,China,108.50387,28.563927,9/24/20,11/17/20
884,884,NASDAQ,Euro,#75e9b1,4789 Bashford Park,Nice,B8,06016 CEDEX 1,France,6.9855112,44.0678168,1/20/21,5/21/21
885,885,NASDAQ,Euro,#d19c0b,0 Hanson Crossing,√Åyios Vas√≠lios,,,Greece,22.8003951,37.7937857,11/12/20,1/10/21
886,886,NYSE,Som,#24ea30,070 Dahle Court,Bazar-Korgon,,,Kyrgyzstan,72.7392711,41.0285386,11/20/20,4/17/21
887,887,NYSE,Zloty,#a811a8,8 Sunfield Junction,Czarna,,39-215,Poland,21.2406149,50.0672776,10/22/20,5/13/21
888,888,NYSE,Koruna,#c08506,8568 Delaware Center,Jablonec nad Jizerou,,512 43,Czech Republic,15.4437382,50.7020967,3/4/21,11/8/20
889,889,NASDAQ,Peso,#cd54db,0 Dottie Lane,Buenavista,COA,29027,Mexico,-93.1569465,16.7646627,6/5/21,2/20/21
890,890,NASDAQ,Ruble,#f63a34,43 David Road,Sestroretsk,,197730,Russia,29.9573604,60.1014533,12/3/20,2/11/21
891,891,NASDAQ,Euro,#74cccd,49332 Sutteridge Circle,V√≥nitsa,,,Greece,20.8889257,38.9190379,6/23/21,7/10/21
892,892,NYSE,Krona,#6f5715,08699 Dennis Trail,J√∂nk√∂ping,F,554 46,Sweden,14.1268727,57.7818019,7/16/21,12/10/20
893,893,NASDAQ,Yuan Renminbi,#9196ae,90 Clyde Gallagher Road,Jiujie,,,China,119.598195,39.952319,8/18/20,1/30/21
894,894,NYSE,Dollar,#8b5a8f,3920 Randy Pass,High Prairie,AB,L8N,Canada,-116.4858,55.4334,4/3/21,11/16/20
895,895,NASDAQ,Shilling,#0bffe7,0 Crescent Oaks Terrace,Kalungu,,,Uganda,29.7831356,-0.8897256,5/5/21,6/18/21
896,896,NYSE,Euro,#562daf,98783 Dunning Avenue,Agios Dimitrios,,,Greece,23.7294558,37.9356939,10/29/20,4/17/21
897,897,NYSE,Hryvnia,#ef4833,4267 Corry Way,Zhuravka,,,Ukraine,37.1720386,49.7877327,12/21/20,2/2/21
898,898,NYSE,Ruble,#fd6241,8 Monica Junction,Nartkala,,361336,Russia,43.8674076,43.555139,7/2/21,6/5/21
899,899,NASDAQ,Peso,#8c3484,65320 Oak Court,Camag√ºey,,,Cuba,-77.9053182,21.3926035,2/4/21,11/13/20
900,900,NYSE,Metical,#70b0f0,26611 Scoville Point,Matola,,,Mozambique,32.465802,-25.9239093,2/25/21,4/28/21
901,901,NYSE,Ruble,#a77937,6481 Oriole Circle,Pushkinskiye Gory,,181370,Russia,28.9142107,57.0228035,4/25/21,10/18/20
902,902,NYSE,Dollar,#7ac941,52 Chinook Junction,West Kelowna,BC,V1Z,Canada,-119.5644584,49.863612,3/15/21,3/26/21
903,903,NYSE,Yuan Renminbi,#31bce7,91228 Anzinger Place,Hecheng,,,China,110.040315,27.578926,5/23/21,8/19/20
904,904,NASDAQ,Ruble,#a0f0f4,64 Eliot Junction,Dmitriyevskoye,,356041,Russia,41.8780088,45.8198363,1/27/21,11/24/20
905,905,NYSE,Rupee,#f0b515,66 Ridge Oak Street,Moratuwa,,10400,Sri Lanka,79.8746207,6.7954977,10/8/20,6/9/21
906,906,NASDAQ,Ruble,#972cba,29 Summer Ridge Street,Dalakovo,,386122,Russia,47.8180515,52.018944,9/6/20,1/5/21
907,907,NASDAQ,Euro,#338e5b,4 Bartillon Street,Montpellier,A9,34186 CEDEX 4,France,-0.8453268,47.3752386,7/30/21,11/16/20
908,908,NASDAQ,Ruble,#15a6ae,1535 Twin Pines Way,Skolkovo,,249028,Russia,37.3439888,55.6830117,1/25/21,3/1/21
909,909,NASDAQ,Yuan Renminbi,#145335,46 Mariners Cove Road,Anxi,,,China,118.186288,25.055954,7/26/21,9/24/20
910,910,NASDAQ,Dinar,#c82180,9290 Westerfield Road,Douane,,,Tunisia,10.184999,36.795091,8/7/21,10/17/20
911,911,NYSE,Euro,#991472,2808 Service Hill,Ballivor,,D17,Ireland,-6.1191333,53.1915379,6/29/21,9/23/20
912,912,NASDAQ,Yuan Renminbi,#ef8a14,19 Weeping Birch Trail,Xinpu,,,China,118.679751,27.44587,9/27/20,10/2/20
913,913,NYSE,Peso,#92c5a7,2 Basil Street,Candelaria,,111711,Colombia,-74.0740729,4.5943745,5/19/21,3/19/21
914,914,NASDAQ,Sol,#05feb6,6 Portage Terrace,Chinchaypujio,,,Peru,-72.232262,-13.6332,3/22/21,2/11/21
915,915,NASDAQ,Peso,#11f0eb,20436 Mayfield Circle,San Juan,COA,30540,Mexico,-99.1850598,19.3785056,3/31/21,9/8/20
916,916,NASDAQ,Krone,#08a0b2,7 Bashford Place,K√∏benhavn,1084,1532,Denmark,-87.8445954,44.351935,4/16/21,3/19/21
917,917,NYSE,Baht,#37dd3b,1 Elgar Hill,Phu Phiang,,10250,Thailand,100.7953911,18.745638,6/28/21,5/15/21
918,918,NYSE,Yuan Renminbi,#051374,87 Bayside Circle,Wangdain,,,China,120.0531443,28.9141178,11/26/20,9/23/20
919,919,NASDAQ,Rand,#b8fe9b,8948 Mcguire Court,Parys,,9585,South Africa,27.4732571,-26.8985232,1/28/21,6/13/21
920,920,NASDAQ,Peso,#249c3f,21 Ronald Regan Center,San Rafael,SLP,79783,Mexico,-99.1636051,19.4392516,12/14/20,8/25/20
921,921,NYSE,Rupiah,#420edb,54036 Vahlen Circle,Sukabatu,,,Indonesia,108.0663,-7.0807,1/19/21,3/25/21
922,922,NASDAQ,Dollar,#896701,674 Warner Alley,Houston,BC,T9G,Canada,-126.67008,54.39976,2/4/21,2/27/21
923,923,NASDAQ,Peso,#039624,1 Alpine Parkway,El Refugio,DUR,35488,Mexico,-116.827715,32.463219,5/19/21,12/16/20
924,924,NYSE,Rupiah,#438614,65 Charing Cross Court,Tolitoli,,,Indonesia,120.7579834,0.8768231,9/27/20,8/31/20
925,925,NASDAQ,Dinar,#662cff,25 Lighthouse Bay Parkway,Nova Pazova,,,Serbia,20.2192192,44.9442659,7/14/21,10/22/20
926,926,NYSE,Peso,#25bfc7,725 Susan Parkway,La Loma,JAL,47685,Mexico,-102.7817591,20.7917375,6/11/21,8/8/21
927,927,NYSE,Euro,#5f5215,08 Acker Court,Akr√°ta,,,Greece,22.3143775,38.1535213,5/15/21,1/16/21
928,928,NASDAQ,Ruble,#badf65,6136 Ryan Pass,Urus-Martan,,366510,Russia,45.5357156,43.1298714,1/17/21,7/21/21
929,929,NASDAQ,Peso,#67ef2b,064 Bunting Circle,Cabarroguis,,3400,Philippines,121.5194596,16.5245838,7/13/21,7/10/21
930,930,NYSE,Afghani,#03f987,5 Menomonie Court,Barg-e MatƒÅl,,,Afghanistan,71.2874209,35.7244483,8/23/20,11/4/20
931,931,NYSE,Yen,#4dc9a0,41781 Hudson Trail,Kobe,,761-4146,Japan,134.3028193,34.5465928,3/28/21,2/18/21
932,932,NASDAQ,Yuan Renminbi,#f86820,1 Donald Trail,Chenzhouzhai,,,China,109.735642,29.260885,12/26/20,4/9/21
933,933,NASDAQ,Ruble,#6f81fe,4 Troy Park,Medvedevo,,425239,Russia,47.8109854,56.6338771,8/31/20,7/4/21
934,934,NYSE,Euro,#db3f22,0893 American Ash Alley,Claye-Souilly,A8,77414 CEDEX,France,2.6986517,48.9648089,11/30/20,8/25/20
935,935,NASDAQ,Yuan Renminbi,#bd9c89,406 5th Alley,Nanlin,,,China,118.796877,32.060255,5/15/21,9/17/20
936,936,NYSE,Euro,#09dc58,37 Nelson Place,Hengelo,15,7554,Netherlands,6.7371965,52.222516,10/31/20,5/3/21
937,937,NYSE,Ruble,#b7d48b,52315 Redwing Avenue,Mshinskaya,,442942,Russia,37.6108925,55.7597032,5/14/21,9/4/20
938,938,NYSE,Peso,#709324,88948 Delladonna Lane,Parang,,9604,Philippines,124.297205,7.32688,6/9/21,1/2/21
939,939,NASDAQ,Euro,#c66c17,3943 Lindbergh Place,Longwy,B2,54412 CEDEX,France,5.6944757,49.5048872,10/26/20,2/12/21
940,940,NYSE,Rupiah,#965b4d,22259 South Park,Naru,,,Indonesia,120.9905,-8.7597358,12/26/20,5/31/21
941,941,NYSE,Yuan Renminbi,#23b2e7,10185 Ohio Road,Gaotuo,,,China,122.660989,41.132444,1/31/21,1/21/21
942,942,NASDAQ,Peso,#c45567,49972 Waxwing Crossing,Bayaguana,,11207,Dominican Republic,-69.6531674,18.7863009,7/18/21,8/12/21
943,943,NASDAQ,Krona,#cb943e,72491 Pierstorff Center,G√§vle,X,802 66,Sweden,17.1389487,60.6704237,8/28/20,3/20/21
944,944,NASDAQ,Tugrik,#7926f8,69 Corben Pass,Mandal,,,Mongolia,107.0468263,48.8295482,5/25/21,11/18/20
945,945,NYSE,Yuan Renminbi,#bf3150,7 Corscot Court,Guandi,,,China,101.69676,3.14405,5/19/21,2/2/21
946,946,NASDAQ,Yen,#a890aa,7558 American Court,G≈çtsuch≈ç,,699-3162,Japan,132.2241106,35.0133672,6/13/21,12/6/20
947,947,NYSE,Peso,#bdc9db,0293 Bay Junction,Camingawan,,5016,Philippines,124.2636184,12.4226795,9/18/20,10/31/20
948,948,NYSE,Euro,#88ef7a,6007 Shelley Point,Blagnac,B3,31709 CEDEX,France,-0.8106708,45.2384571,9/18/20,2/3/21
949,949,NYSE,Yuan Renminbi,#4bd172,68 Debs Court,Daming,,,China,115.147814,36.285616,6/20/21,2/17/21
950,950,NASDAQ,Yen,#8d0c6e,3 Ridgeway Center,Hirosaki,,861-2236,Japan,137.0871404,35.0346917,10/1/20,2/20/21
951,951,NASDAQ,Yuan Renminbi,#c4f039,50 Bay Alley,Wanlongshan,,,China,114.174842,27.598453,12/9/20,7/15/21
952,952,NYSE,Ruble,#66f87c,10 Birchwood Terrace,Firovo,,161453,Russia,33.70211,57.48135,11/14/20,5/17/21
953,953,NYSE,Yuan Renminbi,#c7161f,16 Beilfuss Road,Jiancheng,,,China,111.546403,23.134752,7/18/21,10/4/20
954,954,NASDAQ,Euro,#a52e0e,18 Nelson Junction,Oyonnax,B9,01117 CEDEX,France,5.653268,46.259611,8/19/20,2/2/21
955,955,NASDAQ,Peso,#f747c4,531 Wayridge Drive,San Vicente,,6419,Philippines,121.0589081,14.7596318,2/27/21,11/6/20
956,956,NASDAQ,Peso,#66a544,51 Longview Lane,Jarabacoa,,10801,Dominican Republic,-70.6097821,19.1168606,10/7/20,6/26/21
957,957,NASDAQ,Dollar,#9d4a30,35 Heath Court,Boise,ID,83722,United States,-116.2,43.61,9/5/20,3/24/21
958,958,NASDAQ,Krona,#18c4ea,4 Huxley Plaza,T√§by,AB,183 55,Sweden,18.0684457,59.4291534,5/28/21,2/20/21
959,959,NASDAQ,Yen,#cd00be,42497 Tennessee Parkway,≈åkawara,,989-1323,Japan,138.0410863,35.5588061,3/28/21,3/3/21
960,960,NASDAQ,Peso,#0fbc1c,0 Pepper Wood Avenue,San Marcos,,704038,Colombia,-75.128872,8.662577,12/9/20,1/9/21
961,961,NASDAQ,Tugrik,#bd7fd5,3 Onsgard Plaza,Sangiyn Dalay,,,Mongolia,98.9929867,49.2696303,10/10/20,12/1/20
962,962,NYSE,Krona,#5d581d,96761 Rowland Way,Enk√∂ping,C,745 38,Sweden,17.0509784,59.6189852,4/21/21,7/28/21
963,963,NYSE,Euro,#a8632f,04700 Forest Junction,Inari,,99871,Finland,30.9967709,63.3030414,4/24/21,4/16/21
964,964,NYSE,Boliviano,#8d9c04,0 Emmet Trail,San Ignacio de Velasco,,,Bolivia,-60.9656452,-16.3800324,7/29/21,12/12/20
965,965,NYSE,Euro,#3c0830,46127 Pennsylvania Trail,Sete Cidades,42,9555-197,Portugal,-25.7944989,37.8589492,10/7/20,8/23/20
966,966,NYSE,Euro,#544dd4,17538 Drewry Place,Macinhata da Seixa,1,3720-085,Portugal,-8.4661017,40.8253148,5/17/21,2/17/21
967,967,NASDAQ,Euro,#9ca597,2 Mallard Way,Liperi,,83101,Finland,22.3565914,60.3955998,9/16/20,1/6/21
968,968,NYSE,Krone,#674714,51962 Surrey Point,Frederiksberg,1084,1802,Denmark,12.534394,55.6697682,10/6/20,8/30/20
969,969,NASDAQ,Pound,#f261d5,12 Jenifer Pass,As SawdƒÅ,,,Syria,35.9438027,34.9810045,2/16/21,12/14/20
970,970,NASDAQ,Rupiah,#8bbb23,0 Sundown Lane,Anggana,,,Indonesia,117.4086488,-0.6349893,10/15/20,9/22/20
971,971,NYSE,Peso,#1a1733,16 Delaware Road,Bangued,,2800,Philippines,120.6194139,17.5946213,2/14/21,3/28/21
972,972,NYSE,Peso,#a0faa4,6167 7th Court,Capissayan Sur,,3513,Philippines,121.819,18.0506,10/17/20,9/16/20
973,973,NYSE,Rupiah,#bf7206,97205 Rieder Center,Panayagan,,,Indonesia,108.1110423,-7.3518129,4/1/21,7/6/21
974,974,NASDAQ,Euro,#4d7f24,949 Redwing Park,Estribeiro,11,2580-444,Portugal,-9.0355159,39.1285479,2/28/21,8/25/20
975,975,NASDAQ,Ruble,#5b2c10,25 Thierer Avenue,Yelabuga,,423638,Russia,52.061524,55.7558426,9/24/20,6/19/21
976,976,NYSE,Krona,#057520,97559 Hauk Crossing,Liding√∂,AB,181 41,Sweden,18.1855698,59.3542694,8/25/20,5/22/21
977,977,NYSE,Lek,#36afa4,80 Mandrake Crossing,Bu√ßimas,,,Albania,20.6779776,40.8913038,5/15/21,11/29/20
978,978,NYSE,Real,#4cd09e,78403 Barnett Crossing,Brejo Santo,,63260-000,Brazil,-38.9842531,-7.4892361,6/12/21,1/29/21
979,979,NASDAQ,Rupiah,#cd1faa,409 Blaine Lane,Patemon,,,Indonesia,109.5285442,-7.6162571,8/12/21,8/10/21
980,980,NYSE,Rupiah,#c6055c,322 Ronald Regan Street,Kasonawejo,,,Indonesia,138.0109374,-2.2661571,6/14/21,12/11/20
981,981,NASDAQ,Dollar,#116fa2,14 Melvin Parkway,Agana Heights Village,,96929,Guam,144.7453228,13.4677672,10/24/20,7/28/21
982,982,NASDAQ,Rupiah,#f20d76,2 Mandrake Plaza,Banjar Jambe Baleran,,,Indonesia,115.1246,-8.5324,6/12/21,1/25/21
983,983,NYSE,Zloty,#d45663,61 Burning Wood Junction,Giza≈Çki,,63-308,Poland,17.8504238,52.0610443,3/25/21,10/21/20
984,984,NYSE,Hryvnia,#fc5d31,24139 Vera Place,Vesele,,,Ukraine,35.1115128,46.9821813,10/27/20,6/30/21
985,985,NASDAQ,Lek,#606e0c,1 Forest Pass,Hot,,,Albania,19.4422717,42.3593277,11/20/20,10/20/20
986,986,NASDAQ,Krona,#b1b281,53244 Eastwood Circle,√ñsthammar,C,742 91,Sweden,18.4529131,60.2638215,8/13/21,11/8/20
987,987,NYSE,Rupee,#e76b3a,9 Dapin Circle,Kalmunai,,32300,Sri Lanka,81.8306334,7.4143831,6/7/21,12/7/20
988,988,NASDAQ,Pound,#a85399,9038 Emmet Way,‚ÄòAyn an Nasr,,,Syria,36.9299219,34.8439922,6/23/21,12/14/20
989,989,NASDAQ,Peso,#bfde75,9 Ridgeway Court,Las Flores,TAM,87395,Mexico,-97.8755614,22.2479136,11/4/20,12/24/20
990,990,NYSE,Yuan Renminbi,#d62910,9 Sutteridge Terrace,Gouping,,,China,110.060938,32.7231719,3/30/21,9/29/20
991,991,NYSE,Yuan Renminbi,#5ff51e,3 Riverside Trail,Fengjiang,,,China,109.599191,27.948308,4/13/21,1/3/21
992,992,NASDAQ,Krona,#c8eb28,011 High Crossing Terrace,Stockholm,AB,113 28,Sweden,18.0494344,59.3416126,12/23/20,7/6/21
993,993,NYSE,Ruble,#5625ef,213 Arapahoe Crossing,Leninskiy,,678944,Russia,125.430748,58.591557,4/29/21,2/21/21
994,994,NASDAQ,Yuan Renminbi,#29a44e,80025 Donald Lane,Har Nur,,,China,75.854942,30.912962,12/11/20,4/17/21
995,995,NASDAQ,Yuan Renminbi,#8b3c5a,32974 Luster Parkway,Tancheng,,,China,118.367215,34.613586,1/19/21,5/9/21
996,996,NYSE,Ruble,#609b2d,0 Continental Street,Overyata,,617071,Russia,55.8727412,58.0819675,10/14/20,10/5/20
997,997,NYSE,Rupee,#9ea1b5,7 Heffernan Lane,Baffa,,21110,Pakistan,73.2008084,34.4203709,5/9/21,3/15/21
998,998,NYSE,Ruble,#0922b5,042 Mayfield Park,Nerchinsk,,673416,Russia,116.5697117,51.9769348,1/30/21,8/14/21
999,999,NYSE,Euro,#104bf2,9662 Leroy Park,Messejana,2,7600-314,Portugal,-8.2423289,37.832557,2/18/21,12/11/20
1000,1000,NASDAQ,Peso,#b6dc89,17 Fairfield Park,Cabannungan Second,,3300,Philippines,122.1333313,17.1333332,10/25/20,10/15/20
1001,1001,NYSE,Euro,#b6dc90,17538 Drewry Place,Macinhata da Seixa,1,3720-085,Portugal,-8.4661017,40.8253148,5/17/21,2/17/21
1002,1002,NASDAQ,Euro,#b6dc91,2 Mallard Way,Liperi,,83101,Finland,22.3565914,60.3955998,9/16/20,1/6/21
1003,1003,NASDAQ,Krone,#b6dc92,51962 Surrey Point,Frederiksberg,1084,1802,Denmark,12.534394,55.6697682,10/6/20,8/30/20
1004,1004,NYSE,Pound,#b6dc93,12 Jenifer Pass,As SawdƒÅ,,,Syria,35.9438027,34.9810045,2/16/21,12/14/20
1005,1005,NYSE,Rupiah,#b6dc94,0 Sundown Lane,Angana,,,Indonesia,117.4086488,-0.6349893,10/15/20,9/22/20
1006,1006,NASDAQ,Peso,#b6dc95,16 Delawaare Road,Bangued,,2800,Philippines,120.6194139,17.5946213,2/14/21,3/28/21
1007,1007,NASDAQ,Peso,#b6dc96,6167 7th Ct,Capissayan Sur,,3513,Philippines,121.819,18.0506,10/17/20,9/16/20
1008,1008,NASDAQ,Rupiah,#b6dc97,97205 Rider Center,Panayagan,,,Indonesia,108.1110423,-7.3518129,4/1/21,7/6/21
1009,1009,NYSE,Euro,#b6dc98,949 Redwing Park,Estribeiero,11,2580-444,Portugal,-9.0355159,39.1285479,2/28/21,8/25/20
1010,1010,NYSE,Ruble,#b6dc99,25 Thierer Avenue,Yelabuga,,423638,Russia,52.061524,55.7558426,9/24/20,6/19/21
1011,1011,NASDAQ,Krona,#b6dc100,97559 Hauk Crosing,Liding√∂,AB,181 41,Sweden,18.1855698,59.3542694,8/25/20,5/22/21
1012,1012,NASDAQ,Lek,#b6dc101,80 Mndrake Crossing,Bu√ßimas,,,Albania,20.6779776,40.8913038,5/15/21,11/29/20
1013,1013,NASDAQ,Real,#b6dc102,78403 Barnetr Crossing,Brejo Santo,,63260-000,Brazil,-38.9842531,-7.4892361,6/12/21,1/29/21
1014,1014,NYSE,Rupiah,#b6dc103,409 Blaine Lane,Patemonn,,,Indonesia,109.5285442,-7.6162571,8/12/21,8/10/21
1015,1015,NASDAQ,Rupiah,#b6dc104,322 Ronald Regan Street,Kasonawejo,,,indonesia,138.0109374,-2.2661571,6/14/21,12/11/20
1016,1016,NYSE,Dollar,#b6dc105,14 Melvin Parkway,Agana Heights cillage,,96929,Guam,144.7453228,13.4677672,10/24/20,7/28/21
1017,1017,NYSE,Rupiah,#b6dc106,2 mandrake Plaza,Banjar Jambe Baleran,,,Indonesia,115.1246,-8.5324,6/12/21,1/25/21
1018,1018,NASDAQ,Zloty,#b6dc107,61 Burning wood Juunction,Giza≈Çki,,63-308,Poland,17.8504238,52.0610443,3/25/21,10/21/20
1019,1019,NASDAQ,Hryvnia,#b6dc108,24139 Veera Place,Vesele,,,Ukraine,35.1115128,46.9821813,10/27/20,6/30/21
1020,1020,NYSE,Lek,#b6dc109,1 Forrest Pass,Hot,,,Albania,19.4422717,42.3593277,11/20/20,10/20/20
1021,1021,NYSE,Krona,#b6dc110,53244 eastwood Circle,√ñsthammar,C,742 91,Sweden,18.4529131,60.2638215,8/13/21,11/8/20
1022,1022,NASDAQ,Rupee,#b6dc111,9 Dapin Circle,Kalmunaii,,32300,Sri Lanka,81.8306334,7.4143831,6/7/21,12/7/20
1023,1023,NYSE,Pound,#b6dc112,9038 Emmet Way,‚ÄòAyn an Nas,,,Syria,36.9299219,34.8439922,6/23/21,12/14/20
1024,1024,NYSE,Peso,#b6dc113,9 Ridgeway Ct,Las Flores,TAM,87395,Mexico,-97.8755614,22.2479136,11/4/20,12/24/20
1025,1025,NASDAQ,Yuan Renminbi,#b6dc114,9 Suteridge Terrace,Gouping,,,China,110.060938,32.7231719,3/30/21,9/29/20
1026,1026,NASDAQ,Yuan Renminbi,#b6dc115,3 riverside trail,Fengjiang,,,China,109.599191,27.948308,4/13/21,1/3/21
1027,1027,NYSE,Krona,#b6dc116,011 High Crossing Terrace,Stockhollm,AB,113 28,Sweden,18.0494344,59.3416126,12/23/20,7/6/21
1028,1028,NASDAQ,Ruble,#b6dc117,213 Arapahoe Crossing,leninskiy,,678944,Russia,125.430748,58.591557,4/29/21,2/21/21
1029,1029,NYSE,Yuan Renminbi,#b6dc118,80025 donald Lane,Har Nur,,,China,75.854942,30.912962,12/11/20,4/17/21
1030,1030,NYSE,Yuan Renminbi,#b6dc119,32974 luster Parkway,Tancheng,,,China,118.367215,34.613586,1/19/21,5/9/21
1031,1031,NASDAQ,Ruble,#b6dc120,0 Continental Street,Overyataa,,617071,Russia,55.8727412,58.0819675,10/14/20,10/5/20
1032,1032,NASDAQ,Rupee,#b6dc121,7 Heffernan Lane,Baffa,,21110,Pakistane,73.2008084,34.4203709,5/9/21,3/15/21
1033,1033,NASDAQ,Ruble,#b6dc122,042 Mayfield Park,Nerchinskk,,673416,Russia,116.5697117,51.9769348,1/30/21,8/14/21
1034,1034,NASDAQ,Euro,#b6dc123,9662 Leroy Pk,Messejana,2,7600-314,Portugal,-8.2423289,37.832557,2/18/21,12/11/20
1035,1035,NYSE,Peso,#b6dc124,17 fairfield Park,Cabannungan Second,,3300,Philippines,122.1333313,17.1333332,10/25/20,10/15/20