id,address,source,city,country,zip,source_id,state
1,17 Stang Lane,S,Naju,KR,,84224a89-5f15-4860-a333-aef4277d8bf0,
2,44279 Gateway Park,XL,Heliconia,CO,55827,347d3686-b7a7-47cb-adf3-1593218403bc,
3,8 Green Trail,M,Purificación,CO,734509,bc928acf-a290-411b-82b4-fc0d507bf823,
4,77913 Commercial Trail,XL,Santo Domingo de los Colorados,EC,,a977a1db-5866-4850-a28b-e13728fa54f8,
5,53 Donald Circle,XS,Mawu,CN,,ae3c65f6-1df1-4137-82fc-4bb6209157be,
6,609 Roth Road,XL,Piracanjuba,BR,75640-000,f604a2c5-abc4-4122-bd42-423fa8808d89,
7,07 Upham Place,XL,Nerokoúros,GR,,e63986db-f3e1-4874-a159-9ae197073722,
8,1 Northridge Lane,3XL,Puncaksempur,ID,,8d4f1989-b42a-45ba-9c10-870bdda88dc6,
9,53562 Delladonna Pass,S,Juru,BR,58750-000,3c7f0e45-f28f-4626-b1ff-69d2ff911898,
10,82 Anzinger Alley,M,Thymianá,GR,,e3d74b63-5efb-47a8-9fe2-fa6625723082,
11,7 Lillian Avenue,3XL,Sydney,AU,1033,68f56745-17d3-4a27-adac-b41c9d214b23,NSW
12,6 Debs Crossing,L,Vaggeryd,SE,567 24,d03a243a-4d90-4254-b3b9-4466b0e77318,F
13,64137 Artisan Place,XS,Khulm,AF,,fab1e011-4cf4-41d4-9587-bc722de23b3a,
14,33669 Del Mar Parkway,3XL,Nakhon Nayok,TH,26120,10c9d1ef-b20d-4e6f-90ec-e25a170f130f,
15,3647 Mayer Street,XS,Daveluyville,CA,R3P,03649bf9-89c8-422c-af6d-853c83cde632,QC
16,6876 Harbort Avenue,2XL,Mizque,BO,,cd013927-5629-4c40-9edc-e95feeecac70,
17,8 Porter Center,L,Newton,US,2162,af6f92b3-a524-40e0-bca4-2aa26a2a8d15,MA
18,2 Kedzie Point,L,Fengcun,CN,,9bacc521-1c14-4344-a8de-69c3f46ce6c3,
19,09010 Bunker Hill Hill,S,Linjiang,CN,,21da4baf-3f28-435a-808a-4dbe227cd83b,
20,5013 Shelley Parkway,2XL,Las Yaras,PE,,a6c70e54-3280-4d3b-9cd3-5ddc12fea8b6,
21,8 Dapin Alley,2XL,Hongqiao,CN,,70b8e42c-02e9-4064-9262-49b80dbf90ad,
22,4 Ryan Avenue,M,Lago,SL,,5e51a1b5-d69f-460a-8ebe-2663f8ee248d,
23,62625 Briar Crest Trail,XL,Staraya Kupavna,RU,142450,6323a606-c074-4a19-aa44-5e1ad0340837,
24,1224 Sunnyside Road,L,Hongtang,CN,,18debb63-b081-4683-85d0-cdb01aad8133,
25,5057 Erie Junction,M,Veguitas,VE,,06819fa8-3655-4310-bd07-b601cdd7360f,
26,60 Texas Circle,XL,Kozelets’,UA,,da5e3751-2cf1-46cf-a294-4533cede0026,
27,2380 Scott Court,M,Fudian,CN,,e6d3f20a-35ed-48fd-9dde-d49949e53411,
28,2565 Muir Court,3XL,Mehrān,IR,,eb236693-b77c-4210-8ad7-e139e9d09b80,
29,36282 4th Avenue,XL,Taiping,CN,,c5d1c8a9-34b0-4ec7-9f76-a26b27b6dc1e,
30,503 David Junction,L,El Paso,US,79934,0972c34c-0bfa-4103-831a-d73cc4f95a49,TX
31,193 Knutson Drive,2XL,Cartagena,CO,130027,994245b0-db9c-450f-8b5e-8292660eb8ca,
32,9 Forster Point,XS,Xintaimen,CN,,29274c60-6f70-4497-b004-46eda7252cfa,
33,1 Superior Avenue,XS,Tālīn,SY,,de0ca428-84f7-4f54-a947-e41dede7a0bf,
34,2 Northridge Center,3XL,Phuthaditjhaba,ZA,9869,ae677986-3515-402d-b7ed-bfd7694baf3a,
35,089 Arizona Court,M,Alcáçovas,PT,7090-021,18eb4499-19a2-464d-903a-50c78add6408,7
36,91966 Service Avenue,M,Yuhuangding,CN,,9dc3aeca-3485-48da-9de3-2e0672fd4bc2,
37,3224 Garrison Park,M,Bahorí,TJ,,6dc315bc-ceab-493c-adc3-01f9a9b5d425,
38,9056 Morning Park,2XL,Rybnoye,RU,400036,0d0a2786-c21a-4f78-b0da-c5a3ff5641c0,
39,91513 Holmberg Parkway,3XL,Yong’an,CN,,6c0e1fa5-9f3c-49f2-ba41-d6686c2c25c6,
40,52116 Eliot Place,XS,Nzega,RW,,f8ea313f-8170-40af-9295-547a7acc3c8a,
41,661 Alpine Junction,S,Seogeom-ri,KR,,2803a079-f153-4417-9ddd-7ab4b427c2a0,
42,77221 Nelson Plaza,L,Tongzilin,CN,,0bb54176-6077-449f-89d9-d0d8f7d85d2e,
43,8334 Mcguire Terrace,XS,Zyuzino,RU,142817,9146f0e9-591d-40a1-bbb1-180152702625,
44,483 Summerview Terrace,L,Xindi,CN,,310ddfb0-a880-4f27-8a52-a0db4cc9493e,
45,23166 Schmedeman Park,2XL,Tyumen,RU,625999,d87ea226-158d-4e50-a035-d9ad1d56ebc5,
46,5 Susan Way,L,Mospyne,UA,,9ae1347c-6198-4490-8d71-cd95cb4bde1f,
47,1 Marcy Terrace,XL,Retenggoma,ID,,fc3df6b8-c838-46cc-9ceb-723da3875baa,
48,5405 Lindbergh Road,XL,Huayuan,CN,,785f5ec2-b15f-4623-928c-4f5aae633ed9,
49,09506 Hermina Parkway,3XL,Xinkai,CN,,71498e02-b7b3-4174-b5cc-9c597d9e792e,
50,815 Vera Terrace,S,Jiaoyuan,CN,,84576f55-ea12-43c4-9739-52154fc97e06,
51,5 Hooker Court,S,Síkinos,GR,,777460c9-dbe6-487c-a517-adb09a2d4c43,
52,2192 Weeping Birch Point,L,Lijiang,CN,,d84146c0-84c9-4f99-b6de-e45425a0d8cc,
53,76758 Karstens Junction,2XL,Okrouhlice,CZ,582 31,b15620f9-57f3-4eb2-b9c5-f272a5904b4f,
54,7744 Schmedeman Way,L,Houzhen,CN,,0821c4a8-5783-44d9-8897-691c8b2599e7,
55,30182 Almo Lane,XL,Qiaojia,CN,,209041c6-3b76-43af-baf4-149f35fb677f,
56,79968 Fairview Street,M,Atyrá,PY,,e606d654-ea1f-42c0-baab-d7443b95ca03,
57,2 Morning Drive,S,Saravia,PH,6118,dbcbaee3-f5f3-47e5-8e91-02996c08efd4,
58,9 Macpherson Circle,L,Mafra,BR,89300-000,567eefbc-8206-4802-b176-629df8bfbdec,
59,0 Forster Place,S,Grande Prairie,CA,R3J,4f9c7ef3-634c-4a97-ba11-a4bd7fc9b932,AB
60,4 Petterle Hill,XS,Luxia,CN,,154c6193-d278-44bc-9648-b487203002be,
61,1 Sage Junction,L,Moss,NO,1536,c0986703-ef1a-4c6d-a2d9-a91212b29b41,1
62,299 Sheridan Trail,3XL,Três Lagoas,BR,79600-000,4364a430-612d-42e2-873b-8d6e22c53118,
63,03499 Gulseth Hill,XS,Bi’r al ‘Abd,EG,,c04c83cf-86a6-4dd8-9302-53b4d7131e16,
64,6 Dixon Street,L,Quezalguaque,NI,,f12dc165-1719-43a8-9b6c-7f6901cc44bd,
65,7918 Arapahoe Road,3XL,Nakovo,RS,,65bd373c-2530-4009-834b-812a52c2f8ba,
66,2 Marcy Place,S,Semeljci,HR,31402,05a5aa0f-64fe-4fb8-91f5-7be7f653367e,
67,8262 Magdeline Avenue,XL,Lewolang,ID,,f8be76f7-acc5-4762-825c-cef147692c9b,
68,3559 Westend Lane,M,Moyuan,CN,,114ffffd-6d56-4174-b527-fb95f1ec043f,
69,03 Redwing Point,2XL,Tarbes,FR,65951 CEDEX 9,fcc690f6-7943-4271-95a0-ca2340435f5b,B3
70,8630 Butternut Park,XL,Guozhai,CN,,dc00f716-2386-445d-bdae-b33d06a6a96a,
71,8832 North Point,S,Cachimayo,PE,,811229e9-fbbb-4593-9aed-3204fdbe4bc6,
72,77 Longview Street,3XL,Wuqishan,CN,,1dad7ee2-50d5-4a7f-974a-5d1b9351dd7a,
73,4 Roxbury Court,XL,Zhongzhai,CN,,c7a26941-79fa-49fb-893a-2f0e74c41c9a,
74,0 Oakridge Place,L,Savigny-le-Temple,FR,77544 CEDEX,23d2d18f-433e-40b9-9680-71027eec1914,A8
75,5 Everett Pass,L,Muḩradah,SY,,7ae22d1b-72cf-4b34-88c3-1521c1c4d033,
76,470 Jenifer Road,2XL,Évora,PT,7000-062,78476d90-c80e-4d38-9ed4-b3fb07e24551,7
77,9 Heffernan Avenue,3XL,Mercedes,AR,3470,efcfd69a-8282-4a56-9562-fc9631646a1c,
78,782 Sycamore Junction,L,Mikhaylovsk,RU,462401,f80fe384-c685-49c4-beca-c9dda6ea9805,
79,12189 Swallow Park,2XL,Jōetsu,JP,949-1742,e4e28890-6762-418e-8754-5d7aaf47fa99,
80,8 Union Trail,2XL,Shangzhang,CN,,a5f2b7ab-ff0c-4139-9aef-619d8549aa75,
81,96584 Talisman Parkway,M,Yangirabot,UZ,,27b0e74c-7df9-41a3-97d2-ec41f4846953,
82,607 Mandrake Pass,S,Gaoyang,CN,,f6d91127-5dcc-4929-82e6-02e4d979518c,
83,1 Birchwood Junction,S,Mollas,AL,,70424901-b41f-4d12-a1a9-7147401ec01f,
84,9 Londonderry Center,3XL,Ratoath,IE,A85,515e2f07-6245-4492-9433-19427b77d681,
85,5049 Armistice Place,M,Jawhar,SO,,612200cc-7d57-4b0e-a841-588d11b2501e,
86,61 Bashford Terrace,XS,Lapid,IL,,41e40ded-86b9-4e30-a862-8695d8d2d0d3,
87,077 Blackbird Road,L,Cabusao,PH,4406,5bf323fb-7371-45f5-a524-6b4c09c1421f,
88,11238 Chinook Drive,XL,Luena,AO,,044c8fcb-ca9b-46f8-89d2-e36586718754,
89,6992 Scofield Alley,XS,Thị Trấn Than Uyên,VN,,89da6d1c-b8f1-419a-907f-3cbf30fcff38,
90,89 Del Sol Court,3XL,Szczerców,PL,97-420,6b82ec4e-3532-4d2f-90d3-7da489b28c54,
91,74518 Butternut Avenue,M,Trondheim,NO,7404,141f97c1-5e37-4957-9518-65b6ba8d93c5,16
92,53 Grover Plaza,XS,Khu Khan,TH,56110,89a4eb9d-c991-41e3-8c5d-82809866ef7c,
93,9 Pond Avenue,L,Ariguaní,CO,273017,59b70797-374b-4c07-9f2a-ae8c5a6a68b0,
94,2 Cottonwood Center,M,Machala,EC,,3c1e18d0-e691-49ad-b836-5171ea78ebd4,
95,54 Starling Plaza,M,Ōmihachiman,JP,527-0087,9f434be9-0c30-42f7-9904-eda01659cfe8,
96,2145 Ramsey Junction,2XL,Samanggen,ID,,7651ce37-a6a0-4671-9f82-b93d89150c12,
97,0 Novick Drive,3XL,Somerset East,ZA,5850,a6766abc-fb93-436a-9319-fe894bd1328f,
98,995 Mayer Point,XL,Cabodiongan,PH,3122,c1a4e8cc-b670-4845-a6df-2214c2756fe7,
99,0516 Melrose Terrace,L,Sebeta,ET,,7ea99a60-f7fd-4899-9660-0c2274b55629,
100,6056 Morningstar Road,2XL,Tuburan,PH,7306,39c2fb6a-431e-4af6-b231-9a69e6623579,
101,006 Glacier Hill Pass,S,Senadan,ID,,1eeaf32d-3757-4d2e-b7ee-ec523e464858,
102,6 Kingsford Pass,3XL,Tongmuluo,CN,,ac5e0740-5a6b-406d-88d9-c814ee379508,
103,598 Moose Crossing,XL,Shangzhang,CN,,a962ae1a-0555-4499-8c55-b9837e78e839,
104,4101 Messerschmidt Terrace,S,Turan,RU,668510,9e034aae-5c71-478b-90c2-f040701c2894,
105,86 Moland Drive,2XL,Sumberjo,ID,,e1a1def2-a902-4f83-99e4-f767a85d7367,
106,7778 Onsgard Street,3XL,Piedra del Águila,AR,4624,9e647285-66ae-49b1-a040-eb99270ce338,
107,3717 Burrows Plaza,L,Fargo,US,58122,c3f997b2-f93b-4292-991d-9948fe317562,ND
108,72 Maryland Court,XS,Khursā,PS,,2aa4a54f-62ee-4263-9e54-c59e9e5f1102,
109,3 Forest Circle,XS,Jadów,PL,05-280,87891352-6cd6-44ef-90ed-171991342843,
110,6752 Scott Lane,3XL,Danauparis,ID,,9e232c04-c3ef-42d6-b5dd-7ce96aca0bb4,
111,9647 Towne Avenue,3XL,Menzel Jemil,TN,,ecaacf93-89cb-4b9e-9096-c92a0ea90043,
112,43 Golden Leaf Avenue,L,Kusak,RU,423430,4aa44778-6c8b-42f3-8fb6-39183346dd74,
113,9 Judy Center,2XL,Khorlovo,RU,140235,558b19fa-585d-45a1-97b6-430efa75b02e,
114,3800 Mayfield Junction,2XL,Cidadap,ID,,c9f41f4e-0f81-4920-8e50-d3c95cbc156c,
115,56831 Buell Way,3XL,Karvia,FI,39930,132ceae8-9c4c-4d03-9171-14c99fad4be0,
116,49413 Norway Maple Avenue,2XL,Yongfu,CN,,af3665e8-557e-48ab-9fa2-22f03fca277d,
117,66144 Rockefeller Terrace,XL,Kopychyntsi,UA,,73094d8b-83b8-42ea-bef2-686737e456e3,
118,11 Lakeland Place,XL,Santa Bárbara,VE,,1b6a68da-1a09-4767-b34d-426244dc2a19,
119,99759 Vahlen Street,S,Gugark’,AM,,0c371a50-9b0a-40ae-abe2-3e94a733e3e5,
120,90884 Thierer Plaza,S,Lugovskoy,RU,628532,cce50243-afb4-4c1d-b524-bc5313bfce81,
121,589 Gale Terrace,S,Bissen,LU,L-7794,75655448-34ea-45b7-b69d-2c297bf12b6f,
122,2 Eggendart Crossing,M,Karangboyo,ID,,c0ab459c-d22f-4d2f-85d8-931ec3658e88,
123,5 Shasta Park,S,Grand Sable,MU,,5916b278-95f8-4109-ac39-6cbfd903f739,
124,4969 Lyons Street,2XL,Dukou,CN,,8e871edb-fce4-41ea-8432-4f379542f2f7,
125,5 Valley Edge Circle,XL,Dolna Banjica,MK,1238,a0da4329-9d9e-4b21-945f-c19c0b1c1c2d,
126,9171 American Ash Hill,XS,Orzech,PL,41-922,a2189e80-a2d1-49ad-90e1-75d26167b6f0,
127,064 Messerschmidt Place,L,Nomhon,CN,,0b1eb96d-a559-4207-83b1-63e9b2c6cadf,
128,2 Pleasure Way,2XL,Caticugan,PH,6219,81c6b742-8e4e-47f1-9f83-082aade9173f,
129,79 Fordem Way,XS,Vila Nova de Gaia,PT,4400-005,2d68ee71-85fb-47b4-be06-00f62387834c,13
130,38 Westridge Crossing,XS,El Matama,SD,,75e179b5-4c2d-4448-9330-b2243efac6f2,
131,2980 Straubel Street,2XL,Shi’an,CN,,eb07a3f5-6614-4f6c-b2a7-81e34a7b838c,
132,898 Ryan Pass,S,Hiji,JP,905-1413,f418eed1-a443-4e6a-8205-cde60dc67b9d,
133,77 North Hill,S,Petawawa,CA,K8H,8b206ff6-8c1a-46b9-b43e-43c3ff110709,ON
134,93614 Shopko Point,XL,Loma Bonita,MX,52740,5bad084a-b715-4770-b61c-9274394fc14c,MEX
135,550 Shasta Road,S,San Jerónimo,HN,,9f098e12-e915-499d-ab44-2c032fa19b13,
136,530 Clarendon Street,XS,Riang Tengah,ID,,48b6e6bf-0193-42b5-9d80-076a765bba46,
137,1 Steensland Place,S,Carregado,PT,2580-466,97acc822-dc4c-4e71-8350-958ac5273fb7,11
138,85 Upham Drive,L,Karangnongko,ID,,5da1fe7f-8e4a-450b-ae26-250d3285de74,
139,5104 Veith Crossing,L,Karachi,PK,12311,16b94aa2-0aa9-4576-a68e-97df721ce3dd,
140,6417 Warbler Plaza,XS,Garawati,ID,,bc341e66-566c-40a5-ae86-441689789889,
141,31 Dixon Circle,M,Jingdu,CN,,07e1eee9-e778-4342-81a7-f6e5f5919bb0,
142,4476 Brentwood Trail,S,Ila Orangun,NG,,f8784990-7dda-44a4-bbb0-f1397e7b9159,
143,19 Texas Terrace,3XL,Moss,NO,1508,64323b50-594f-4301-a057-deffaaaa01d1,1
144,9522 Judy Circle,2XL,Huangzhawan,CN,,c8299583-d15e-4a3b-bb5d-972de58c0f2c,
145,2380 Shoshone Crossing,S,Olmos,PE,,c91444de-523c-4006-b214-866fbcd734d8,
146,2212 Sage Center,XS,San Carlos de Bariloche,AR,8400,60771e28-f8f3-40a4-be45-a37148b98f3c,
147,2 Kinsman Way,L,Aghajari,IR,,ece57912-701e-4a94-bda9-3243c0753c1a,
148,77 Maple Trail,S,Cizhu,CN,,98c89b08-e0eb-4533-a757-0d616dcbbe0b,
149,23692 Buhler Junction,XS,Hanjianglu,CN,,bcf39798-a36b-4851-995b-00a52b2e7099,
150,4482 Lakewood Trail,3XL,Lanot,PH,5815,fd0de447-fc81-4f23-b17f-e5dd6881093e,
151,687 Corben Crossing,2XL,Trondheim,NO,7419,e839ab93-26ca-4e7e-9c39-669c7f6464e9,16
152,44 Burning Wood Crossing,M,Baisha,CN,,9cb68bdb-12a1-4716-96cf-8ab2b428998d,
153,32435 Erie Hill,3XL,Brest,FR,29609 CEDEX 2,5a9a9197-b3ee-4d74-ad0a-13aefa41ab0d,A2
154,1 Crescent Oaks Way,L,Zamostochcha,BY,,fa8a0c94-d949-44b9-92cf-709333a5ffa9,
155,4246 Rockefeller Plaza,L,Zitong,CN,,80ec6345-62d0-4381-ab2a-23a7978513c6,
156,8 Morning Center,XL,Kota Kinabalu,MY,88837,89279e21-a350-4454-82f9-652061d44ea6,SBH
157,57 Hanson Parkway,M,Banjar Sebual,ID,,ecdda8ad-8a17-4ae4-99ae-dcdcf0fd0fef,
158,61 Nobel Crossing,3XL,Miaojie,CN,,643f21fd-8289-4a5a-9cf3-045408adf1b7,
159,50875 Algoma Pass,XL,Bebae,ID,,e393485b-1f7d-4bb7-b6d1-cf5331693049,
160,59 Oakridge Junction,L,Gwangtan,KR,,35f624f4-24c3-4859-a344-6a4d95b1b9d7,
161,39 Sherman Lane,M,Wonosobo,ID,,f79ef533-778b-4e85-bf88-9b61cf16cda3,
162,4964 Darwin Terrace,3XL,Barrunchal,PT,2710-151,5382c0ac-966d-4b6e-8631-86300957f599,11
163,130 Union Hill,M,Sumqayıt,AZ,,26a8d191-571a-4ac3-8a4c-cc1c4d313b22,
164,50186 Kenwood Drive,XL,Santo Tomas,PH,8112,307de8aa-30e2-49be-97f8-09b069a52371,
165,409 Toban Center,XL,Changdai,CN,,a3a79d4d-7745-4a24-898d-f8f3b176e109,
166,172 Moose Avenue,S,Malanay,PH,2419,1a31ceef-213f-4717-9119-c8e3a33883b2,
167,857 Judy Road,M,Lapa do Lobo,PT,3525-606,21c1e55e-5986-498e-b59e-a174a12f0fc2,18
168,3 Wayridge Point,M,Moramanga,MG,,b288ca53-3985-4eb0-b432-0ed3e4160f3b,
169,4 Tomscot Trail,L,Zhongguanyi,CN,,33a6c0f6-958b-487f-a644-cdea5f44c961,
170,7 Derek Avenue,M,La Paz,UY,,38b441b3-071c-4a05-a983-1f55cc621efb,
171,6 Kinsman Center,3XL,Las Palomas,PY,,ec55bf82-2861-4f3c-820b-5f8b7cd68d97,
172,6253 Magdeline Way,M,Piraju,BR,18800-000,18db46e3-f53b-42e4-84b1-ce2ebd99925f,
173,1248 Myrtle Court,2XL,Casais Brancos,PT,2525-234,cd19e4b1-ca1c-47ca-9a37-596fd8cf82b5,10
174,883 Miller Point,S,Yanqul,OM,,48e4d565-d1d4-4f4c-86fa-f8d1ad546ad5,
175,315 Bay Point,2XL,Ribas do Rio Pardo,BR,79180-000,ebf96187-cac0-45a4-b398-62ecc7d40779,
176,13515 Waywood Lane,XL,Simões Filho,BR,43700-000,b10daf27-cd7a-47e3-b569-394e683d17dd,
177,305 Mayer Way,S,Mentaras,ID,,af3f4b97-b10f-410f-88ca-25647443d377,
178,052 Knutson Drive,2XL,Ujung Gading,ID,,10bd4f61-77c4-43a1-a597-47753d70f5df,
179,54 Colorado Alley,L,Los Angeles,US,90094,0fc9d521-1051-4b12-80b8-c59fc72c4c60,CA
180,375 Warner Crossing,L,Chãos,PT,4690-805,6a1d35f7-0917-45c0-9fef-cddeca574753,18
181,32205 Jana Plaza,M,Cumanayagua,CU,,8a3a63cc-74b3-4f08-a6c3-46c70f351713,
182,30 Dahle Park,M,Estaca,PH,1123,4962aefb-74dc-4bd9-8b93-ac27c65aa132,
183,1 Kings Park,M,Bukovec,CZ,739 84,4903cccc-60a7-45d4-bde3-023a368f13a9,
184,775 Toban Way,S,Zavet,BG,7330,8e8f5301-5b6c-4fd7-b31c-ab1842e02771,
185,8 Mandrake Crossing,M,Karangsari,ID,,4c37e890-94bb-4dd7-8e00-1de4d7b97099,
186,58 Glacier Hill Way,S,San Marcos,CO,704038,d6bbe6fa-d92d-46aa-a1a1-44a89e361890,
187,105 Alpine Lane,XS,Meicheng,CN,,ae984954-e036-42a1-ad53-05bdf2e1644f,
188,7 Maryland Road,3XL,Borik,ID,,c4f5a7ac-31ab-4b05-a188-9f59794ae721,
189,13571 Spaight Crossing,M,Burrel,AL,,481efa07-ba36-433d-a329-94c871baaaf4,
190,88 Maywood Trail,2XL,Cesvaine,LV,,6dc0881c-f5bf-486a-becc-e4a3763c69f2,
191,72 Stoughton Pass,XS,Sarvābād,IR,,3c9a0ac3-8aa4-401c-9bb7-e6a6a54f30f9,
192,8 Eagle Crest Terrace,L,Jargalant,MN,,40df4b86-4106-4d78-bcb9-7c39aab572a8,
193,3 Parkside Parkway,M,Qızılhacılı,AZ,,d44a6954-fa46-4c63-b902-90f228202183,
194,7147 Birchwood Pass,3XL,Kąty Wrocławskie,PL,55-080,d3230f2c-b815-4762-bf61-ae3eb123b3b8,
195,06080 International Park,L,Sopo,ID,,73a9e84d-2a95-4b3f-b333-44fa0291417c,
196,10 Ridgeview Circle,M,Féres,GR,,f603595f-ac23-4b82-b457-0ac508836c06,
197,233 Fulton Court,S,Daegu,KR,,049befb6-2cdb-4cdd-8eae-abb82f32d484,
198,89080 Weeping Birch Junction,M,Chuandao,CN,,d292b4cb-75ce-4704-949a-882542dc7d9a,
199,8 Farwell Alley,XL,Kota Kinabalu,MY,88861,6817cf1c-0ead-4c6a-bd3b-6e1f282baad1,SBH
200,9011 Lunder Terrace,S,Tarica,PE,,1f716f8e-1fcd-404c-881f-7d94d32198cc,
201,63 Montana Avenue,S,Jiuzhou,CN,,d66e484d-3373-4c96-acb5-6342cd1687de,
202,0 Hauk Trail,M,Ramiriquí,CO,153457,04c1248c-d96b-464d-a572-2fd954186051,
203,099 North Court,XS,Wuquan,CN,,db24943d-6043-41e5-b51e-f8113d373c6f,
204,935 Hanover Drive,XL,Łętownia,PL,37-312,e68f5b77-8d3d-458c-b820-a8810ab8bdb4,
205,92439 Park Meadow Place,XL,Chengyang,CN,,8ed96a8a-db9f-42ee-aa59-caad889ce6ab,
206,3 Warbler Crossing,3XL,Pickering,CA,L1X,79398825-6b1c-4813-aa40-b660964054b3,ON
207,6 Red Cloud Avenue,L,Grosuplje,SI,1290,8ed2fd5d-0230-4526-819d-ca4b89573fb7,
208,37036 Sloan Pass,3XL,Niquelândia,BR,76420-000,4a6c6e79-5471-426d-b3e7-8ddb23a0dd2c,
209,5098 Lien Circle,XL,Santa Cruz do Capibaribe,BR,55190-000,dfbc6bc1-9782-4fac-9f1d-00552577a516,
210,05 Warrior Drive,M,Masis,AM,,564c982c-7b36-4d97-8579-47535aac5873,
211,6736 Mayfield Center,XL,Inuvik,CA,E8L,deb8585e-4643-4e0b-b4e2-01cc137d14c0,NT
212,4 Menomonie Parkway,3XL,Foz Sousa,PT,4515-093,f89b8107-9076-490a-90ab-2e7172ddee38,13
213,28 Northland Center,XL,Laleng,ID,,7d4a853d-7371-4b4a-b5f2-e8396d920646,
214,766 Kings Street,S,Mizhirah,SA,,28b98840-9a61-4665-a10b-e2709092021a,
215,99 Coleman Junction,XS,Sokol’skoye,RU,606670,3abcdffd-f318-4cff-86b2-6cea100a6498,
216,1969 Hallows Center,2XL,Gongju,KR,,3cdaf77d-7c61-4f9f-bbdc-a0481c9b4185,
217,11020 Main Terrace,S,Pancheng,CN,,8f6f9963-8280-4fb3-b26d-ac568a12b6fe,
218,7 Main Place,XL,Évreux,FR,27022 CEDEX,33aa203a-47fb-4dda-b66c-1a3923dc621b,A7
219,769 Clyde Gallagher Circle,XL,Avignon,FR,84913 CEDEX 9,9ec693e6-8975-4906-9881-29c0f7b95034,B8
220,673 Manley Center,S,Fréjus,FR,83613 CEDEX,0235303d-f109-4d08-9343-f815dc879d21,B8
221,82 Meadow Valley Pass,M,Rîbniţa,MD,MD-5519,fcb260c3-8f65-48dc-b518-854bc1ff47a3,
222,63 Hoffman Parkway,M,Oliveira de Baixo,PT,3515-541,ae85d10a-8b6f-4548-8e09-8ebb4074541c,18
223,04 Lunder Trail,XS,Mitrópoli,GR,,b8f39674-350c-403a-8ce5-0682d221351c,
224,35 Kensington Alley,S,Getazat,AM,,ebf2bcb7-6628-4bf9-8378-3f7f792e2388,
225,8748 Colorado Circle,XL,San Antonio Oeste,AR,8520,ed288e02-e742-4013-85c0-1c04b080a462,
226,3 Lakewood Gardens Lane,3XL,Balakasap,ID,,a1edd703-e0e0-42b1-b0f3-ea4ca1d69faa,
227,734 Heffernan Way,XS,Kamojimachō-jōgejima,JP,779-3244,027ea5e2-3cb7-4c55-9fa4-2e3f904225e4,
228,32 Fieldstone Park,2XL,Gunajaya,ID,,41c0d492-623a-4bb4-85e3-a961529df32a,
229,7360 Hoepker Crossing,3XL,Ketangi,ID,,f34cada4-99e8-4d19-8875-16d2134cfdf9,
230,0 Grayhawk Plaza,2XL,Senovo,SI,8281,7dfbec42-222e-4281-9b13-3779208caa11,
231,771 Muir Lane,3XL,Dahua,CN,,4737b32c-3291-48ee-8537-bbb2e17d1c0c,
232,731 Memorial Circle,XL,Onan Ganjang Satu,ID,,f4592aab-1b8d-44e6-a9ec-72c2b999fb0e,
233,81784 Birchwood Hill,2XL,San Nicolas,PH,4207,86d383ee-1116-4ea5-bc97-0a58b1bb4721,
234,92 Harbort Junction,L,Albany,US,31704,83caf364-ce4a-459b-8420-0e2475b658b8,GA
235,68 Almo Place,S,Bastia,FR,20403 CEDEX,f3ce3cde-f770-47a8-804c-892a36a3d10b,A5
236,41 Hazelcrest Parkway,XL,Krajan Selatan,ID,,c18a6c53-de1b-4749-863d-b793b2a12676,
237,227 Golf Hill,2XL,Paola,MT,PLA,10dbb24e-9238-45b0-be94-e3b520ef03ec,
238,25360 Everett Point,S,Nekla,PL,62-330,cd571064-6adf-49f6-9e54-5a493e6cc5ff,
239,968 Forest Dale Terrace,M,Pendembu,SL,,748f6b40-65f7-4480-807d-616372e6e789,
240,5799 Katie Road,M,Ntungamo,UG,,3bfba26a-dd05-4a1e-b94b-0a9ba262e3f3,
241,97540 Huxley Road,XS,Zavitinsk,RU,391710,342df628-ca36-4d09-924f-a7358f91c29d,
242,14325 Lighthouse Bay Court,XS,Bergen,NO,5041,0da17cd2-46ee-4c69-a02f-c0506435a1cf,12
243,08710 3rd Drive,2XL,Kiiminki,FI,90901,40eb2d7b-9126-43b3-a209-60dc81fbb02c,
244,1143 Butternut Way,S,Kruševica,HR,35220,8c2a3aaa-0637-419c-a8c0-1d6cd8b30302,
245,788 Blaine Plaza,3XL,Semarang,ID,,e13b228b-b82e-4b37-9eac-806e89a38104,
246,06442 New Castle Trail,3XL,Hutang,CN,,77a54a82-fbeb-4e5b-a58e-5054432a9e85,
247,1299 Surrey Junction,M,Calubcub Dos,PH,906,693321b7-c4db-49f3-84b8-d76e3b006960,
248,16 Morrow Pass,XS,Shuangjiang,CN,,76de736c-6c6f-4b75-90b7-ac55fed2aa6a,
249,69 Iowa Place,XS,Pasembon,ID,,e6f35e22-084e-4a7e-bbf1-0173f7a18058,
250,7568 Mandrake Parkway,XS,Changmao,CN,,78749751-98c9-466c-a1a7-96050b293f1a,
251,3672 Dorton Center,XL,Cama Juan,PH,1656,b93fd4ad-8cb3-4725-a328-e3742ef8df57,
252,9 Pearson Crossing,2XL,Selnica,HR,49246,706487ed-395f-4d5a-83dc-5a9bb7b16d72,
253,88 Londonderry Junction,3XL,Las Flores,MX,87395,b735ad36-f1e0-4ba4-9e08-c396ed8dd3e3,TAM
254,34 Kipling Crossing,S,Ron Phibun,TH,80130,d00528a4-670c-4e18-aadd-e4f6d7a1ec88,
255,01 Sauthoff Lane,XL,Sanjiao,CN,,a6684347-b592-4195-8bf9-f7d7ef770026,
256,0 Boyd Junction,S,Mogoditshane,BW,,1a243382-eb39-4ab5-b105-70a604cad0b1,
257,179 Forster Point,2XL,Banggel,ID,,3f1194c3-6bdb-4305-8494-2f07bb9ff61e,
258,4 Holmberg Court,XL,Nglengkong,ID,,dff7528c-8a28-4b65-8a35-5796d40d5f7e,
259,20 Maryland Trail,S,Circa,PE,,edc7d376-69ef-4010-8ba9-927f16437112,
260,981 Hoard Alley,XS,Huangshanguan,CN,,85c7a5c0-749e-4e72-8c07-ac89ebb82cc4,
261,8 Springview Drive,2XL,Fenchen,CN,,3cc38dcb-3b76-464d-9364-f1643541519b,
262,95 Weeping Birch Court,M,San Carlos de Bariloche,AR,8400,bde140c3-5812-4831-9621-f42eafd7316c,
263,13 Atwood Court,L,Ōtsuki,JP,402-0056,6be8f812-b695-4b08-8fa2-acdffac7fddd,
264,38 Eggendart Place,XL,Wuli,CN,,75a17db3-04c6-4c45-b771-5249fb34d8c7,
265,9310 Mendota Terrace,3XL,Koina,GM,,7cf8e2b2-1d33-4a4c-92dc-6e577d4d60d4,
266,79328 Anderson Street,XS,Benevides,BR,68795-000,8b1d8aaf-f990-4bba-bc70-154f64415b22,
267,2601 Larry Alley,L,Hernando,AR,5929,4a8f53d7-52eb-49c6-a72d-6f967b9f47a6,
268,731 Springview Parkway,S,Rondonópolis,BR,78700-000,597f37a1-f71c-478a-a2f0-fccb9748fa33,
269,2 Declaration Crossing,M,Ricardo Palma,PE,,6b94bb69-6f2c-4650-b65b-992a4590d161,
270,28 Sherman Point,XS,Turmi,ET,,c7820c96-aa73-450a-ac1d-5f42982ba16a,
271,0 Emmet Trail,L,Bezerros,BR,55660-000,70ba0887-3617-4b52-bf6f-8c87fa420ea0,
272,23371 Schiller Plaza,2XL,Qiqing,CN,,140edf3c-3b3d-4d27-98cf-039b79842673,
273,159 3rd Crossing,XL,Changle,CN,,5356a3da-aaeb-480e-b785-e748dd3e8abb,
274,086 Hintze Street,3XL,Arai,JP,989-2463,66c87dee-9977-49ed-a514-afa32e11cd68,
275,19 Union Court,L,Huaidian,CN,,7cde3e81-ae0a-45f8-a26b-9753a50acd25,
276,2 Pierstorff Road,M,Berëzovskiy,RU,662514,78c5e96d-eaf4-4134-9641-ef2bdb4be385,
277,4 Hallows Park,3XL,Vyshchetarasivka,UA,,d45c1451-5312-45a1-a8af-f4fe1821fe63,
278,1446 Oriole Lane,L,Huangchi,CN,,4c51f696-b7e6-46fe-96a7-a586c917cb9e,
279,3 Southridge Point,M,Mahuta,TZ,,af05d5ed-96e9-4cd4-a2bd-d3d3bb6332d8,
280,38 Muir Road,XL,Velké Opatovice,CZ,679 63,140e1d6c-0671-4745-b27d-a4fb32f650d2,
281,4 Badeau Crossing,2XL,Brongkalan,ID,,abe47b49-81e3-4892-a02c-bd1900d5a2f0,
282,641 Atwood Alley,3XL,Shujāābād,PK,22161,d1e22140-aee1-4dcf-9d69-a5860cbb67e4,
283,22061 Ohio Point,M,Boussé,BF,,95dfc522-6ee4-47ae-a7b2-7f537f2eafe1,
284,89509 Esch Park,XL,P’yŏngsŏng,KP,,76caffad-4b6a-4cc8-bdf3-aba1d9222486,
285,17172 West Hill,XS,Sacramento,US,94263,f5735f60-82e9-4515-9651-b32ee21f6959,CA
286,76 Milwaukee Parkway,L,Changping,CN,,e084aa37-2e2d-44f4-9b32-466ac90398c9,
287,2432 Morning Road,S,Sarangmeduro,ID,,bcc4c251-35f9-4477-bb00-5db808922260,
288,21315 Hovde Center,S,Capacho Viejo,VE,,3aa3f362-d147-4f23-ad1a-1888f8285662,
289,4 Troy Terrace,3XL,Ozamiz City,PH,7214,a8c56280-b295-471c-9615-a728350bc3d6,
290,21612 Tomscot Terrace,XL,Las Carreras,BO,,8943ce7e-e2c1-44fc-8bf9-f8aa971f7608,
291,423 Thierer Alley,XL,Konstantinovskoye,RU,356500,d8098b33-4cf8-46f9-a97b-1a1fc765887b,
292,0756 Logan Alley,S,Donja Dubica,BA,,137ee170-e910-4760-b86f-3dec386d19da,
293,54750 Browning Junction,XS,Taosha,CN,,20e9ece1-6b45-4da9-8ab0-6e160c1336b0,
294,68 Erie Road,S,Colombo,BR,83400-000,dec13bdf-bc3e-4ea8-a1c5-0a10723a2e74,
295,7192 Melvin Avenue,M,Dagda,LV,,88120850-d258-48d5-a471-189d8e89e703,
296,071 Scott Center,S,Glubokiy,RU,347850,4d7df6da-60d1-4243-a820-72a465e78049,
297,495 Bunting Trail,3XL,Mubende,UG,,e7d9bf9f-db67-4ba2-b55e-c48b1e379929,
298,3078 Elka Street,L,Daping,CN,,f54ea87c-c550-4455-a72c-45214f050767,
299,69605 Duke Place,XL,Thị Trấn Thọ Xuân,VN,,add17e9a-105c-491d-989b-27defe4a84e0,
300,5 Oriole Terrace,2XL,Hohhot,CN,,2bde48f7-f15f-40f9-8291-ebf9db0d8e7b,
301,70735 Magdeline Street,L,Rodez,FR,12030 CEDEX 9,46a9452c-47b2-4c05-9021-69685a860bae,B3
302,23828 Northfield Trail,2XL,Chikwawa,MW,,25e6df7c-db3b-4b16-a0d8-eb8a75f9a977,
303,06 Claremont Avenue,XS,Rosario de Lerma,AR,4405,aefc3f02-472c-4d03-ad7e-19520b96c1cf,
304,4902 Dottie Circle,2XL,Morbatoh,ID,,b3cd581b-6112-4255-8d05-f139a8e59b42,
305,74 Buena Vista Trail,2XL,Liutan,CN,,649b40bb-1f93-471c-aa07-47fb228781cc,
306,44797 Cascade Pass,M,Jawand,AF,,c86e9241-e715-488d-a66d-563c3cc7945e,
307,3748 Melrose Trail,XS,San Gil,CO,684039,efdb7584-d7cd-4166-9713-289a963da281,
308,8237 Mitchell Circle,2XL,Shuiyuesi,CN,,1e7cb8a2-65c7-4011-85ed-70ee40b21127,
309,74637 Iowa Point,M,Alor Setar,MY,5460,b73938b3-2dc3-46ea-9a19-3b9213696981,KDH
310,6 Arrowood Parkway,3XL,As Sawdā,SY,,7dc95a70-ad57-4348-a7d2-555cfd0925de,
311,77788 Hintze Park,2XL,Alverca do Ribatejo,PT,2615-009,1b53ee4e-ca8b-4147-858c-3d7235e44ff9,11
312,9505 Sage Way,XS,Köln,DE,50733,16fad822-89cd-4365-9ab4-94cd671541a3,NW
313,8 Pepper Wood Trail,3XL,Yangmiao,CN,,a541735c-7cf8-4f23-aa01-b3ac7b752467,
314,112 Thackeray Parkway,3XL,Rybno,PL,96-514,408a068b-9ab4-426a-bd0b-a230c0446970,
315,3 Meadow Vale Court,XL,Talisay,PH,4602,9d47f6d4-3e62-470c-9f28-9b1f98e84506,
316,1 Briar Crest Lane,2XL,Kuala Tuha,ID,,59e8c324-6833-48ec-9f52-246d6baef527,
317,7912 Menomonie Hill,S,Huibu,CN,,e2be4f11-5ea1-4706-ba43-239e20f4c1be,
318,5 Texas Parkway,M,Esperantina,BR,77993-000,eae6d070-a3f3-45e0-84af-75057aada2df,
319,3769 Lakewood Gardens Crossing,XS,Gunungsubang,ID,,c8086fed-9b33-4f3e-8c24-5d1f4392a6c9,
320,2 Artisan Avenue,2XL,El Socorro,HN,,6eae9787-5ac8-4137-a4b3-ee14f2e11ed2,
321,0982 Del Sol Way,L,Xiting,CN,,f98736e5-8a14-4db1-92fd-cddd97a216f8,
322,4 Coolidge Point,XL,Patitírion,GR,,3e4b2dfa-7dca-488a-99d7-613524479036,
323,8 Basil Plaza,3XL,Pajić Polje,BA,,357b096f-eadd-4108-9c92-bd946f05819a,
324,5 Sloan Lane,2XL,Tonggu,CN,,4e05006d-7ce8-49a4-8b04-024dde0d3beb,
325,90198 Kings Plaza,L,Ngozi,BI,,d9e8004d-8e9c-4880-9172-4d6f1a301517,
326,6 Clarendon Road,XS,Chadan,RU,668110,f902d10d-40f5-44c1-9acc-a7bd0318e00a,
327,31 Nova Terrace,S,Leńcze,PL,34-142,d02d35c5-48da-4cb4-a0de-a9bfacb5fe47,
328,157 Pawling Street,S,Bouaflé,CI,,84c2dbe3-88f5-49bc-8394-0c35e910081a,
329,03 Brickson Park Terrace,3XL,Nong Muang Khai,TH,12140,a6bc84cb-028a-4615-88b7-5ef1af6d0ff7,
330,662 Shopko Hill,S,Sruni,ID,,965db1e6-7e12-46db-a33a-580ab64fd44d,
331,8599 Trailsway Lane,XL,Hujra,PK,56170,a1b5f7f5-ac6c-4fb5-aa17-4d8782e74a8e,
332,957 Merchant Junction,2XL,Batanamang,ID,,fc610777-626b-48da-a13f-03319a5fbfa6,
333,3 Rusk Alley,S,Ilići,BA,,dddb232c-74eb-4ed0-9082-fc35e9d7656e,
334,7747 La Follette Drive,3XL,Puerto Barrios,GT,18001,4b695687-53e8-4675-9395-2391cf61c7c0,
335,25181 Vermont Street,XS,Kenscoff,HT,,4172572a-d82d-4240-9719-d76cc63152fc,
336,46070 Lake View Way,L,Redcliff,ZW,,ddb7d002-2fb8-4fb2-930e-6f8a08c521ee,
337,5252 Meadow Vale Trail,L,Pinheiral,PT,4625-253,ef78d10d-a080-4614-bff2-83def63f0c64,13
338,6 Pennsylvania Point,XS,Golcowa,PL,36-231,32d0c1b2-2284-499d-b429-588746428b67,
339,94 Monument Hill,L,Revava,IL,,55416a5a-a32b-40ae-8007-d624d0fa4457,
340,85786 Bunting Pass,2XL,Goba,ET,,56fadb84-350f-4aa9-aec3-b0bfe2e5f04c,
341,54434 Monica Court,S,Czarna,PL,39-215,84fd2e23-e9d6-45cd-8b6c-36b80699be40,
342,6 Elmside Pass,XL,Yimamu,CN,,79ee0785-e973-48e5-bbbc-f759a280d03d,
343,99750 Transport Alley,M,Buinsk,RU,429720,3ccfa126-8935-4fd1-8306-e5b83bc80898,
344,60641 Pepper Wood Hill,2XL,Huancarqui,PE,,86523711-5eb0-4c84-96f2-55a2f4863e0d,
345,451 Gulseth Point,3XL,Passal,PT,4960-130,65c805ff-1720-4f60-a457-8ecd2dd30053,16
346,29 Orin Circle,L,Verkhovyna,UA,,8f0568b7-b203-43f0-ab90-a32a035df7ab,
347,43029 Prairie Rose Street,3XL,Wojsławice,PL,22-120,12d012b7-09e3-4c24-86ce-cf409dc7bdd2,
348,06 Northridge Street,M,Goworowo,PL,07-440,1ffc53d4-fbdb-4358-92ca-0ccc762a5770,
349,2589 Jenifer Hill,S,Pau,FR,64017 CEDEX 9,0c5b61b4-62db-40ef-8ce5-ba2024cb605b,97
350,090 Truax Court,S,Shaba Zhen,CN,,6047cbd7-a8dd-4aa4-8f18-67c1d50bd6e0,
351,01652 Mallard Avenue,XS,Piru,ID,,736f3e83-d198-4332-b3c3-2e5bc53208ee,
352,0559 New Castle Lane,M,Slyudyanka,RU,665911,3965db38-0a49-4c06-8aa4-cc8d0bdf6efe,
353,241 Cottonwood Circle,2XL,An Lão,VN,,f8ed8a69-e7db-41ad-a67d-bf6ab5f4ba93,
354,10 Schmedeman Avenue,3XL,Moses,PT,4415-719,5f6167c2-f01f-413b-967c-42d2f27a5d66,13
355,02808 1st Avenue,XS,Keluke,CN,,69dbeb35-d222-40c3-a307-40044a8f4719,
356,3930 Atwood Terrace,L,Ninove,BE,9404,670060b5-9ac1-4ba4-a178-39131b5c34bf,VLG
357,71331 Mcbride Court,XL,Pavlodol’skaya,RU,363731,b03e8736-342e-41ea-91f9-648d7bab5ed7,
358,84 Longview Drive,M,Taldan,RU,676009,201c28c2-3e74-4449-8cc3-8ecc7961d0d1,
359,347 Onsgard Court,XL,Hobo,CO,413067,0f6b812f-c734-4f30-bd48-62285f517297,
360,5498 Little Fleur Parkway,2XL,Panalingaan,PH,9610,c588f3c4-5ab6-404b-9f06-72d15bf03392,
361,4 Macpherson Pass,L,Quintinha,PT,2970-303,f0a3c4b8-c458-4501-91a4-28dafc4cca41,15
362,6 Mccormick Pass,S,Stockholm,SE,116 63,d68f30b6-0039-41e4-96d6-5b084a962049,AB
363,548 Starling Terrace,M,Chengjiao,CN,,59d7dc4d-ef25-47ba-913f-56f5788b35d9,
364,8370 Northfield Circle,S,Dengyue,CN,,6b67e1bf-39d7-4c98-84ad-c61e85e6d018,
365,7626 Claremont Pass,2XL,Klumpit,ID,,e2918adc-09c7-4acb-8ff6-35a1479e731d,
366,30857 Trailsway Place,2XL,Orós,BR,63520-000,5604d194-8362-4b73-88e4-b4561472a369,
367,7203 Warner Alley,2XL,Sai,ID,,441511f4-e5a1-4b7f-9678-558f08f61313,
368,445 Texas Hill,M,El Obeid,SD,,196d2816-ecae-403c-be65-57d98f63fa01,
369,61 7th Place,S,Shamakhi,AZ,,437f5407-3e8b-4826-9f44-ebf0f887bb5b,
370,221 American Park,XL,Cukanguncal,ID,,87fbc16d-c6a9-4611-884c-17e0f3487079,
371,9 Melvin Way,2XL,Xinyang,CN,,21097f7f-2650-498d-8e04-94b526e7d1a7,
372,5472 Esker Circle,3XL,Invermere,CA,J1K,759177c7-b44e-4992-9753-679a017a732a,BC
373,32 Florence Road,3XL,Pyskowice,PL,44-120,a8b2850f-61d4-4e72-ae4c-343c53c812a9,
374,02252 Pawling Point,XL,Broto,ID,,5003dbac-0588-461d-b334-8142327f374e,
375,350 Golf Course Plaza,XS,São Paulo,BR,01000-000,c9ff908c-5614-4ba0-bb1b-c5f38498050e,
376,2 Stang Avenue,M,Weiguo,CN,,945df80d-6d4a-4180-b44a-3b7fc4757e5e,
377,3527 Jackson Way,XS,Banes,CU,,b558c9d5-8394-41d6-8481-0f01775fd00a,
378,21 Cherokee Point,XS,Viimsi,EE,,ed9b02a6-3ea6-4da9-ad52-36a67334486f,
379,10737 Westerfield Alley,2XL,Chemodanovka,RU,442965,b287fe3a-b9ed-412a-a3b3-d68a9b10966a,
380,9499 Sutteridge Parkway,XS,Mātli,PK,72011,e0d6e084-198e-4cdd-ae6a-86aa585ddc26,
381,3 Kim Road,S,Sampungu,ID,,05dfcbf0-d727-46b3-9d44-31d52a4cad3c,
382,37 Eggendart Center,S,Banatsko Karađorđevo,RS,,e04a2863-7934-42f4-a8e6-aefe62ee0d07,
383,7 Loftsgordon Place,S,Henglu,CN,,d2e034c5-453e-414d-a73f-5e4537e0311d,
384,90426 Blaine Center,XL,Kota Kinabalu,MY,88998,76225422-245a-4b96-af9d-967862ff0176,SBH
385,7 Miller Court,S,Petrivka,UA,,58eff470-efb5-4345-b450-6db852ed16fe,
386,89 Pond Way,M,Esperantina,BR,77993-000,37788265-9e0c-4c26-bc0c-f3f4f17c9200,
387,9 Crowley Trail,L,Shahe,CN,,fd73a808-889e-46cc-9a77-a408b84b9e42,
388,17 Kennedy Way,XL,Guadalupe Victoria,MX,93856,b4020cad-a9d3-4651-bde8-e4545dfe5995,VER
389,26 Carpenter Street,2XL,Kamenskiy,RU,412818,b99fd1bd-943f-428d-a059-d39db0fd4504,
390,9507 Manitowish Alley,L,Samphanthawong,TH,10100,396b9bc6-a0f4-4996-9433-cd6a0f690b3e,
391,35946 Jenna Trail,3XL,Netrakona,BD,5405,31a89fbe-895b-41f1-9f2b-802b46993d89,
392,84 Oxford Lane,XL,Dornava,SI,2252,ac455620-f099-4a77-8a05-6d70241a4f67,
393,14 Sundown Crossing,L,Zhangjiaji,CN,,8c2c648a-c5a5-4fea-828e-d2059ae331fa,
394,57845 Debs Point,S,Bai’e,CN,,e3c9570e-344b-4684-823e-1833b9ed003f,
395,258 Anthes Street,XS,Wangfu,CN,,69f3b0b4-d489-46c7-8be2-e7e5937f5abf,
396,0118 Marcy Street,XS,Cournon-d'Auvergne,FR,63804 CEDEX,e7883bcf-12c9-4930-8874-39e5439820f0,98
397,40 Namekagon Plaza,L,Jishi,CN,,93d1e82c-3be5-4521-b090-d7551564aff2,
398,9326 Ilene Drive,2XL,Pulo,PH,1706,59fa36d0-0ff2-4479-b125-a990d495fc0a,
399,4 Sachtjen Pass,XL,Taoxi,CN,,69d6afd0-a3a3-4a60-b017-eeb4f684f864,
400,9153 Morningstar Center,2XL,Paris 20,FR,75971 CEDEX 20,6a35ba57-7b47-423e-b085-f6d6e7c01959,A8
401,3 Park Meadow Circle,L,Sarata,UA,,08088299-1c2e-4bd4-967d-d38da8efaf55,
402,5499 North Alley,2XL,Donghoufang,CN,,b5c51596-d3f3-4958-bf69-47d92e88d07d,
403,8 Springs Park,XS,Nova Iguaçu,BR,26000-000,9a4479d2-c9fe-4fb6-a80a-5e6cd2050ea8,
404,94 Sutteridge Plaza,2XL,Hongdu,CN,,f7f96a79-df84-4e52-805e-783de4dc5823,
405,4567 Union Park,M,Norrköping,SE,603 52,348e3510-5306-4582-a047-dc641f6f4ded,E
406,347 Randy Center,3XL,Newport News,US,23612,a6a43d2b-8a9e-43ac-9450-fadb72558453,VA
407,7 Sugar Junction,3XL,Pak Phanang,TH,80140,456e137c-d348-471e-ae0c-73241575216f,
408,0 Kings Circle,2XL,Soacha,CO,250058,7be80029-8622-414c-a81c-9aca134753b8,
409,49 Pawling Street,2XL,Lingkou,CN,,efb99905-7ee6-434a-812c-ab3e30842985,
410,561 Forest Pass,XL,Muro,PT,4620-620,be2bd96b-5a55-418a-a0f8-abbf077b7466,13
411,00 Barby Hill,3XL,Morelos,MX,54455,a1dbee1e-f444-4326-9f7f-64ed8f240f58,MEX
412,96 Marquette Center,2XL,Čejkovice,CZ,671 65,f7fb1632-98bd-4109-88fd-1dabf286cd1d,
413,5566 Morning Park,XS,Villa Ocampo,AR,3580,97cbf307-ccfa-435e-8a67-160597fbd29d,
414,16 Donald Alley,XL,Rennebu,NO,7398,73a0db8a-1045-47d0-9389-c19b80856c66,16
415,804 Carberry Drive,M,San Agustin,PH,8305,025f1518-a1b3-478c-b84f-c5d744d08b98,
416,5359 North Center,S,Kabul,AF,,0d6dd536-0df6-454d-88d8-37ba5a276fed,
417,0412 Truax Hill,S,Longxing,CN,,d3fab3ae-65eb-45a2-9a5b-946205909ae1,
418,31 Rowland Street,S,Vitoria-Gasteiz,ES,1080,5234b086-5f05-439f-bf72-e3cb4b3e0d61,PV
419,90659 Lakewood Gardens Plaza,2XL,Villa Ocampo,AR,3580,43162850-4bb7-4f89-a147-a78cb3b3f777,
420,6779 Macpherson Avenue,S,Lijiapu,CN,,3b7348b3-b666-443d-83b2-7281811bd2cb,
421,739 Stone Corner Pass,XL,Bourg-en-Bresse,FR,01009 CEDEX,43eca0a9-a334-4782-b866-88f3272c0f87,B9
422,50872 Kedzie Plaza,XS,Armenia,PH,5401,f7c7daed-9361-4bd4-8974-1720f1b832f0,
423,21 Hazelcrest Avenue,S,Kurunegala,LK,60000,f4fa56eb-7a2b-4994-8712-95ccde5ef116,
424,7 Quincy Terrace,L,Zavitinsk,RU,391710,ca0e1dc9-9b2d-431e-b174-d5fc095dc1b6,
425,2813 Mallard Crossing,XL,Mujiangping,CN,,cb6bf3d6-98c2-4255-96be-87285fd36705,
426,4 Kings Drive,3XL,Atolina,BY,,3219cbad-29da-4ad4-a8bb-37f44837a8fb,
427,3 Claremont Street,XL,Khorosheve,UA,,29ccc263-2c2c-4e34-b63b-4095a0327a8d,
428,2 Stoughton Point,2XL,Toulouse,FR,31044 CEDEX 9,a82ab278-db89-4ccb-85a2-5f8165c4be34,B3
429,2 Oak Valley Terrace,M,Thanatpin,MM,,b73160ba-462f-4871-b9f4-9a928307101f,
430,4 Shoshone Parkway,XL,Athens,GR,,11afa384-bbb3-43ed-a8b6-0f83a1c1a70f,
431,95 Riverside Place,3XL,Hudiksvall,SE,824 26,0541bb7f-8ec8-439f-8c53-b358d2a9c361,X
432,9117 Swallow Parkway,3XL,Cikoneng,ID,,3a55113b-bfbc-4fda-bbbe-8ce49a86ae6b,
433,1413 Maywood Place,L,Villa Ojo de Agua,AR,5250,9a50e6cc-cd3c-4e71-a5d1-e7f36137302a,
434,9945 Schiller Place,L,Phra Pradaeng,TH,10130,37b0d5ff-a718-47ac-80bb-c2c0d95c2ac6,
435,98 Hansons Plaza,XS,Paris La Défense,FR,92901 CEDEX,b1f4cdf1-cbcf-498b-8f73-f9174250414a,A8
436,8 Old Shore Circle,XS,Panji,ID,,6489edbc-abc9-4a25-9ce4-02e0364b8616,
437,0158 Hazelcrest Court,S,Karlskoga,SE,691 21,5f8eb831-2d14-4e1e-8366-fab616d53bc0,T
438,4272 Eggendart Way,M,Palmeiros,PT,2440-191,28ec89bd-ff49-45cf-83b1-462dc408e070,10
439,488 Hoepker Avenue,M,Dengzhuang,CN,,18b8c590-58c5-4736-86c6-d46a3f7f851b,
440,3 Melvin Way,XL,Springfield,US,1114,f77cb93b-dac2-4050-b630-63b16991a436,MA
441,4 Commercial Place,XL,Staryy Togul,RU,302525,2c963490-eebf-4605-84ed-14207041ddf1,
442,83 Commercial Circle,XS,Hexi,CN,,6ebfb67b-6226-4cf7-a9de-bdf8e52fec12,
443,96 Fulton Way,XL,Borāzjān,IR,,3af9bb82-cd68-4d43-a01f-871ff1e8e5cd,
444,791 Cardinal Circle,XL,Ermidas do Sado,PT,7565-205,61834a0f-b392-496b-a8fb-d1cb5ec71363,15
445,7 Lerdahl Road,L,Temperak,ID,,cf3b73aa-e8f6-4c98-bd6f-501922a459a8,
446,5072 Jenifer Parkway,3XL,Kazinka,RU,162811,64321891-1d42-49a2-9f16-2f05bb23f3ae,
447,45924 Bobwhite Terrace,M,São Sebastião,PT,4990-640,15c6bdc4-8289-4056-8a55-f022ab157c66,16
448,449 Mallory Alley,XL,Chayek,KG,,85df3723-2684-4dd9-9094-9389d751d837,
449,15 Valley Edge Way,L,Hengdian,CN,,729c6b2a-e0bd-4f34-9181-63b10c914107,
450,9 Hermina Trail,2XL,Quintinha,PT,2970-303,66a9da8b-4365-4249-81fe-60d9119b2f7f,15
451,6 Morning Place,XS,Miguel Aleman,MX,94107,da17de0c-24d3-443b-992e-c3fbdc37d871,VER
452,351 8th Way,XS,Övertorneå,SE,957 32,fd32b604-475d-4247-b417-d404356ac16c,BD
453,179 Alpine Road,3XL,Dhankutā,NP,,b875b460-1129-4bcf-970d-6b727cb75079,
454,33300 Merchant Avenue,L,Shiguai,CN,,f899c55f-37ab-4f4c-9357-1afde35fe14a,
455,1 Onsgard Place,L,Samaro,PK,69350,2c06108d-af7e-4cce-b040-a6dc1023ef2e,
456,4 Westport Road,3XL,Orléans,FR,45969 CEDEX 9,33ec327e-7a81-466f-97d5-4c7e8d381ee6,A3
457,96 Anzinger Plaza,XS,Yuecheng,CN,,3d2b2b51-7bb0-4fb0-813f-b39da244d8a9,
458,21187 Porter Street,S,Jadi,ID,,7255c253-ac25-46b4-9249-b646629cd476,
459,558 Springs Way,3XL,Fundación,CO,472028,2fe0d5f3-d7ac-48c3-b830-f4bbf31eee4e,
460,01 Hayes Terrace,M,Malati,ID,,21e39804-9a48-486c-876d-f54dd9cee3c9,
461,19876 Rigney Plaza,L,Kumba,CM,,a3c3f47d-b15b-4915-98b5-d5b2cd7442fc,
462,7 Hoffman Trail,2XL,Sacramento,BR,38190-000,cc41684c-11d0-4f2b-8562-0e50ab4e826a,
463,528 Tomscot Avenue,XS,Melaka,MY,75552,3a4e1a13-c301-4a65-b292-d9139bfc3da1,MLK
464,06347 Manley Point,2XL,Kamenica,RS,,970f4970-1cb2-4955-9a2c-655f8a0fdc5d,
465,0 Dapin Center,2XL,Xiejiatan,CN,,ae436698-e706-4bcb-8b31-5fc8ffb2d979,
466,3012 Twin Pines Crossing,XL,Xinzha,CN,,ffc24146-a637-4baf-8b38-fba4e70d0c5f,
467,324 Katie Junction,3XL,Cagliari,IT,9124,9b698cc1-9931-4564-ac2e-6ad94dde415d,SD
468,3830 Sauthoff Plaza,2XL,Kudara-Somon,RU,671836,deb7d122-ebbb-4aae-a823-0eb106b69b60,
469,829 Lyons Hill,XS,La Gi,VN,,cac14e43-96ec-4259-9718-cda12c06fe37,
470,75 Eggendart Alley,XL,Daloa,CI,,f219c01f-8f70-4d87-89f4-0cf02a6dadb3,
471,32 Springs Alley,L,Troyes,FR,10004 CEDEX,eae8750c-26a7-41e3-b7b6-af7ba9526104,A4
472,712 Calypso Hill,XL,Balibagan Oeste,PH,5001,6f464ee3-21ec-4606-b618-fcde8739ffa3,
473,9 Nova Trail,3XL,Rada Tilly,AR,9001,676cc9b5-adb2-4404-b657-8609bd1baaf4,
474,7 Surrey Way,XL,Sumqayıt,AZ,,86044757-5635-4039-b8fc-f1afc5512d77,
475,726 Scofield Circle,XS,Xinquan,CN,,07a7f4d3-fea6-4804-9070-bdd9ec2fc7f7,
476,456 Burning Wood Place,XS,Voždovac,RS,,3ecdcd30-0b85-4a43-8cd4-4c67e949e403,
477,509 Talisman Pass,3XL,Tibro,SE,543 30,3b856ef1-e464-4ab5-bd7e-cb17868d6ade,O
478,34 Ramsey Junction,S,Jingling,CN,,251eb50a-423d-4c4f-9bc8-f0067216a227,
479,6 Menomonie Hill,3XL,Světlá nad Sázavou,CZ,582 91,34ba7470-17de-46ab-b62b-3c4b0fe748ec,
480,980 Northland Alley,XL,Canauay,PH,4214,5c2d801b-d594-4fc4-8928-7a1149681ea1,
481,2530 Erie Crossing,XL,Moss,NO,1536,84ccdf75-394c-440e-9165-4883e5538c57,1
482,48 Mosinee Terrace,XL,Idenao,CM,,85c2c35a-9958-4e16-9b65-3ad72d3aa167,
483,1 Surrey Terrace,XS,Bronkhorstspruit,ZA,1028,42795ec8-c6d6-4e69-a7dc-e20a2b44cf72,
484,4 Esker Circle,XS,Talibura,ID,,e4e6d485-ebc4-4e80-acca-7d547d06bbe2,
485,981 Troy Junction,XS,Beicang,CN,,6f5954f3-f129-4aa4-94b9-ed6a8a299945,
486,771 Sundown Street,2XL,Le Tampon,RE,97838 CEDEX,855a78e7-a577-4b54-8c43-f97cf3ca194d,RE
487,5 Colorado Plaza,XL,Karoya,ID,,acd1596c-0eff-47ad-8655-b92dfff52369,
488,8 Loftsgordon Street,XS,São João da Barra,BR,28200-000,f583bcba-92ed-4327-9707-0e0501137aef,
489,6 Nancy Trail,XS,Eskilstuna,SE,633 47,5c65cf1a-e17c-4de7-9b79-6864796a0f9b,D
490,83 Rowland Center,M,Poggio di Chiesanuova,SM,47894,fc594cf9-3b15-47dc-9410-e3be41f4abe5,
491,71 Burrows Terrace,XS,Pasirsongket Dua,ID,,b02caea3-701c-47f5-a409-58183e90d13c,
492,929 Cody Place,S,Angoulême,FR,16999 CEDEX 9,a294f096-5bda-40b4-a558-d0af7a2acd00,B7
493,92 Lotheville Place,S,Pitangui,BR,35650-000,5c70d20e-452c-4d0a-a1e9-1ade38cbcb05,
494,6 Monument Crossing,3XL,Kelowna,CA,V1Y,a09eece6-01f2-46a9-97a9-f30408c3a2c2,BC
495,7887 Welch Place,3XL,Quillabamba,PE,,bdd0c3fc-5b1e-42ae-bcf3-7fd1fe34cf86,
496,4 Corscot Way,L,Maringá,BR,87000-000,3021396a-0481-47a7-9c16-325a7f9060d1,
497,714 Oriole Street,M,Lusk,IE,K45,214643b7-4d79-4882-bf71-59697c489830,
498,787 Carberry Avenue,XS,Itajaí,BR,88300-000,97070406-c903-4247-9254-a414dbdc6c07,
499,54986 Lunder Avenue,S,Sano,JP,987-2363,e53773a8-fa06-4604-9084-408d097b7a89,
500,00 Express Avenue,L,Liuji,CN,,a736ba12-9324-4bfd-9f5a-1651fd189823,
501,32797 Atwood Crossing,3XL,Tokombere,NG,,1007b96f-cb06-48b4-8f54-9de8f0e8141c,
502,1 Northridge Park,XS,Liushutun,CN,,c873e5c7-d421-42a8-8864-a05792b4d4eb,
503,84237 Namekagon Drive,3XL,Porvenir,UY,,c15cd510-5dc9-4041-92ea-c73297b6353d,
504,3 Elka Road,S,Longonjo,AO,,39845b11-f321-4b0e-ad18-8734d0f491c4,
505,90 Nova Avenue,L,Srebrenik,BA,,4a7c580d-65a1-43e1-9a4b-4df49f1a071e,
506,9933 Dawn Lane,S,Ulaan-Ereg,MN,,37a3d4c5-0116-4132-871c-38c7f70c47d2,
507,05491 Duke Pass,2XL,Galapa,CO,82007,d3b904b5-b46e-4b52-bbab-966233ccf50b,
508,99403 Lakeland Terrace,L,Lubin,PL,59-339,cf38bfbb-4079-48fc-a3b5-fcae9717fc97,
509,67041 Mayer Circle,XS,Wangshi,CN,,278f55b9-249b-4cd4-92fa-9e2d9cbb0ced,
510,3046 Kings Trail,2XL,Vapnyarka,UA,,068fec1a-72ea-4413-8fcc-7bdddb560971,
511,6 Bunting Junction,S,Huarong Chengguanzhen,CN,,b61f55be-2f9c-41da-8a80-2a9c28c4a0da,
512,9 Carioca Terrace,L,Matayumtayum,PH,1219,2649ad66-aa7c-40aa-b60b-197ccfdb6af2,
513,29003 3rd Park,2XL,Phra Phutthabat,TH,18120,f911f857-fa08-4a1b-a62a-80ef462d1c57,
514,7 Melvin Parkway,L,Malhou,PT,2380-506,f6c5fae1-85aa-40e6-b891-bc32c4cc0622,14
515,02896 Emmet Circle,XS,Banamba,ML,,1923b350-de1d-4f8b-8ba2-118c8177b00f,
516,023 Oakridge Road,L,Lourido,PT,4625-604,fb849d40-dc52-46dc-a250-47b5cfacc549,13
517,134 Cambridge Road,3XL,Sulak,RU,427030,cf773d39-4a30-41eb-b6ac-e03858c338ca,
518,87 Burrows Place,3XL,Haghartsin,AM,,b08cb23d-d3e0-4d2b-8530-b57cd466e461,
519,3700 Hoard Way,M,Zinder,NE,,1fc6d0c0-151b-42f5-9628-a78e546c7f3b,
520,5905 Granby Pass,3XL,Calinaoan Malasin,PH,3700,c8e762bc-934c-4d37-bed6-6d18aad76343,
521,89926 Basil Center,L,Horodne,UA,,1a047b15-738d-4acf-a119-48df629a0cf3,
522,882 Trailsway Road,2XL,Montes,PT,2460-825,4c03a898-8ca0-4e6a-be13-258d75a980de,10
523,938 Washington Place,3XL,Gilowice,PL,34-322,7b66eebc-9186-4b73-83f0-fb6d75344587,
524,3220 Hanson Point,XL,Solnechnoye,RU,197738,78da4d75-aed4-43e3-bf9f-9ed6f5acb816,
525,977 5th Pass,S,Pokrov,RU,601120,fed1bb01-2982-480a-81ba-e6dfb5aaa325,
526,968 Shasta Alley,XL,Gómfoi,GR,,872bb478-d15a-4731-b31f-7452aa56462c,
527,0 Nancy Terrace,S,Borås,SE,501 88,c229e4cf-387d-46ac-a36e-7661fd7c6102,O
528,210 Mitchell Crossing,3XL,Wangtuan,CN,,d54b79c0-a352-43cf-b229-5415e6d47c86,
529,9 Westerfield Terrace,XL,Wutumeiren,CN,,91499bc6-0ba3-4cb6-a8bb-b709ba1cf767,
530,6725 Gerald Plaza,L,Peukanbada,ID,,3cd26c06-f7ce-4e0e-864c-759dcfe63d27,
531,87 Donald Junction,XL,Gardinovci,RS,,6afb4ef6-3682-4dfa-bbab-ad89551ca422,
532,818 Susan Drive,XL,Heerlen,NL,6414,535651b7-4cce-4747-933d-f3e95cf121b6,5
533,9 Oneill Lane,XL,Charlottenberg,SE,673 31,131a505e-7bb4-4e64-a163-075d4d081d38,S
534,7 Old Shore Junction,XL,Lebak,ID,,a7de999a-3017-4b35-bc15-0d883dbcc04a,
535,49067 Weeping Birch Road,L,Jiyang,CN,,ca503e81-498d-47a0-bb68-750d496cc800,
536,62 Troy Crossing,S,Mosopa,BW,,131b1908-6bf0-47b9-acf0-ddba9b806b67,
537,132 Eliot Park,XL,Torrance,US,90505,85f49c00-d1d2-4f16-b368-bf65cc0cae79,CA
538,1475 Pepper Wood Road,S,Beisijiazi,CN,,f2210867-235b-4208-8890-83f7848b9301,
539,182 Hazelcrest Lane,XL,Riachão das Neves,BR,47970-000,791c14e6-4cf6-43fe-b885-7e26f40a5fc4,
540,27498 Eagle Crest Point,XS,Sonta,RS,,0f97cc41-8627-4328-8c30-971114f6e977,
541,50 Butterfield Court,L,Anau,PF,,b1c6ddbc-a9d2-4b51-b41a-d487e5a962e4,
542,1 Autumn Leaf Avenue,M,Zborište,BA,,81d00fc9-c682-447d-9da1-1c5a36410eb2,
543,9 Ohio Parkway,XS,Ponta do Sol,CV,,139b8cbe-93bb-416d-9905-de6afd19e9ec,
544,01169 Macpherson Circle,XL,Las Animas,MX,39280,75847803-70f8-4eb7-8004-e2ea8c3db000,GRO
545,28 Columbus Plaza,XL,Yunchi,CN,,fdfc18ae-2238-42d1-851a-e28c7368ddd7,
546,4 Coleman Junction,L,Loket,CZ,357 33,afbc52b7-e911-4c6f-ae9d-4fa645ae9a50,
547,8991 Ridgeway Hill,2XL,Ljutomer,SI,9240,d7d90bba-c70a-418a-b9ba-743512d87805,
548,3553 Pine View Court,L,Progreso,PE,,9c6f9530-96b8-4a95-a5e5-3b7b590c9976,
549,54 Grim Lane,XL,Pontevedra,ES,36164,8537f57b-9726-455e-91be-b4e3db71f387,GA
550,8217 Old Shore Place,L,Taiping,CN,,9af8462f-c7fe-43b8-b226-cbe831f57b13,
551,6267 Basil Way,XL,Lišov,CZ,373 72,769eb948-32bc-4810-aea1-cbce2fe42af9,
552,33 Carioca Park,M,Prelog,HR,40323,25cee490-d494-4d14-89b0-0c0238a001c6,
553,7 Fairfield Center,L,Maruoka,JP,997-0334,2b0e8049-ae7e-4660-b940-9ec1d4d6306f,
554,718 Park Meadow Center,XL,Taokeng,CN,,09e4cd42-78d4-476f-a954-c95779608dfe,
555,2 La Follette Point,3XL,Iwakura,JP,999-0436,1bf3f73c-1e5b-42eb-938c-58aef26177cd,
556,245 Eggendart Crossing,XS,Lupon,PH,6405,3d342e44-6cf2-48fa-95b0-872895a2ad87,
557,41320 Graedel Park,2XL,Nakhon Nayok,TH,26120,c67ae422-eae5-4450-8e1e-8173aae3ef39,
558,65 Loomis Drive,XL,La Concepcion,MX,52105,9ba9c620-6b4b-4e6d-a6b6-e41d8ec5664c,MEX
559,44431 Parkside Avenue,S,Nangela,ID,,05d842af-01a8-432b-8226-1d1f031b2941,
560,848 Pierstorff Point,3XL,Kaulon,ID,,7f729cba-a686-48b8-b3b0-533c42dc8491,
561,3 Logan Circle,L,Xiahan,CN,,b6fcf41c-6e7e-4c30-b8c6-1e9d5951bdb6,
562,6300 Roth Trail,XL,Penanggapan,ID,,dc886e2a-7bc5-498f-b487-25ef7c20a5d1,
563,5 Maple Wood Street,XS,Panyambungan,ID,,4d9ff9b9-a7e0-4f29-b36e-a7ec74a028ec,
564,76 Ryan Center,L,Haifa,IL,,b54e22d1-a2f3-4e34-ac3c-da0e9637c664,
565,62 Waxwing Plaza,M,Las Toscas,AR,3586,f41878a4-f75b-4a9c-b36d-3711f5ba571f,
566,55 Butterfield Road,3XL,Singaraja,ID,,a089f771-ba31-4cf5-9b23-6ca0a536c6fc,
567,363 Fordem Way,3XL,Kyjov,CZ,592 14,39cd8883-adf2-4b5d-967a-50fcc2fc7316,
568,68541 Valley Edge Trail,M,Macon,US,31205,c6f2702a-11a5-4021-8aec-3272333162a5,GA
569,1416 Raven Drive,2XL,Horta,PT,5155-305,633210e7-40e7-46df-9c2d-1b22d373fd77,9
570,45417 Gulseth Parkway,S,Nioumamilima,KM,,81f477c0-00b0-44e0-af6d-8b93de2bdbe9,
571,04 Magdeline Crossing,3XL,Jiacun,CN,,2c415a17-46d0-452e-a779-8225cb4fa062,
572,94077 North Trail,XS,Frankfort,ZA,9830,4a5b21f1-25f3-4e22-9a3f-077e3b13c554,
573,0719 Badeau Lane,2XL,Eskilstuna,SE,631 85,8c740072-03b7-427e-93f8-b787debee906,D
574,27 Barby Terrace,XL,Sukamulya,ID,,63a45a36-458c-4409-99fb-4879a4c7e206,
575,154 Novick Place,3XL,Hualingang,CN,,6033f941-cd45-421b-8185-ed4fa6175baa,
576,8261 Hauk Pass,L,Wa,GH,,e17ac91c-e61f-40d2-adbf-bb1256b80c71,
577,00832 Menomonie Crossing,2XL,Huayuan,CN,,68cc54de-8c5b-45ae-9eed-e8d33ec54326,
578,8576 Ilene Road,XS,Zhangqiang,CN,,e6531441-5e87-4a17-b4a7-fdf58185ec2c,
579,4 Maple Road,M,Ginatilan,PH,6028,8f8321c7-68f9-435f-830a-6ccb9381449c,
580,1 Coolidge Trail,L,Mīrpur Māthelo,PK,63211,44c1fc1c-9544-488d-ba3d-61c5fb569438,
581,9 Schiller Pass,M,Metallostroy,RU,196851,0e62b53b-38eb-4354-ae90-f6e2826033f3,
582,0 Jenna Way,XS,Ol’gino,RU,303461,66d4bcd2-5965-4c6c-a117-b9339c49e0a3,
583,837 Northland Park,3XL,Dłutów,PL,95-081,c681d875-1f84-4791-83aa-3f71095bc515,
584,952 Arizona Circle,S,West End,GB,DN36,cf000553-334d-479d-910a-d6a611f2e057,ENG
585,45449 Jenifer Avenue,XS,Carnot,CF,,443708a5-69b5-4b9e-8c40-d0c016b4956e,
586,1 Maple Parkway,XL,Filótion,GR,,ca32913e-3a6a-4651-b919-433ce0ce6072,
587,8 Algoma Court,L,Krajan Waturoyo,ID,,e4871542-a9d8-49f3-ac03-f15980db5c99,
588,1 Fallview Circle,XL,Naebugis,ID,,e2b55762-fc4e-402a-be59-6294179e1254,
589,73499 Bay Court,2XL,Heilongkou,CN,,e80af025-9760-450a-9a92-4b6030d611a2,
590,0350 Golden Leaf Circle,XL,Macayug,PH,5417,aa5f24f3-77fc-4799-9614-c7389116b56a,
591,41439 Upham Parkway,L,Krajan Waturoyo,ID,,aeadca40-c826-4b31-af5a-2da512419bcc,
592,19821 Longview Alley,2XL,Ngangguk,ID,,803c9e7c-45dc-4dc0-8306-a4e2cc75de8c,
593,90834 Northwestern Way,XS,Stara Kiszewa,PL,83-430,f8c202ee-72af-4796-b398-a4a9e487df3d,
594,6 Dottie Place,L,Kolobolon,ID,,7ea0a4fc-7564-4475-afdb-476056f5af58,
595,73327 Fuller Road,S,Trpinja,HR,32224,99479a44-0a56-4249-982e-ac71a1d53aa9,
596,594 Kim Hill,XL,Embu,KE,,adc202e6-dd09-4177-b147-49bd121a3cd1,
597,97887 Corscot Circle,2XL,Pasanggrahan,ID,,ecf3b2a4-1988-4df4-b210-30540ae5b00c,
598,06610 Larry Way,3XL,Lewoluo,ID,,7c8cd811-3d7a-4ff3-b923-a033a662179a,
599,0422 Heath Alley,2XL,Can-asujan,PH,8715,bfb012ad-4664-4a1b-a9fa-449b41b474b0,
600,89 Packers Crossing,L,Lupo,PH,5616,8e21fb6b-90d5-4af3-b829-0c269f6467e5,
601,9 Talisman Parkway,XS,Florencia,CO,195047,1f17d805-094a-4199-8199-71ccc3868190,
602,18 Coolidge Terrace,XS,Katsuura,JP,811-3521,90faddf3-2ff7-428c-931f-e6f5318ad3eb,
603,3704 Springs Circle,L,Pensacola,US,32575,04f37eb1-0222-4752-afbc-0f0d4e3c483c,FL
604,3 Stang Drive,XL,Palma Gil,PH,3107,16d79cce-f230-44a1-bc70-fabdc219502b,
605,9 Oneill Junction,S,Guangshun,CN,,617dd259-eb54-4309-83ae-72cbdea5d708,
606,972 Main Road,3XL,Bumba,CD,,b77a5e55-8e54-463c-9d67-28ffeac1badd,
607,78685 Stone Corner Parkway,3XL,Tauranga,NZ,3144,cb1138b4-60f1-4f96-98a6-e68936c4e3b7,
608,4 Comanche Lane,M,Nova Odesa,UA,,5aff219c-e539-4104-8fa8-3a989485089b,
609,69620 Dwight Pass,XS,Quinta,PT,4980-559,cf4b8ddf-d716-46ad-9785-45a482f2421f,16
610,7618 Colorado Court,XS,Takahama,JP,880-2215,dea6d128-c003-4d14-8b83-d81cfd030bf6,
611,865 Arrowood Way,XS,Khovaling,TJ,,33d69d83-ec5f-4e9c-b6e7-97cb9b33d21a,
612,331 Fair Oaks Crossing,S,Słupsk,PL,76-280,79e1e652-c199-46fb-b41b-4610bbf5aea0,
613,38 Dunning Pass,L,Sivers’k,UA,,ce1fcd19-cef2-4202-bc6f-cb8a4117a421,
614,42314 Schlimgen Trail,3XL,Yeysk,RU,404172,0891c3f2-2708-4845-846c-54801f83c51c,
615,79 Forest Circle,L,Cerme Kidul,ID,,87692c7c-5d9c-44d0-91cf-a158e29c1b5e,
616,104 Bonner Crossing,XS,Moñitos,CO,231008,342d2945-0f48-4055-a2ef-b0717728e2f7,
617,296 Miller Lane,L,Świnice Warckie,PL,99-140,37bab161-4998-406e-abd7-65169d3480d3,
618,324 Upham Drive,M,Orkney,ZA,2627,116763ea-855a-4562-ac22-9bb037d1b114,
619,504 Hallows Plaza,S,Oroqen Zizhiqi,CN,,b5848f18-af2a-4293-9637-ec2ecabb44fe,
620,2 Muir Court,M,Minanga Norte,PH,8209,85970995-67ac-4bd4-8664-03b611c3b658,
621,3 Trailsway Street,XS,Dengfeng,CN,,286ede1a-9d08-4b73-a001-32d0fe7ceb7d,
622,31137 Schurz Alley,M,Koshigaya,JP,344-0025,df792b02-37d0-4a0d-8322-ff46d2318084,
623,98927 Hooker Center,S,Gonghe,CN,,39d02f8b-44b9-4c7a-bdba-a0b42c6738cd,
624,8 Green Park,2XL,Šilheřovice,CZ,747 15,c4c45c8e-dd80-4afc-ba77-a5bb6f8175e7,
625,0 Prentice Hill,M,Worcester,ZA,6870,fbe0367f-074e-4aa6-b53e-575f792fe527,
626,29 Browning Lane,2XL,Zhavoronki,RU,601107,15bd0b88-05a2-44aa-bfab-632654d70c29,
627,966 Holmberg Street,XS,Pontes e Lacerda,BR,78250-000,11674482-0e27-47b7-aa27-edbfb1bad980,
628,52247 Sunfield Center,XS,Smolenka,RU,427645,c81cdf12-06ec-44a8-9c60-5940a6434ecc,
629,3 Forest Street,M,Subaykhān,SY,,9dc1b05f-0b86-4f44-8882-371338c3f7a7,
630,65310 Weeping Birch Junction,M,Oke Mesi,NG,,f343b0e5-26d8-4302-b1ad-cdc8a4cddfc6,
631,0397 Donald Center,XL,Jutrosin,PL,63-930,cd419038-bf7d-44cf-b28d-0d1474b560aa,
632,59 Algoma Park,M,Anguil,AR,6326,b96bc15f-4604-4cb5-a6db-6149201da3c4,
633,7 Ilene Plaza,S,Kostrzyn nad Odrą,PL,66-470,7fd04caf-6919-4abc-b6aa-c2da66445c85,
634,7 Meadow Ridge Trail,3XL,Pangkalan Kasai,ID,,9ca179f9-0998-4799-aa84-b4f87df58b39,
635,00318 Daystar Park,2XL,Cumba,PE,,e34a879c-05a5-444a-8474-69474200e862,
636,83669 Crescent Oaks Road,L,Chợ Mới,VN,,fadb267c-161f-4c2e-b156-56be3452da8c,
637,14391 Dakota Trail,L,Ruokolahti,FI,56101,303f00e9-d4a0-4375-a06a-a0d0b5a0bb36,
638,96 Melvin Park,S,Ghayl Bā Wazīr,YE,,8cdb4a73-5247-47eb-a8b6-ee62fff894c5,
639,107 Thierer Road,S,Majiang,CN,,e7f79a51-5b1e-4593-8167-48dfe80666db,
640,81477 Rowland Plaza,XL,San Andrés,PA,,e0a0443d-4c8f-455b-9862-25995b8ee5e0,
641,548 Burrows Point,M,Tshaneni,SZ,,2e4fc762-3ea1-4976-b7c8-d51a6a09bc7c,
642,93972 Lukken Circle,M,Totolan,PH,6346,93600723-ed93-4bcc-8a6a-74078e1c0338,
643,2 Union Terrace,M,Nantai,CN,,29bdaf83-d65d-4de4-bebb-35c2d03798ee,
644,35 Farragut Court,XL,Narutō,JP,289-1343,3bbe34a5-9c06-42cf-b87f-e4978c00a257,
645,470 Shopko Terrace,2XL,Marondera,ZW,,1519124c-ecc9-4ab1-afc9-22ba4baf4f47,
646,921 Leroy Park,S,Feteira Grande,PT,9630-305,9cf8d56f-ec85-4f9f-9599-24ec12eecc52,42
647,52127 Pepper Wood Terrace,3XL,Jinling,CN,,4594997c-a432-4c68-8bcd-e40c14aaeaeb,
648,4 Spohn Road,3XL,Capioví,AR,3334,f9579f36-0581-4374-9c31-6ba5c28ef200,
649,7 Forster Avenue,M,Huamachuco,PE,,bcc4e36a-d017-439f-823c-0f199518e269,
650,28 Waywood Place,M,Macaíba,BR,59280-000,0200fef7-c04d-417b-8d62-01fdcce19dd4,
651,4613 Mitchell Court,2XL,Kertayuga,ID,,bfc5f523-ccc3-4e67-aee7-1b97432f3f76,
652,97 Oneill Lane,L,Leramatang,ID,,99f65b2c-7516-4344-a332-b819e17904f4,
653,3 Boyd Pass,3XL,Topi,PK,23460,ec48e0e6-4826-44d0-acc9-fa902121c20d,
654,37103 Bluestem Pass,M,Calizo,PH,5610,d7335f89-7146-43d9-85e5-4750200fcbdf,
655,22 Washington Drive,2XL,Nishi-Tokyo-shi,JP,203-0044,52692053-78c4-4e6b-acf8-b91473b92d86,
656,02697 Esker Hill,XS,Wright,PH,6702,84da58ab-306f-44a8-9e9b-7d8239dfbd19,
657,7 Eagan Road,M,Dinahican,PH,850,3de15281-8b58-4993-91f5-242dc1f3c8ed,
658,4 Lakewood Plaza,L,Baidoa,SO,,e2e57154-324b-4dd4-96cf-cc01a7984acd,
659,641 Utah Crossing,XS,Esperanza,DO,11301,e821dd60-0b28-46c5-b844-f51381b3d286,
660,0041 Bobwhite Crossing,2XL,Beselga,PT,3630-058,e7cb5495-fb68-4d41-bfa5-6e76ff29f358,18
661,2 Michigan Street,L,Dobje pri Planini,SI,3224,8ecd040d-4c4e-4ba9-9de2-4a9f6bd81067,
662,276 Montana Park,M,Memphis,US,38188,5934e035-45b0-4957-b55c-54aee09d26cc,TN
663,2 Onsgard Point,XL,Xiaojin,CN,,0799fdb0-77dc-4344-9e25-8bcb32eb9098,
664,19402 Little Fleur Center,XL,Atar,MR,,c58ac92c-c60d-4692-9d98-869eaaa05d50,
665,92124 Graceland Hill,M,Chenjiaba,CN,,85230abe-5d1c-4329-9248-130a9437a927,
666,97838 Village Green Terrace,XL,Ínfias,PT,4815-075,6ea52d65-e7cb-4565-b7a9-894b42205e7d,3
667,803 Bay Place,L,Gambiran,ID,,a7b6fb16-6c1c-4228-b622-c52f1df0d8e5,
668,915 Helena Circle,2XL,Huamali,PE,,f1dacb1d-12c6-4970-bd27-78b31edb5f32,
669,2 Lindbergh Hill,XS,Saumur,FR,49411 CEDEX,b9140fd3-a24d-455e-99ee-6632bb56bb5f,B5
670,99 Merchant Point,L,Zhongpai,CN,,22b0cccb-5efa-4458-a8cd-a8d20c401235,
671,4 Declaration Parkway,M,Stockholm,SE,103 88,3748933a-d619-40eb-945f-a4b6602f0fd2,AB
672,02 Petterle Drive,XL,Sumberejo,ID,,095e19df-6de3-4cc3-a1b3-511468a722a1,
673,92928 Cardinal Place,3XL,Kiamba,PH,9514,f913e062-3dfc-4655-9caa-33a0bc278df8,
674,209 Elgar Park,L,Seč,CZ,798 45,e45bc8c0-b7d1-4a09-8a54-b2456878bcbb,
675,6 Manley Terrace,XS,Hane,ID,,bde97885-7e26-4e23-97c3-a6d249025a95,
676,6 Hoard Circle,3XL,Donglinxi,CN,,2ba3a301-eea5-4ac5-a83a-1ccb7e49ee6f,
677,54056 Elka Avenue,XS,Altavista,MX,32127,4ad82363-d5fe-400a-b883-9a2c05b2dbd5,COL
678,43 Victoria Trail,L,Houbai,CN,,084c40c4-0d41-41cd-b4ba-2fad1e76534f,
679,857 Ilene Court,2XL,Telsen,AR,9121,2167d993-ec51-465d-a0eb-3dcd41278c92,
680,3401 Waxwing Point,XL,Le Mans,FR,72080 CEDEX 9,200c6111-7558-4880-944b-44dba073a48c,B5
681,12 Messerschmidt Terrace,XL,K Bang,VN,,5de68b30-54b2-4208-a860-b76768ed4c5e,
682,7 Merrick Terrace,M,Anwen,CN,,60e8e150-b016-4c7d-b3f6-7beea448c4fd,
683,1633 Dovetail Center,XL,Magisterial,MX,32350,cce67347-a2f9-44e5-8bb6-c42ec2494457,COL
684,6 Di Loreto Road,L,Staraya Russa,RU,175228,0ea290ff-e438-4c26-9d8e-fb22108b330b,
685,92 Brown Place,S,Bria,CF,,5d9fbfa3-5541-48af-9952-7360088798f4,
686,08 Lakeland Way,2XL,Shangcun,CN,,a5af26e1-1c59-4e2e-8915-2c073ab407e3,
687,9 Pennsylvania Alley,3XL,Sarnaki,PL,08-220,0b91a69e-adcc-4a50-9fb2-58b205711bd1,
688,66896 Park Meadow Avenue,XL,San Antonio,HN,,0f265e95-4e96-454d-b8e8-de9d139e6749,
689,0 Crownhardt Court,XS,Al Khāniq,YE,,1c76c759-6529-4187-8b4f-c20f31bee729,
690,5940 Knutson Park,S,Chuantang,CN,,fab11ca3-b7a2-4366-a5c0-f8bcebdeef56,
691,596 Hooker Place,2XL,Stockholm,SE,107 07,d6982934-787a-4096-86e0-7fa913a5a943,AB
692,62355 Caliangt Place,3XL,Sarishābāri,BD,2051,c60b8472-d300-4ad0-bf13-7272acb5a8fd,
693,05 Fallview Junction,XS,Wuda,CN,,7c1bccb9-36d5-4723-be11-7195ccc634fd,
694,9694 Dixon Lane,S,Blobo,ID,,455ed090-62bc-4e53-878d-ebfcc03c4f30,
695,17 Sullivan Parkway,3XL,Avignon,FR,84007 CEDEX 1,c04c725e-5457-4375-87ff-617fb2d9910d,B8
696,60074 Dexter Drive,S,Rauma,FI,26820,6277a5ac-af18-441f-a34d-05fac6687150,
697,71658 Milwaukee Street,S,Vendychany,UA,,b95ef885-5da5-40f3-ac84-bd93dfa04077,
698,64879 Tony Way,XS,Resende,BR,27500-000,a6973c1f-1402-4d56-ac6e-3b880acf8b4b,
699,92 High Crossing Crossing,XL,Barrancabermeja,CO,687047,9e283515-ab39-4caa-a5bd-a928acbb4f21,
700,423 Lawn Hill,S,‘Arad,IL,,e134d91b-a0b5-416b-96b9-c402cabae335,
701,1 Eggendart Circle,2XL,Alpatovo,RU,433303,4f20e0a1-4550-4580-84bb-39c304bd3cfc,
702,8 Luster Road,XS,San Bernardino,PY,,eccab363-5686-4615-8c11-61e8a71d82d7,
703,19 Pepper Wood Point,S,Huixing,CN,,f3c10b7f-eaf3-4290-8680-514a8cac564b,
704,8 Upham Road,2XL,Prigrevica,RS,,9fc43687-8b9c-4f1c-ae2b-22ab1a2d6a87,
705,3 Brentwood Avenue,M,Panzhou,CN,,bcc21309-aece-4056-a522-f4e6a7501d0d,
706,0 Packers Parkway,XS,Lucaya,BS,,07b6208d-0205-40b6-bd57-d04c94ce9dc1,
707,65 Eastwood Pass,XS,Senovo,SI,8281,ad43e1f3-39c3-4fa6-a9d5-c3dfd7a489b2,
708,03 Leroy Way,M,Đạ Tẻh,VN,,305ee4f8-11ab-4d45-9b39-fa798f260b7d,
709,976 Randy Trail,XL,Irupi,BR,29398-000,d2c4320f-725e-4a11-b3e9-15c8f200a63b,
710,2495 Johnson Pass,S,La Virgen,CR,41002,e11b0251-e443-4eef-964e-9b9564d76a13,
711,51440 Tennessee Road,L,Ko Pha Ngan,TH,22110,09e15b61-d0cb-4240-80f7-4eb7af6b8882,
712,1 Rowland Pass,M,Lancaster,US,93584,2ae7c583-109c-45e5-8fa7-4bf73b172d07,CA
713,2230 Manley Pass,M,Lianhua,CN,,9ce32f43-02c0-44a6-9369-dea8b177779f,
714,817 Hermina Parkway,L,Gyumri,AM,,84a43049-dc19-463d-99a2-ff5cdc7fc9ec,
715,632 Sage Junction,L,Bella Vista,PY,,2eaa57b3-af18-43fe-bb48-7e1e4acaaa63,
716,39106 Melby Drive,S,Giraldo,CO,57047,5e05c115-5946-4a58-944c-d9a03b1ef134,
717,034 Holmberg Crossing,M,Ngampon,ID,,4a8f50ba-934d-4ccf-9200-d2790067536e,
718,0794 Crest Line Crossing,XS,Xixi,CN,,93b91024-b91e-4aac-902f-ba137411e700,
719,7 Erie Park,3XL,Baryshevo,RU,646575,a24e7a63-0fdc-4bd2-a753-9f3585cf2b70,
720,40 Mccormick Street,3XL,Sozopol,BG,8131,48f66137-3a72-4a8f-a1fa-51c68faa7f32,
721,118 Valley Edge Street,XS,Mandala,ID,,a7c7cb31-0eba-44aa-bb50-24b41cf67f2f,
722,223 8th Place,XL,Ungus-Ungus,PH,9002,322400d5-94d1-4932-83db-17c2f3ac7878,
723,507 Saint Paul Parkway,L,Caxarias,PT,2435-042,3b33834b-f97b-40d7-a047-28e524e7c7a9,14
724,7923 Main Hill,S,Mỹ Tho,VN,,e1133c50-56ac-4b80-8332-f7849172d60a,
725,2 Michigan Point,XS,Argenteuil,FR,95109 CEDEX,8d896e46-d098-4830-92c4-e179acd2ca48,A8
726,7825 Warrior Pass,S,Fāryāb,IR,,960534ca-f82a-4a1d-9cd6-796a23f18053,
727,4662 Westerfield Crossing,XS,Didou,CN,,bb7ca1ef-549c-48f5-9c3f-82c44c8726df,
728,5 Haas Point,XL,Ūdalah,PS,,3b342b53-8280-4b68-98e3-d38d985d6bea,
729,9 Declaration Place,XL,Buturlinovka,RU,397507,166dd90b-e6af-4e7f-b3c0-06f588ae781b,
730,6807 Golf View Trail,L,Kuznechikha,RU,416507,447a7518-e2f6-444e-8996-d0f6c0928085,
731,79 Crownhardt Plaza,S,Kumba,CM,,5257466b-6ad7-47f0-9886-5bd83d26aba5,
732,79 Prairieview Parkway,S,Mońki,PL,19-101,b6246713-a47c-4633-af19-4c2c1b657b72,
733,97 Jay Circle,S,Urpay,PE,,3d637bcb-f988-444f-bb96-f9c92916f09d,
734,4 Lighthouse Bay Road,2XL,Liborina,CO,51468,2e48920f-ecd1-4560-8a86-f82b54cc07e9,
735,01190 Vernon Park,XL,Salimbalan,PH,8706,37c1a8a1-6155-40bb-82e2-afd31235c379,
736,03851 Elmside Road,XS,Villa Urquiza,AR,4000,cbb39b1d-548e-4da5-b4b3-75badbdef6b5,
737,06 West Junction,3XL,Quận Mười,VN,,85ba7ce3-a72b-46c1-acda-5443641c008c,
738,7 Dexter Way,2XL,Jiashan,CN,,6ed810e8-075d-494d-8872-03263c6e263e,
739,604 Dwight Road,S,Pouzauges,FR,85708 CEDEX,2ead94d8-396d-49b5-a95a-fa94f8490c0a,B5
740,96720 Burrows Court,2XL,Grojec,PL,32-615,92ea4a22-3997-4166-a816-068d564577cc,
741,4 Thompson Park,XL,Strogino,RU,352174,e851c5f6-a1b9-4ff0-a4b6-3ade16ff72a8,
742,7 Dottie Alley,XS,Sridadi,ID,,ed7d8e07-09f9-4c46-9d23-928ed0c2a378,
743,5 Huxley Circle,M,Suidong,CN,,c28a6566-51b9-4ec8-a316-63a933a4dfe4,
744,167 Mayer Road,XS,Fengshan,CN,,1093ffc2-50fc-4ea3-a9df-4e4d48164ef4,
745,78 Lighthouse Bay Alley,2XL,Cipicung,ID,,351be3e3-4860-4c29-96ca-820e590d22c5,
746,4 Thompson Circle,2XL,Yushu,CN,,f01a1c12-8d3b-47f7-8698-7d67f686056c,
747,2970 Warbler Center,S,Ribeiro,PT,4520-712,478a13cc-7a79-4c97-9588-a2ad81cc0c86,1
748,1 Ruskin Street,XS,Loppi,FI,12701,613a7d55-0435-4849-848f-3ec8120c7b44,
749,0067 Golf Center,3XL,Aiguo,CN,,532e0d15-de81-4bd8-9619-ee67caf0662e,
750,6909 Bartillon Lane,S,Ban Rangsit,TH,55000,88920e39-9b80-4ff8-836f-ebf35935f62a,
751,8 Sauthoff Alley,3XL,Veselí nad Moravou,CZ,698 01,cc417cf4-fcd2-41b5-b4dd-447481db0372,
752,64830 2nd Terrace,M,Mülheim an der Ruhr,DE,45473,9a595406-63cf-4d35-b2ed-256d000ea09c,NW
753,12848 Ohio Way,M,Dukou,CN,,8e79687d-9ecf-4767-8cbc-e17823e0ab6f,
754,28 Ohio Pass,3XL,Bribir,HR,51253,a2679d81-aec7-4f82-b791-e8a934717f99,
755,91086 Nova Junction,XS,Mirpur Khas,PK,28031,4d37d4fa-e982-4c75-84c5-7c7a994d089d,
756,56803 Brickson Park Way,XL,Shkodër,AL,,23025a43-31db-4765-ab66-28f7bda5e9bb,
757,9 Moulton Place,2XL,Leping,CN,,b5a25098-a48a-4fba-bf59-1f1943966a21,
758,3 Knutson Alley,XL,Shangjia,CN,,7087ecad-5a96-44ec-8a56-2964472da256,
759,48353 Goodland Plaza,L,Las Piñas,PH,1752,9ae91e84-b1ba-441f-8f3b-57e28c080174,
760,52 Ryan Road,XS,Moijabana,BW,,dd41dd42-594c-43d1-8c10-18f6389036a2,
761,5 Norway Maple Center,2XL,Varybóbi,GR,,fd89af94-580c-42f7-a134-0347507939cd,
762,11300 Menomonie Alley,2XL,Campamento,CO,52027,578168d5-8867-40a9-9e27-03e9108404f8,
763,784 Westport Avenue,3XL,El Banco,CO,473049,0d9073de-b975-4399-b4d5-230398c90737,
764,4 Erie Junction,3XL,Ihuari,PE,,bfdb5824-0772-4aed-a373-918e2a238202,
765,1139 Warbler Hill,L,Tulsa,US,74103,35f9e36e-bf17-4a11-ac59-5b18c2228c76,OK
766,19771 Sunfield Alley,2XL,Reshetylivka,UA,,d4cf3a9a-974b-4b91-8364-957a2e2d9590,
767,89 Hallows Plaza,3XL,Pucón,CL,,009509ed-bfca-432d-b0bf-853367fb1206,
768,8 Oakridge Circle,XS,Chengtang,CN,,f858e811-c338-468e-95ac-a5b8f6232529,
769,38 Sloan Plaza,S,Tacurong,PH,9800,9292214a-3d12-411c-9650-ff33bd352f6e,
770,23 Boyd Center,2XL,San Cristóbal Cucho,GT,12027,7f3d81b0-0206-43fd-aae0-f13f92e75eb0,
771,22 Tennessee Street,S,Ar Rifā‘,BH,,48b2fcb2-d02a-4db9-9967-7dbffbc0ca6f,
772,5060 Anzinger Plaza,3XL,Gengzhuang,CN,,0e65f752-dd3b-49e9-a19f-b896b4651059,
773,55674 Burrows Circle,XL,Woodford Hill,DM,,95e5119c-88da-4236-a0cb-e80baec4f426,
774,500 Sachtjen Center,M,Markog,CN,,26535288-ff5b-4e06-a2be-35db4dccefed,
775,7 Westend Hill,S,Chinú,CO,232059,22da9288-1be4-44b0-be30-f819884ec99f,
776,739 Clyde Gallagher Hill,L,Eqlīd,IR,,f966a9d9-5056-4f3f-bae5-f3896ec481ca,
777,25424 Westend Avenue,S,Kananga,CD,,9669bb14-88de-4ea3-aed3-2e93dac24797,
778,5561 Logan Trail,M,Norrköping,SE,601 14,d0467451-8f71-4753-8dbf-2d280385460e,E
779,53117 Gulseth Lane,XL,Raszowa,PL,47-232,8b3c18d7-ba9f-4cad-88ea-9c9309053dc4,
780,630 Del Mar Place,S,Książ Wielkopolski,PL,63-130,278a4509-16c3-4dd4-9359-928f4e8aaf31,
781,9 Clarendon Crossing,S,Batang,ID,,a1b089f6-2b0f-4bb0-9491-f4af7e96abac,
782,45080 Main Place,XL,Hägersten,SE,129 45,eb0f7676-a7d6-4379-92dd-f3323af08d4a,AB
783,3 Barnett Trail,S,San Pedro One,PH,4234,f38c19bc-1f3b-48dd-b273-2ec17bd8fd61,
784,15 Manufacturers Pass,3XL,Geidam,NG,,3385c69a-4cd4-4308-901d-25ad1526c299,
785,32 Pankratz Way,S,Wenwucao,CN,,bb308d8c-a7b2-40e0-92a6-55f79d3c6e1a,
786,668 Bartelt Parkway,L,Huxi,CN,,e791ab3e-5521-4cfd-87df-f9d524ef0313,
787,49101 Hauk Point,XL,Zolotyy Potik,UA,,f986dfc6-8a32-4ff6-9907-4384aef2a781,
788,32 1st Crossing,XL,Huntington,US,25705,be67933e-f87c-440b-b9c2-92a5627a9abf,WV
789,276 Elgar Drive,2XL,Shanglian,CN,,72cc6844-adfb-43ab-82e5-f6dab61bf041,
790,67 Schurz Avenue,3XL,Starobaltachevo,RU,452988,38b7189b-410a-4244-a703-e9d5159c39e5,
791,8 Mayer Point,M,Saint Augustine,US,32092,8fe713b9-ca5d-49c4-94a8-082bb61d410b,FL
792,115 Steensland Lane,M,Anyu,CN,,940567f5-dc8c-463f-b80c-421159999d38,
793,36 International Circle,3XL,Józefów,PL,24-340,932626e6-a609-48a8-ae66-8715537b3770,
794,5461 Northport Way,XS,Nueve de Julio,AR,3606,a5edeb2e-e55e-4bda-a063-a25a073104fc,
795,22810 Jackson Terrace,XL,Menampukrajan,ID,,5b1f339f-09ca-4fff-a9aa-1448dce35a4f,
796,96154 Fulton Trail,M,Ananea,PE,,4cb49d7d-3eff-485c-9446-122c58ec6ee3,
797,9 Towne Circle,M,Shypyntsi,UA,,3ffb4e1a-22b8-45b4-81b2-1dcf0ecf3fb6,
798,74802 Fisk Point,S,Lakha Nëvre,RU,442638,1e685530-dbd3-4039-9fe5-a9c49700f38a,
799,71554 Pleasure Park,XS,Qingchuan,CN,,d8850067-c699-4358-8b1c-8e0508708355,
800,84 Continental Road,S,Nawá,SY,,420a50cb-adce-48fa-983e-a19fe9f600f1,
801,755 Sauthoff Street,L,Šabac,RS,,e9db016f-d746-4d63-9ca0-2dc89ee4ff7c,
802,09384 Meadow Valley Way,3XL,Huyunxiang,CN,,19519da0-0fb6-48a9-bdd9-f4183697dbc8,
803,811 Service Drive,M,Tobi Village,PW,,8001b37b-400a-45fe-9bac-fb4f6a4f60c1,
804,92 Glendale Pass,L,Santa Teresita,PH,4206,502b7f9c-61d3-44da-b773-c2e1a713969e,
805,0027 Superior Park,3XL,Fuji,CN,,4f75e652-058c-470d-861b-0c21e83f3d55,
806,1 Roxbury Street,3XL,Luthu,ID,,bd3b2820-0894-46e0-937e-2d3b6f2bbb1a,
807,52 Hallows Hill,M,Majur,RS,,6527c4c5-cdd9-499c-99cd-73bb0a6a82ec,
808,5375 Dakota Trail,M,Tukuyu,TZ,,056c943b-997a-4b0f-a6b1-544e0978e370,
809,48226 New Castle Plaza,3XL,Houbai,CN,,650ab0b9-1c00-473d-82d3-c4c4b25fa411,
810,62602 Pawling Court,L,Souto da Costa,PT,3700-599,e03585a9-4703-404b-a999-0958d94020f7,1
811,1906 Londonderry Plaza,XL,Pnikut,UA,,4cb8b0aa-99d5-43a2-b4ed-d39c72488634,
812,5356 Declaration Street,XS,Chicago,US,60624,bd0302ee-2ae9-4d5a-8726-198faa93d257,IL
813,24 Burning Wood Avenue,3XL,Famaillá,AR,4132,fb3db23b-6b25-4564-a54c-6144d8a890b3,
814,2 Londonderry Road,S,La Paz,PH,8508,59f99098-231e-4b6d-92b1-a6706e9af0ab,
815,9 Acker Terrace,3XL,Złotniki Kujawskie,PL,88-180,84598796-a5d3-4c48-a8ef-dd506a53994e,
816,87579 Londonderry Avenue,XL,Bochum,DE,44869,01077cb8-d001-4f41-9c9b-91753ae8eb68,NW
817,3 Basil Circle,M,Åmål,SE,662 33,87a454dd-f1bd-4f26-9f34-6222c21539aa,O
818,350 Heath Road,L,Koumra,TD,,42b71c71-d968-4ef3-a223-35dd662390af,
819,6 Helena Circle,3XL,San Pedro del Paraná,PY,,12fef1b0-008a-43d8-b90a-4b940561acb8,
820,1297 Kim Avenue,L,Xinjia,CN,,3c91346e-4076-4a23-993f-5fe09da093b4,
821,9039 Independence Hill,2XL,Jingzhou,CN,,234973f7-4933-4192-b5c0-656c257a1f2b,
822,10 Sloan Avenue,XS,Bulihan,PH,5000,c79f6d6a-06e6-4859-84b4-76142e853a22,
823,5 Kipling Court,2XL,Mazra‘at Bayt Jinn,SY,,124e7eb4-4109-4d01-bf84-a57fd414d6be,
824,62 Melby Plaza,XL,Yaozhuang,CN,,bbf82aee-c28e-4c5f-ba8f-349dc18ed58c,
825,891 Warrior Point,3XL,Tanshan,CN,,18382173-434a-4b47-af0b-318ca9e721df,
826,7 Barby Hill,L,Campos Gerais,BR,37160-000,47e3dc71-5c9f-43a4-9395-1ad29206c7a7,
827,3774 Lakewood Pass,S,Mrongi Daja,ID,,5854d3cb-97dd-4e4e-833b-a7c6f9057284,
828,3 Crownhardt Circle,2XL,Mamedkala,RU,368628,b871d677-d81e-4341-99cb-a399968c23b2,
829,18691 Dunning Plaza,S,Conception Bay South,CA,A1X,fbb4209a-feca-425d-90f7-dacc7c241e06,NL
830,252 Browning Road,L,Paiçandu,BR,87140-000,0bcebe06-d2bf-4964-8597-f6df8de09d0a,
831,73282 Tennessee Lane,XS,Mungkin,ID,,adef7328-7894-4a4c-b0c6-27c77a7aaac5,
832,625 Myrtle Road,L,Mendi,PG,,1037eb40-301e-412a-83be-6f4ff44b8761,
833,4 5th Lane,M,Gastello,RU,694210,16b77f5a-434c-4bcf-b1bc-6232374392c0,
834,82 Montana Way,3XL,Swindon,GB,SN1,fa4c11d6-7d54-430a-ace9-c7baaad7e98f,ENG
835,4310 Mesta Hill,3XL,Mucumpiz,VE,,719ad63c-336d-47b9-ba20-f3b68ff549ea,
836,58 Shoshone Road,L,Tianjiazhuang,CN,,255332c0-f701-471d-852c-6659e33cc904,
837,60 Arkansas Street,XL,Korkino,RU,456555,ff21a57a-6f66-4a53-8023-b1fa8132b4d7,
838,05 Express Lane,XL,Pengulu,ID,,b96e30ba-c5b2-4029-8bbe-cdf403548e40,
839,93 Canary Plaza,3XL,Piaocao,CN,,b25949d6-defc-4290-b3a5-008bf4cb2bcf,
840,9352 Dorton Alley,S,Miaotang,CN,,6544aff7-7674-47ee-8da3-5ed1a7a2404b,
841,87619 Oriole Point,2XL,San Antonio,CL,,b4c24334-0868-4c7c-8bf2-396c956b2bcb,
842,39395 Red Cloud Park,S,Brest,FR,29228 CEDEX 2,59573611-414d-4c33-aaa4-488caa0426f1,A2
843,14 Farragut Parkway,2XL,Tromsø,NO,9285,760db6b0-f1bc-4ade-814f-288b7fad4b53,19
844,321 3rd Avenue,2XL,Austin,US,78732,a2e42577-e2c3-41c2-b0ef-fb71670f34f0,TX
845,64 Mosinee Junction,XL,Zherdevka,RU,397100,d13237bd-60a9-4934-b95f-514d518387fe,
846,7 Division Street,2XL,Sergelen,MN,,a0c32d85-df99-4291-8e7b-ffac99343367,
847,3791 Messerschmidt Avenue,2XL,Guaíra,BR,14790-000,006a90a0-7ab5-4dea-a712-31d4293457e9,
848,100 Basil Parkway,2XL,Tianbao,CN,,7ff845a1-9c21-4474-a3bb-f954d473bc3a,
849,1553 Florence Point,3XL,Gora,NG,,f606f870-3a1a-49e3-9373-95cacc0c1035,
850,7058 Boyd Terrace,2XL,Niafunké,ML,,1ed3111a-1efd-4c9d-ae81-3325ea6bd199,
851,1658 Dunning Avenue,XS,Heshang,CN,,f526ce49-9144-4dae-b88e-db23614fa7ea,
852,9 Hintze Park,3XL,Obama,JP,976-0022,197f7e59-429f-4896-9b1a-fe725551c2c9,
853,37 Buhler Terrace,XL,Dole,FR,39104 CEDEX,52bec95a-dbea-4b7d-9a0c-d966b887511a,A6
854,569 Hoffman Center,S,Torslanda,SE,423 55,ac4f58f6-f1d3-4522-af8e-22db4df42ac7,O
855,59 Dunning Street,S,Laojunmiao,CN,,6c469e23-6088-41bd-8453-3d5de35bfc6e,
856,0 Amoth Park,2XL,Lomé,TG,,dd4c2c80-595d-426f-bd3a-c083e89a5ca7,
857,9 Mandrake Park,S,Kyrenia,CY,,7e00071b-cf3c-4624-afea-7d6dca984e02,
858,08 Doe Crossing Center,3XL,Naze,JP,631-0034,3991ce9d-5260-410b-85cd-de679339e0c8,
859,2 Hagan Pass,L,Ochakovo-Matveyevskoye,RU,249028,23c83d42-523a-423f-9b97-105fe7d28316,
860,8549 Calypso Drive,S,‘Ayn Ḩalāqīm,SY,,04c84c43-aed9-46dc-b500-fefd1ed05a35,
861,061 Maple Wood Street,M,Biny Selo,AZ,,e9372f19-ed16-4b79-ae72-64cb3ec6e314,
862,81 Duke Terrace,2XL,Mongo,TD,,30c2d5ca-aaf3-49ce-84ee-6fbe12276bd7,
863,73362 Montana Crossing,3XL,Horodnytsya,UA,,38d714c6-4737-47fb-be3a-2c1abdc4128a,
864,905 Lindbergh Center,3XL,Trstenik,RS,,dd1477e3-2d9c-463d-830f-52627001e7b0,
865,1450 Merchant Lane,XS,Saint-Maurice-l'Exil,FR,38554 CEDEX,fd6faf5b-692e-45bf-8b7c-f515e8759ff1,B9
866,151 Mallory Crossing,3XL,Fruitvale,CA,K2H,b728f833-3259-486e-a6de-bd849963b406,BC
867,9263 Stoughton Drive,2XL,Komono,JP,811-3122,8f85f5b8-3514-456c-be96-1f62ba70f865,
868,182 Crest Line Trail,2XL,Troitskaya,RU,386245,a728b944-6f67-4851-93f6-c62f5e9b0f0f,
869,5972 Corben Pass,L,Sambopinggir,ID,,bb4b968f-4cbb-4946-9240-202fa2f8d971,
870,83 Buhler Crossing,S,Zhu’ao,CN,,2b1cdd4d-b0d7-4efc-8b6f-d5ffe5774d57,
871,3 Rutledge Point,2XL,El Refugio,MX,36408,63d2fc28-7670-4078-8c53-9ddc53a4d13a,GUA
872,9 2nd Road,3XL,Damāvand,IR,,e1dc0bc1-e8d7-46f6-a928-f525a2cc9ee4,
873,2 Chinook Junction,3XL,Pigeiros,PT,4505-854,f347c6fd-ab54-4ac7-902b-fc490e955206,1
874,5 Towne Crossing,S,Gajiram,NG,,52fad479-77cf-429b-8b85-f63e3c946d98,
875,6554 Arapahoe Court,S,Irirum,PH,5102,60e7efea-6c4f-483e-ac0e-4634ab8be655,
876,0042 Center Court,L,Ādīs Zemen,ET,,b37cd020-ac60-4b1d-8d44-0948898a6d7d,
877,73753 Barby Road,XS,Pinheiro,PT,4960-254,a0ac292a-9171-46b8-936a-09e2bcb099aa,16
878,6224 4th Court,XS,Jīma,ET,,2f507f2f-dd34-4a65-be83-e7b85beb14c8,
879,49852 Continental Hill,L,Zongzhai,CN,,9cfa617b-15a4-48cb-b3b2-461ff77d6c9b,
880,91184 Artisan Park,2XL,Kumanis,ID,,88d6f7e9-0c47-41a5-8d83-0f845c9a33f4,
881,252 Superior Terrace,S,Lyon,FR,69367 CEDEX 07,377c82b1-d1cc-4e75-bde7-8c29aa294395,B9
882,7 Lighthouse Bay Lane,L,Cekcyn,PL,89-511,a49acbea-58d1-4cfc-85d8-ed6289c13060,
883,1 Old Gate Park,XL,Zamboanguita,PH,1812,899356eb-f1b9-4a29-8185-56b6a6cd7c3e,
884,3328 Gerald Alley,S,Kuivaniemi,FI,95100,d5bbef84-50e3-480e-8735-5da223eadfc3,
885,8 Thackeray Road,XS,Žirovnice,CZ,394 68,4a511afd-9474-4513-90a5-0e8e6b8e2940,
886,720 Twin Pines Street,XS,Kumanovo,MK,1300,d82b4b86-e061-43d3-91b3-aa7b83ed274c,
887,03 Larry Alley,XL,Barotac Nuevo,PH,1045,d6bf135e-3df4-48d5-a799-22e6582413e8,
888,69322 Tennyson Lane,S,Ust’-Kachka,RU,614524,50f9732b-0378-44ac-aeac-81fd60e4c15f,
889,6 Kensington Avenue,3XL,Dinaig,PH,8310,58b1b8d9-1ab5-4693-ac0f-870cbda3c31b,
890,538 Johnson Street,XL,Tupambaé,UY,,ef841bc5-9eec-4514-a065-6858145c721d,
891,518 Kingsford Road,2XL,Yaroslavskaya,RU,352857,a11c7dee-e92d-4bb3-a145-cd03c472a555,
892,62345 Farmco Trail,XL,Duekoué,CI,,719e75f2-b85d-4f8a-9c08-46aec2798965,
893,638 Loftsgordon Road,2XL,Hedong,CN,,9110df8b-0e48-4332-8f52-ad43c73f2be4,
894,850 Moose Pass,3XL,Rogoza,SI,2327,1733435a-9e1c-49b8-bd1b-8d71c00ea873,
895,28753 Barnett Trail,2XL,Zaragoza,CO,52448,32fe2bbc-0891-4600-a82b-b175f57440d9,
896,285 Sheridan Alley,S,Wāling,NP,,944632c8-e1be-4694-808b-b3bf7a5a0e87,
897,5 Helena Street,S,Nsukka,NG,,ad62aa92-d07d-4d2a-a088-e373361aa3d6,
898,65921 Bluestem Circle,L,Lipnica Wielka,PL,34-483,e9a35bab-4110-4968-ad70-b1c9cc85c4d1,
899,5 Warbler Crossing,XS,Tasikona,ID,,11645d3b-1dae-4e24-a70f-1c1c2e23a276,
900,2 Delaware Crossing,L,Domoni,KM,,6aab4d73-8eb7-4278-97b5-e06f65c6c868,
901,894 Bartillon Point,L,Sukoreno,ID,,b2e0aa96-c70a-4f9d-b881-7d45de16cd08,
902,8 Old Shore Crossing,XL,Sang-e Chārak,AF,,28f19d7c-8857-4e21-86d0-9b4db60ea996,
903,930 Logan Crossing,S,Gaïtánion,GR,,f66853e9-41e5-44d2-8bd4-d4f99b1d65ce,
904,7762 Declaration Drive,S,Lagodekhi,GE,,08d37502-620e-4b31-b987-947a73cc1b56,
905,9860 Manitowish Terrace,M,Abbotsford,CA,L9T,ad3eeb43-6f9d-4ec7-99c5-38aa3dd036b3,BC
906,23 Meadow Ridge Plaza,S,Klang,MY,41200,2bb312d2-18cf-4df9-931b-6cdcf78f896c,SGR
907,7 Sunbrook Junction,3XL,Hostavice,CZ,198 00,7728babb-4430-44e7-be17-2d7950276e4c,
908,9088 Debs Court,2XL,Vera Cruz,BR,17560-000,e857047c-328a-4425-9443-66c05ffbedfe,
909,848 Onsgard Drive,XL,Baltimore,US,21290,99be1241-4d27-4c62-a98c-6cf1d31c6d6b,MD
910,5 Loftsgordon Point,2XL,Minneapolis,US,55480,7140ed9e-7525-47e1-b810-f8a3461d9f60,MN
911,68 Corscot Lane,L,Goshogawara,JP,952-1505,07bec0be-f48d-4e85-9c64-f66bd0d66be8,
912,32 Michigan Junction,XL,Raas,ID,,19c79c93-ac6b-42b0-af53-d46e6e833852,
913,6530 Cardinal Drive,S,Shumyachi,RU,216420,d60f90a4-a3b1-4c5a-b900-6c14875715a7,
914,7 Warbler Place,XS,Tunzhai,CN,,ed07f0c5-01ff-44c3-b43b-f350dd10cb4a,
915,781 Graceland Point,L,Vin’kivtsi,UA,,6514b6ef-8c1a-4342-9032-b47708e1288f,
916,94269 Eagle Crest Park,M,Pandanrejokrajan,ID,,465e29da-06b8-4b60-87b6-9951e49e60fe,
917,93 Petterle Way,M,Na Chaluai,TH,34280,690e8db4-7adb-4a5e-b6e0-20ecd44d8b7a,
918,802 Declaration Place,M,Shazhouba,CN,,944e27d9-73eb-4f8a-8100-a80586fac777,
919,379 Prairieview Circle,XS,Hepu,CN,,df200163-e589-41da-ad88-4fd8c84570e9,
920,965 Evergreen Point,XS,Paka,ID,,27be33c1-a3bf-4a8c-b298-ef855deed93b,
921,68564 Derek Junction,2XL,Guadalupe,MX,29952,2d02d6cb-6c20-4832-8fb2-bc532884bb13,COA
922,21 Tony Hill,2XL,Sulop,PH,8009,ff950ffe-4703-4faa-b718-93a220aa78bb,
923,193 Fremont Trail,L,Karangsari,ID,,a86c7989-adc9-435c-8ce9-f1a2595ee0a9,
924,00515 Sommers Lane,XL,Zhongying,CN,,92bc92ef-0781-4fec-9f83-a6e4a875e684,
925,06493 Homewood Place,L,Tomakomai,JP,882-1622,cfdf73cd-edd9-42e8-8656-50abe9444cca,
926,55 Tennessee Crossing,2XL,San Roque,PH,6415,54e37a68-9a05-4603-86a4-891023af5330,
927,0003 Alpine Parkway,S,Pelasgía,GR,,ffbfc9f0-db3e-4d39-93af-34e40d8e8b1c,
928,2 Roxbury Junction,2XL,Boxholm,SE,590 14,d3d54b96-9e3c-4422-bca3-8c5594d6a52e,E
929,95 Reinke Lane,L,Paitan Norte,PH,3117,24776224-ba58-4339-a388-11d014d69b40,
930,16017 Helena Terrace,XL,Memphis,US,38188,5e42d95f-3323-4710-985e-66a14d88b341,TN
931,3 Summerview Court,L,Enschede,NL,7504,f81b386e-87d5-4954-bbb7-06f18bd496e3,15
932,68 Stuart Court,S,Setro,ID,,c189e89d-6970-4316-abbf-3f63c4d3afe2,
933,45 Hanson Trail,3XL,San Juan,PR,928,19a6389a-74ac-42ca-8c1e-ec4c307d59d7,72
934,6784 Ronald Regan Pass,XS,Veles,MK,1400,3da8673b-08ff-45a1-a206-81b3ac33b3b4,
935,99 Randy Avenue,M,Skellefteå,SE,931 22,d04c65d1-19d7-4d54-8299-364fe310e53f,AC
936,82109 Lotheville Court,XS,Natarleba,ID,,1313091c-99b4-42bd-be83-7a67e55e7796,
937,246 Kennedy Lane,S,Lawa-an,PH,5706,e90c6cfd-f812-4284-963e-9d126013c6f7,
938,5578 Butternut Hill,S,Gur’yevsk,RU,636700,2eec604a-192b-4688-b200-5a6d2700fe9e,
939,05 6th Trail,3XL,Cegłów,PL,05-319,af42dd34-a74f-42fa-a937-eff85ac1246d,
940,01 Steensland Court,L,Norfolk,US,23504,8a111496-1941-4ff4-b554-0054de95bbd5,VA
941,0 Corben Alley,3XL,Arrah,CI,,0c2a1724-2c46-43eb-a3b7-4bc627e42ec4,
942,89646 Chive Road,XL,Zhongshi,CN,,729b6d93-55af-4ea3-8224-da2b8cbcace3,
943,1 Jenna Parkway,M,Francisco Villa,MX,26030,852c71c2-238b-45dd-b18c-d4ee3d9e635a,CHP
944,4067 Pine View Circle,2XL,Ulimonong,ID,,210c03b5-acd5-48ea-a806-1c719d5a3601,
945,9 Melrose Court,3XL,Chahe,CN,,af71d6ad-8a5a-4971-84cd-b3ed48e1edb9,
946,26462 Grover Terrace,S,Buenavista,MX,81806,97782ab3-b531-499f-a18c-676908ef6de7,SIN
947,12 Spohn Crossing,S,Agios Dimitrios,GR,,1b09472f-cec2-4bbf-9bfa-21e13bef1d23,
948,96624 Bunker Hill Circle,XL,Tongjin,KR,,6c321985-c1f4-49d1-a9b3-b790663490fd,
949,7568 Namekagon Trail,XS,Chãos,PT,4690-805,78674c26-71c4-4801-bbfa-4eb68e66ce8a,18
950,415 Packers Crossing,2XL,Chaniá,GR,,f8c179f6-0023-4600-8e44-f5c104c6c06b,
951,99 Portage Way,XL,Jönköping,SE,551 84,7074181e-91e0-45f5-b2a2-ac50c2e91477,F
952,45196 Forest Run Center,2XL,Liucun,CN,,70f35043-0969-4e34-8875-fdd376df336f,
953,3365 Waxwing Place,S,Machico,PT,9200-088,f3db4afb-e6b9-46ec-b374-1023a0dd1560,31
954,69 Homewood Alley,XS,Reggio Calabria,IT,89129,762d2574-d3d7-4916-ace8-fad405908005,CI
955,8981 Sullivan Way,M,Caçador,BR,89500-000,12631b43-109b-41c0-92b9-1df27fe7a1e6,
956,26870 Arapahoe Pass,M,Lianhua,CN,,9d9de985-5bc2-4e4e-8c82-52b8a250084e,
957,83040 Moland Parkway,XL,Kamigyō-ku,JP,612-8447,87e944bf-597c-4324-afd3-6616f5151a24,
958,4 Amoth Center,L,Dadoupu,CN,,60db64e2-5498-4e7a-aaa3-bd17fb3c34a6,
959,65 Prairieview Alley,L,Sukaraja,ID,,657006b0-c6e8-458a-bb48-769a78d6cadb,
960,7722 Waubesa Park,XL,Blumbang,ID,,9277786f-436c-4d46-9938-c90986a6561d,
961,435 Sunnyside Hill,M,Dongcheng,CN,,806fa2fb-56c5-4c5f-95b7-ab7bd9e549d1,
962,02 Esch Plaza,2XL,Donskoy,RU,347735,43b109e3-dd63-4692-8af9-7c72bb3c35f3,
963,5 Village Hill,M,Sölvesborg,SE,294 95,f382186d-38e2-466f-a215-872526427907,K
964,11091 New Castle Drive,XL,Ziyuan,CN,,48d6dde4-44c3-4b54-b1cb-3025be064e80,
965,0 Sommers Lane,M,Raniżów,PL,36-130,e19f881c-aaa9-4db6-81fc-d338bd0a577e,
966,2976 Farwell Place,3XL,Novoselec,HR,10315,03162ee2-aee1-43ce-90a9-b7a6a86721e9,
967,8 Dexter Terrace,M,Casigua El Cubo,VE,,bbd15de3-f29f-45c8-9252-3c7e7cd6a411,
968,53646 Old Shore Hill,XS,Westport,NZ,7866,7cd64cd0-e886-4f3b-a7d1-e73c1ed1be18,
969,5 Oriole Center,2XL,Zhoutian,CN,,c7f6d6e2-85aa-42c1-9652-297b63829282,
970,38931 Raven Road,2XL,Essen,DE,45141,691eb112-fa2a-461a-ae98-6a3e75b61da5,NW
971,0039 Sugar Plaza,XL,Huesca,ES,22005,bc0a59e2-43c7-493c-b5b6-e6aa577ca30f,AR
972,16032 Northridge Trail,3XL,Nao,ID,,c749c762-7613-4d12-a323-669471d55b94,
973,3498 Brown Way,XL,Faro,PT,8000-076,720a3e6b-c8b7-4bde-951a-59d032c57fe8,8
974,8 Larry Point,M,Krasnoarmiys’k,UA,,886ba6ad-a377-41e7-ac43-682dbf29f05d,
975,5 Shoshone Hill,XS,Södertälje,SE,151 44,5474cd08-23d4-4950-90d3-d8401d0094b9,AB
976,7 Montana Parkway,S,Mollas,AL,,de7f9bde-416d-4497-8bde-0d2bfbc9caf6,
977,66073 Lukken Way,M,Motema,SL,,77392ac0-c942-413c-8f2c-b9e0860114e3,
978,383 Almo Pass,3XL,Quchomo,CN,,da230de2-ea7b-41aa-8868-93d2a4b9725c,
979,1 Buhler Place,L,San Lorenzo,PE,,bec1c9a2-0ac4-4170-a918-47c0d6fe2348,
980,17874 Grover Avenue,2XL,Si Thep,TH,67170,eb8e11d9-971a-4378-bfcd-3e1b83c04873,
981,49527 Schiller Drive,M,Langue,HN,,c92a5ed7-5f1d-4668-88d6-6d18193247b5,
982,013 Loeprich Pass,2XL,Hor,CN,,ed811d7a-85f7-44ad-b9ca-a0980ce66002,
983,52 Blaine Center,2XL,Tisco,PE,,e7e4ce53-c5a3-466f-8721-183f5a90a6ef,
984,7144 Sutherland Center,L,São José do Rio Pardo,BR,13720-000,054de86d-38c9-4d16-9d4f-aff892662ca6,
985,02 Anniversary Road,2XL,Žirovnice,CZ,394 68,e545073a-f7be-4062-89fc-c4854e61f54d,
986,37223 Lotheville Center,XL,Pécs,HU,7610,ac7ae765-3153-4973-898d-44d0dfd990ba,BA
987,619 Steensland Pass,XS,Yumaguzino,RU,453337,dedb7d1a-6188-4dbb-af9d-f54dcccf4e4c,
988,4 Jenna Junction,2XL,Taraban Timur,ID,,818bdb94-752a-4caa-a50a-61d9f0bd9f5c,
989,26 Magdeline Drive,XS,Melchor Ocampo,MX,61910,5bf9d241-8352-4a22-9434-687b97c34beb,MIC
990,61 Sachs Pass,3XL,Sonzacate,SV,,e8cdd986-347c-46ef-b036-e7ce56758fc8,
991,380 Pennsylvania Place,3XL,Mauraro,PH,4515,2f64a571-caa7-44c7-aa9e-b0697298b8aa,
992,2127 Logan Lane,S,El Regalo,VE,,ccb9d207-8fc0-40a0-9718-7ff873f6321b,
993,5412 Hermina Parkway,2XL,Dalarik,AM,,e978b0b0-c991-4f37-b034-efc9ea2e99fd,
994,0 Green Point,M,Saripin,ID,,e113e4f0-47ce-4adf-adb6-83432ce3fea1,
995,43092 Scoville Hill,M,Paris 15,FR,75756 CEDEX 15,966a3208-d41b-415a-9f2d-6ca048e388c0,A8
996,24769 Transport Hill,M,Digkilaan,PH,9025,cca44433-979c-47ca-9e42-56ab3149ab61,
997,604 Warner Crossing,M,Gorskaya,RU,197755,ba40cf1b-d4fb-461b-afba-a230309a528a,
998,59 Kim Plaza,XL,Longquan,CN,,fd035d8e-fca4-48d3-a894-0fdb567eea68,
999,16079 Anniversary Alley,XS,Škofljica,SI,1291,25229174-84e1-48b5-9848-991c622e4c46,
995,43092 Scooville Hill,M,Paris 15,FR,75756 CEDEX 15,966a3208-d41b-415a-9f2d-6ca048e388c0,A8
996,24769  Transportt Hill,M,Digkilaan,PH,9025,cca44433-979c-47ca-9e42-56ab3149ab61,
997,604 Warner Cross,M,Gorskaya,RU,197755,ba40cf1b-d4fb-461b-afba-a230309a528a,
998,59 Kimm Plaza,XL,Longquan,CN,,fd035d8e-fca4-48d3-a894-0fdb567eea68,
999,16079 anniversary alley,XS,Škofljica,SI,1291,25229174-84e1-48b5-9848-991c622e4c46,
1000,7460 Clove Park,M,Shani,NG,,15b86d7f-a28f-4893-a49e-d3ff9cf9d270,